<?xml version="1.0" encoding="UTF-8"?>
<gpx xmlns="http://www.topografix.com/GPX/1/1" xmlns:gpxdata="http://www.cluetrust.com/XML/GPXDATA/1/0" xmlns:xsi="http://www.w3.org/2001/XMLSchema-instance" xsi:schemaLocation="http://www.topografix.com/GPX/1/1 https://www.topografix.com/GPX/1/1/gpx.xsd http://www.cluetrust.com/XML/GPXDATA/1/0 https://www.cluetrust.com/Schemas/gpxdata10.xsd" creator="COROS Wearables" version="1.1">
 <metadata>
  <link href="https://www.coros.com">
   <text>COROS</text>
  </link>
  <time>2026-09-16T10:46:39Z</time>
  <coros_edit>1</coros_edit>
 </metadata>
 <trk>
  <name>hongsung_marathon_half</name>
  <type>running</type>
  <trkseg>
   <trkpt lat="36.6065823" lon="126.6434156">
    <ele>62</ele>
   </trkpt>
   <trkpt lat="36.6069086" lon="126.6434291">
    <ele>62</ele>
   </trkpt>
   <trkpt lat="36.6072349" lon="126.6434426">
    <ele>62</ele>
   </trkpt>
   <trkpt lat="36.6072358" lon="126.6434594">
    <ele>62</ele>
   </trkpt>
   <trkpt lat="36.6072526" lon="126.6437793">
    <ele>62</ele>
   </trkpt>
   <trkpt lat="36.6072703" lon="126.6441161">
    <ele>63</ele>
   </trkpt>
   <trkpt lat="36.6072514" lon="126.6441220">
    <ele>62</ele>
   </trkpt>
   <trkpt lat="36.6068924" lon="126.6442331">
    <ele>62</ele>
   </trkpt>
   <trkpt lat="36.6065145" lon="126.6443501">
    <ele>62</ele>
   </trkpt>
   <trkpt lat="36.6064979" lon="126.6443399">
    <ele>62</ele>
   </trkpt>
   <trkpt lat="36.6061817" lon="126.6441460">
    <ele>61</ele>
   </trkpt>
   <trkpt lat="36.6058490" lon="126.6439418">
    <ele>63</ele>
   </trkpt>
   <trkpt lat="36.6051580" lon="126.6438740">
    <ele>75</ele>
   </trkpt>
   <trkpt lat="36.6051370" lon="126.6442060">
    <ele>75</ele>
   </trkpt>
   <trkpt lat="36.6051500" lon="126.6444960">
    <ele>74</ele>
   </trkpt>
   <trkpt lat="36.6051590" lon="126.6445810">
    <ele>74</ele>
   </trkpt>
   <trkpt lat="36.6052120" lon="126.6450690">
    <ele>72</ele>
   </trkpt>
   <trkpt lat="36.6052530" lon="126.6454080">
    <ele>71</ele>
   </trkpt>
   <trkpt lat="36.6053330" lon="126.6460640">
    <ele>70</ele>
   </trkpt>
   <trkpt lat="36.6054130" lon="126.6467200">
    <ele>66</ele>
   </trkpt>
   <trkpt lat="36.6054900" lon="126.6475420">
    <ele>64</ele>
   </trkpt>
   <trkpt lat="36.6054990" lon="126.6481420">
    <ele>62</ele>
   </trkpt>
   <trkpt lat="36.6054990" lon="126.6481540">
    <ele>62</ele>
   </trkpt>
   <trkpt lat="36.6055240" lon="126.6490030">
    <ele>59</ele>
   </trkpt>
   <trkpt lat="36.6055340" lon="126.6493340">
    <ele>58</ele>
   </trkpt>
   <trkpt lat="36.6055460" lon="126.6502820">
    <ele>54</ele>
   </trkpt>
   <trkpt lat="36.6055710" lon="126.6513860">
    <ele>50</ele>
   </trkpt>
   <trkpt lat="36.6055850" lon="126.6520180">
    <ele>48</ele>
   </trkpt>
   <trkpt lat="36.6055920" lon="126.6524640">
    <ele>49</ele>
   </trkpt>
   <trkpt lat="36.6056390" lon="126.6532710">
    <ele>49</ele>
   </trkpt>
   <trkpt lat="36.6056500" lon="126.6534900">
    <ele>50</ele>
   </trkpt>
   <trkpt lat="36.6056520" lon="126.6536190">
    <ele>50</ele>
   </trkpt>
   <trkpt lat="36.6056520" lon="126.6537390">
    <ele>51</ele>
   </trkpt>
   <trkpt lat="36.6056470" lon="126.6538700">
    <ele>51</ele>
   </trkpt>
   <trkpt lat="36.6056280" lon="126.6540650">
    <ele>50</ele>
   </trkpt>
   <trkpt lat="36.6055980" lon="126.6542510">
    <ele>49</ele>
   </trkpt>
   <trkpt lat="36.6055350" lon="126.6547120">
    <ele>46</ele>
   </trkpt>
   <trkpt lat="36.6055170" lon="126.6549360">
    <ele>45</ele>
   </trkpt>
   <trkpt lat="36.6055050" lon="126.6550810">
    <ele>44</ele>
   </trkpt>
   <trkpt lat="36.6054360" lon="126.6559230">
    <ele>40</ele>
   </trkpt>
   <trkpt lat="36.6053820" lon="126.6565870">
    <ele>37</ele>
   </trkpt>
   <trkpt lat="36.6053330" lon="126.6572530">
    <ele>36</ele>
   </trkpt>
   <trkpt lat="36.6052840" lon="126.6580910">
    <ele>34</ele>
   </trkpt>
   <trkpt lat="36.6052350" lon="126.6589280">
    <ele>31</ele>
   </trkpt>
   <trkpt lat="36.6052030" lon="126.6593830">
    <ele>30</ele>
   </trkpt>
   <trkpt lat="36.6051570" lon="126.6599210">
    <ele>30</ele>
   </trkpt>
   <trkpt lat="36.6051370" lon="126.6601110">
    <ele>29</ele>
   </trkpt>
   <trkpt lat="36.6050550" lon="126.6609440">
    <ele>29</ele>
   </trkpt>
   <trkpt lat="36.6050140" lon="126.6612490">
    <ele>29</ele>
   </trkpt>
   <trkpt lat="36.6049590" lon="126.6616590">
    <ele>30</ele>
   </trkpt>
   <trkpt lat="36.6049220" lon="126.6619440">
    <ele>29</ele>
   </trkpt>
   <trkpt lat="36.6048960" lon="126.6621320">
    <ele>27</ele>
   </trkpt>
   <trkpt lat="36.6048780" lon="126.6622620">
    <ele>27</ele>
   </trkpt>
   <trkpt lat="36.6048740" lon="126.6623540">
    <ele>27</ele>
   </trkpt>
   <trkpt lat="36.6048720" lon="126.6629330">
    <ele>28</ele>
   </trkpt>
   <trkpt lat="36.6048870" lon="126.6636720">
    <ele>28</ele>
   </trkpt>
   <trkpt lat="36.6048890" lon="126.6642630">
    <ele>27</ele>
   </trkpt>
   <trkpt lat="36.6048740" lon="126.6647480">
    <ele>27</ele>
   </trkpt>
   <trkpt lat="36.6048660" lon="126.6655360">
    <ele>28</ele>
   </trkpt>
   <trkpt lat="36.6048460" lon="126.6662380">
    <ele>27</ele>
   </trkpt>
   <trkpt lat="36.6048260" lon="126.6669400">
    <ele>27</ele>
   </trkpt>
   <trkpt lat="36.6048110" lon="126.6677480">
    <ele>27</ele>
   </trkpt>
   <trkpt lat="36.6047950" lon="126.6685490">
    <ele>27</ele>
   </trkpt>
   <trkpt lat="36.6047860" lon="126.6690370">
    <ele>26</ele>
   </trkpt>
   <trkpt lat="36.6047830" lon="126.6691500">
    <ele>26</ele>
   </trkpt>
   <trkpt lat="36.6047590" lon="126.6694090">
    <ele>26</ele>
   </trkpt>
   <trkpt lat="36.6047050" lon="126.6696520">
    <ele>26</ele>
   </trkpt>
   <trkpt lat="36.6046620" lon="126.6697950">
    <ele>26</ele>
   </trkpt>
   <trkpt lat="36.6045900" lon="126.6700000">
    <ele>25</ele>
   </trkpt>
   <trkpt lat="36.6042040" lon="126.6708510">
    <ele>25</ele>
   </trkpt>
   <trkpt lat="36.6041470" lon="126.6710010">
    <ele>25</ele>
   </trkpt>
   <trkpt lat="36.6040200" lon="126.6716390">
    <ele>26</ele>
   </trkpt>
   <trkpt lat="36.6038750" lon="126.6723350">
    <ele>26</ele>
   </trkpt>
   <trkpt lat="36.6037840" lon="126.6727540">
    <ele>26</ele>
   </trkpt>
   <trkpt lat="36.6036570" lon="126.6733340">
    <ele>25</ele>
   </trkpt>
   <trkpt lat="36.6036240" lon="126.6734840">
    <ele>25</ele>
   </trkpt>
   <trkpt lat="36.6034100" lon="126.6744880">
    <ele>24</ele>
   </trkpt>
   <trkpt lat="36.6032860" lon="126.6750710">
    <ele>24</ele>
   </trkpt>
   <trkpt lat="36.6031610" lon="126.6756900">
    <ele>24</ele>
   </trkpt>
   <trkpt lat="36.6030990" lon="126.6761160">
    <ele>24</ele>
   </trkpt>
   <trkpt lat="36.6030750" lon="126.6762860">
    <ele>24</ele>
   </trkpt>
   <trkpt lat="36.6030180" lon="126.6766770">
    <ele>23</ele>
   </trkpt>
   <trkpt lat="36.6030010" lon="126.6768110">
    <ele>23</ele>
   </trkpt>
   <trkpt lat="36.6029840" lon="126.6770100">
    <ele>24</ele>
   </trkpt>
   <trkpt lat="36.6029230" lon="126.6775320">
    <ele>23</ele>
   </trkpt>
   <trkpt lat="36.6029370" lon="126.6775460">
    <ele>23</ele>
   </trkpt>
   <trkpt lat="36.6029500" lon="126.6775690">
    <ele>23</ele>
   </trkpt>
   <trkpt lat="36.6029620" lon="126.6775920">
    <ele>23</ele>
   </trkpt>
   <trkpt lat="36.6029640" lon="126.6775980">
    <ele>23</ele>
   </trkpt>
   <trkpt lat="36.6029730" lon="126.6776190">
    <ele>23</ele>
   </trkpt>
   <trkpt lat="36.6029810" lon="126.6776470">
    <ele>23</ele>
   </trkpt>
   <trkpt lat="36.6029870" lon="126.6776770">
    <ele>23</ele>
   </trkpt>
   <trkpt lat="36.6029900" lon="126.6777070">
    <ele>23</ele>
   </trkpt>
   <trkpt lat="36.6029910" lon="126.6777370">
    <ele>23</ele>
   </trkpt>
   <trkpt lat="36.6029890" lon="126.6777670">
    <ele>23</ele>
   </trkpt>
   <trkpt lat="36.6029840" lon="126.6777970">
    <ele>24</ele>
   </trkpt>
   <trkpt lat="36.6029770" lon="126.6778260">
    <ele>24</ele>
   </trkpt>
   <trkpt lat="36.6029670" lon="126.6778530">
    <ele>24</ele>
   </trkpt>
   <trkpt lat="36.6030990" lon="126.6777670">
    <ele>23</ele>
   </trkpt>
   <trkpt lat="36.6032000" lon="126.6777020">
    <ele>23</ele>
   </trkpt>
   <trkpt lat="36.6032500" lon="126.6776700">
    <ele>23</ele>
   </trkpt>
   <trkpt lat="36.6032730" lon="126.6776550">
    <ele>23</ele>
   </trkpt>
   <trkpt lat="36.6033070" lon="126.6776340">
    <ele>23</ele>
   </trkpt>
   <trkpt lat="36.6037960" lon="126.6773260">
    <ele>22</ele>
   </trkpt>
   <trkpt lat="36.6038550" lon="126.6772950">
    <ele>23</ele>
   </trkpt>
   <trkpt lat="36.6040730" lon="126.6771800">
    <ele>25</ele>
   </trkpt>
   <trkpt lat="36.6048320" lon="126.6768130">
    <ele>24</ele>
   </trkpt>
   <trkpt lat="36.6050980" lon="126.6767020">
    <ele>25</ele>
   </trkpt>
   <trkpt lat="36.6052060" lon="126.6766580">
    <ele>26</ele>
   </trkpt>
   <trkpt lat="36.6053030" lon="126.6766260">
    <ele>26</ele>
   </trkpt>
   <trkpt lat="36.6054270" lon="126.6765970">
    <ele>26</ele>
   </trkpt>
   <trkpt lat="36.6055190" lon="126.6765810">
    <ele>27</ele>
   </trkpt>
   <trkpt lat="36.6057830" lon="126.6765440">
    <ele>27</ele>
   </trkpt>
   <trkpt lat="36.6058230" lon="126.6765390">
    <ele>27</ele>
   </trkpt>
   <trkpt lat="36.6060460" lon="126.6765160">
    <ele>28</ele>
   </trkpt>
   <trkpt lat="36.6062840" lon="126.6764900">
    <ele>29</ele>
   </trkpt>
   <trkpt lat="36.6065240" lon="126.6764780">
    <ele>31</ele>
   </trkpt>
   <trkpt lat="36.6067600" lon="126.6764760">
    <ele>32</ele>
   </trkpt>
   <trkpt lat="36.6069590" lon="126.6764860">
    <ele>35</ele>
   </trkpt>
   <trkpt lat="36.6069920" lon="126.6764880">
    <ele>36</ele>
   </trkpt>
   <trkpt lat="36.6072850" lon="126.6765270">
    <ele>37</ele>
   </trkpt>
   <trkpt lat="36.6074360" lon="126.6765580">
    <ele>37</ele>
   </trkpt>
   <trkpt lat="36.6075410" lon="126.6765790">
    <ele>37</ele>
   </trkpt>
   <trkpt lat="36.6078190" lon="126.6766490">
    <ele>38</ele>
   </trkpt>
   <trkpt lat="36.6081150" lon="126.6767440">
    <ele>37</ele>
   </trkpt>
   <trkpt lat="36.6083440" lon="126.6768400">
    <ele>36</ele>
   </trkpt>
   <trkpt lat="36.6086730" lon="126.6769960">
    <ele>34</ele>
   </trkpt>
   <trkpt lat="36.6089410" lon="126.6771360">
    <ele>34</ele>
   </trkpt>
   <trkpt lat="36.6092670" lon="126.6773380">
    <ele>32</ele>
   </trkpt>
   <trkpt lat="36.6095640" lon="126.6775630">
    <ele>31</ele>
   </trkpt>
   <trkpt lat="36.6098610" lon="126.6778010">
    <ele>30</ele>
   </trkpt>
   <trkpt lat="36.6101330" lon="126.6780250">
    <ele>29</ele>
   </trkpt>
   <trkpt lat="36.6104710" lon="126.6783400">
    <ele>29</ele>
   </trkpt>
   <trkpt lat="36.6106310" lon="126.6784900">
    <ele>29</ele>
   </trkpt>
   <trkpt lat="36.6108110" lon="126.6786590">
    <ele>29</ele>
   </trkpt>
   <trkpt lat="36.6109050" lon="126.6787460">
    <ele>30</ele>
   </trkpt>
   <trkpt lat="36.6113020" lon="126.6790870">
    <ele>30</ele>
   </trkpt>
   <trkpt lat="36.6115080" lon="126.6792570">
    <ele>30</ele>
   </trkpt>
   <trkpt lat="36.6118910" lon="126.6795580">
    <ele>26</ele>
   </trkpt>
   <trkpt lat="36.6119370" lon="126.6795940">
    <ele>27</ele>
   </trkpt>
   <trkpt lat="36.6123020" lon="126.6798660">
    <ele>25</ele>
   </trkpt>
   <trkpt lat="36.6125010" lon="126.6800140">
    <ele>25</ele>
   </trkpt>
   <trkpt lat="36.6130480" lon="126.6803570">
    <ele>25</ele>
   </trkpt>
   <trkpt lat="36.6134290" lon="126.6805600">
    <ele>24</ele>
   </trkpt>
   <trkpt lat="36.6137910" lon="126.6807240">
    <ele>23</ele>
   </trkpt>
   <trkpt lat="36.6141540" lon="126.6808520">
    <ele>22</ele>
   </trkpt>
   <trkpt lat="36.6144430" lon="126.6809570">
    <ele>22</ele>
   </trkpt>
   <trkpt lat="36.6147020" lon="126.6810340">
    <ele>21</ele>
   </trkpt>
   <trkpt lat="36.6148700" lon="126.6810800">
    <ele>21</ele>
   </trkpt>
   <trkpt lat="36.6155290" lon="126.6812340">
    <ele>22</ele>
   </trkpt>
   <trkpt lat="36.6161880" lon="126.6813880">
    <ele>22</ele>
   </trkpt>
   <trkpt lat="36.6164080" lon="126.6814390">
    <ele>22</ele>
   </trkpt>
   <trkpt lat="36.6168000" lon="126.6815280">
    <ele>21</ele>
   </trkpt>
   <trkpt lat="36.6172500" lon="126.6816310">
    <ele>22</ele>
   </trkpt>
   <trkpt lat="36.6175930" lon="126.6817090">
    <ele>22</ele>
   </trkpt>
   <trkpt lat="36.6178060" lon="126.6817530">
    <ele>22</ele>
   </trkpt>
   <trkpt lat="36.6181480" lon="126.6818240">
    <ele>22</ele>
   </trkpt>
   <trkpt lat="36.6186530" lon="126.6819300">
    <ele>23</ele>
   </trkpt>
   <trkpt lat="36.6190310" lon="126.6820090">
    <ele>26</ele>
   </trkpt>
   <trkpt lat="36.6191020" lon="126.6820230">
    <ele>26</ele>
   </trkpt>
   <trkpt lat="36.6194980" lon="126.6821150">
    <ele>29</ele>
   </trkpt>
   <trkpt lat="36.6200390" lon="126.6822390">
    <ele>33</ele>
   </trkpt>
   <trkpt lat="36.6205960" lon="126.6823610">
    <ele>41</ele>
   </trkpt>
   <trkpt lat="36.6211520" lon="126.6824820">
    <ele>35</ele>
   </trkpt>
   <trkpt lat="36.6215550" lon="126.6825780">
    <ele>30</ele>
   </trkpt>
   <trkpt lat="36.6218490" lon="126.6826670">
    <ele>31</ele>
   </trkpt>
   <trkpt lat="36.6221360" lon="126.6827690">
    <ele>35</ele>
   </trkpt>
   <trkpt lat="36.6224300" lon="126.6829040">
    <ele>41</ele>
   </trkpt>
   <trkpt lat="36.6227020" lon="126.6830280">
    <ele>42</ele>
   </trkpt>
   <trkpt lat="36.6229990" lon="126.6831940">
    <ele>42</ele>
   </trkpt>
   <trkpt lat="36.6232360" lon="126.6833570">
    <ele>43</ele>
   </trkpt>
   <trkpt lat="36.6237640" lon="126.6837410">
    <ele>45</ele>
   </trkpt>
   <trkpt lat="36.6242930" lon="126.6841250">
    <ele>37</ele>
   </trkpt>
   <trkpt lat="36.6248210" lon="126.6845090">
    <ele>44</ele>
   </trkpt>
   <trkpt lat="36.6249180" lon="126.6845810">
    <ele>44</ele>
   </trkpt>
   <trkpt lat="36.6253180" lon="126.6848760">
    <ele>43</ele>
   </trkpt>
   <trkpt lat="36.6257710" lon="126.6852110">
    <ele>45</ele>
   </trkpt>
   <trkpt lat="36.6262240" lon="126.6855460">
    <ele>48</ele>
   </trkpt>
   <trkpt lat="36.6265740" lon="126.6858040">
    <ele>53</ele>
   </trkpt>
   <trkpt lat="36.6268160" lon="126.6859840">
    <ele>52</ele>
   </trkpt>
   <trkpt lat="36.6274530" lon="126.6864600">
    <ele>41</ele>
   </trkpt>
   <trkpt lat="36.6280900" lon="126.6869350">
    <ele>36</ele>
   </trkpt>
   <trkpt lat="36.6285330" lon="126.6872700">
    <ele>34</ele>
   </trkpt>
   <trkpt lat="36.6288910" lon="126.6875160">
    <ele>33</ele>
   </trkpt>
   <trkpt lat="36.6292140" lon="126.6877250">
    <ele>31</ele>
   </trkpt>
   <trkpt lat="36.6294710" lon="126.6878540">
    <ele>30</ele>
   </trkpt>
   <trkpt lat="36.6297530" lon="126.6879780">
    <ele>33</ele>
   </trkpt>
   <trkpt lat="36.6299890" lon="126.6880480">
    <ele>34</ele>
   </trkpt>
   <trkpt lat="36.6302550" lon="126.6881050">
    <ele>38</ele>
   </trkpt>
   <trkpt lat="36.6304610" lon="126.6881330">
    <ele>41</ele>
   </trkpt>
   <trkpt lat="36.6306640" lon="126.6881400">
    <ele>42</ele>
   </trkpt>
   <trkpt lat="36.6307280" lon="126.6881360">
    <ele>44</ele>
   </trkpt>
   <trkpt lat="36.6309060" lon="126.6881260">
    <ele>45</ele>
   </trkpt>
   <trkpt lat="36.6311250" lon="126.6881000">
    <ele>45</ele>
   </trkpt>
   <trkpt lat="36.6312000" lon="126.6880850">
    <ele>45</ele>
   </trkpt>
   <trkpt lat="36.6313780" lon="126.6880480">
    <ele>44</ele>
   </trkpt>
   <trkpt lat="36.6316240" lon="126.6879720">
    <ele>43</ele>
   </trkpt>
   <trkpt lat="36.6318210" lon="126.6878890">
    <ele>40</ele>
   </trkpt>
   <trkpt lat="36.6320110" lon="126.6877860">
    <ele>41</ele>
   </trkpt>
   <trkpt lat="36.6322170" lon="126.6876520">
    <ele>43</ele>
   </trkpt>
   <trkpt lat="36.6323990" lon="126.6875230">
    <ele>45</ele>
   </trkpt>
   <trkpt lat="36.6326120" lon="126.6873460">
    <ele>47</ele>
   </trkpt>
   <trkpt lat="36.6333170" lon="126.6866640">
    <ele>52</ele>
   </trkpt>
   <trkpt lat="36.6336130" lon="126.6863370">
    <ele>56</ele>
   </trkpt>
   <trkpt lat="36.6339420" lon="126.6860250">
    <ele>56</ele>
   </trkpt>
   <trkpt lat="36.6340520" lon="126.6859130">
    <ele>54</ele>
   </trkpt>
   <trkpt lat="36.6340990" lon="126.6858630">
    <ele>54</ele>
   </trkpt>
   <trkpt lat="36.6342410" lon="126.6857220">
    <ele>53</ele>
   </trkpt>
   <trkpt lat="36.6342770" lon="126.6856850">
    <ele>52</ele>
   </trkpt>
   <trkpt lat="36.6343840" lon="126.6855730">
    <ele>50</ele>
   </trkpt>
   <trkpt lat="36.6345310" lon="126.6854140">
    <ele>50</ele>
   </trkpt>
   <trkpt lat="36.6345600" lon="126.6853820">
    <ele>47</ele>
   </trkpt>
   <trkpt lat="36.6346450" lon="126.6852860">
    <ele>47</ele>
   </trkpt>
   <trkpt lat="36.6347860" lon="126.6850940">
    <ele>45</ele>
   </trkpt>
   <trkpt lat="36.6349220" lon="126.6848890">
    <ele>43</ele>
   </trkpt>
   <trkpt lat="36.6349530" lon="126.6848430">
    <ele>43</ele>
   </trkpt>
   <trkpt lat="36.6352610" lon="126.6843780">
    <ele>46</ele>
   </trkpt>
   <trkpt lat="36.6357810" lon="126.6835920">
    <ele>46</ele>
   </trkpt>
   <trkpt lat="36.6362140" lon="126.6829500">
    <ele>45</ele>
   </trkpt>
   <trkpt lat="36.6366480" lon="126.6823080">
    <ele>47</ele>
   </trkpt>
   <trkpt lat="36.6370810" lon="126.6816660">
    <ele>49</ele>
   </trkpt>
   <trkpt lat="36.6375810" lon="126.6809260">
    <ele>53</ele>
   </trkpt>
   <trkpt lat="36.6376760" lon="126.6807900">
    <ele>53</ele>
   </trkpt>
   <trkpt lat="36.6378020" lon="126.6806470">
    <ele>53</ele>
   </trkpt>
   <trkpt lat="36.6379370" lon="126.6805110">
    <ele>52</ele>
   </trkpt>
   <trkpt lat="36.6380350" lon="126.6804270">
    <ele>51</ele>
   </trkpt>
   <trkpt lat="36.6381520" lon="126.6803450">
    <ele>50</ele>
   </trkpt>
   <trkpt lat="36.6382570" lon="126.6802840">
    <ele>50</ele>
   </trkpt>
   <trkpt lat="36.6383970" lon="126.6802090">
    <ele>48</ele>
   </trkpt>
   <trkpt lat="36.6385400" lon="126.6801420">
    <ele>47</ele>
   </trkpt>
   <trkpt lat="36.6387390" lon="126.6800580">
    <ele>46</ele>
   </trkpt>
   <trkpt lat="36.6395450" lon="126.6796940">
    <ele>46</ele>
   </trkpt>
   <trkpt lat="36.6399260" lon="126.6795220">
    <ele>45</ele>
   </trkpt>
   <trkpt lat="36.6403510" lon="126.6793300">
    <ele>43</ele>
   </trkpt>
   <trkpt lat="36.6404320" lon="126.6792900">
    <ele>43</ele>
   </trkpt>
   <trkpt lat="36.6405190" lon="126.6792420">
    <ele>42</ele>
   </trkpt>
   <trkpt lat="36.6405940" lon="126.6791950">
    <ele>42</ele>
   </trkpt>
   <trkpt lat="36.6406260" lon="126.6791750">
    <ele>41</ele>
   </trkpt>
   <trkpt lat="36.6407300" lon="126.6790950">
    <ele>41</ele>
   </trkpt>
   <trkpt lat="36.6408290" lon="126.6790140">
    <ele>40</ele>
   </trkpt>
   <trkpt lat="36.6409430" lon="126.6789070">
    <ele>40</ele>
   </trkpt>
   <trkpt lat="36.6410380" lon="126.6788140">
    <ele>41</ele>
   </trkpt>
   <trkpt lat="36.6411800" lon="126.6786620">
    <ele>43</ele>
   </trkpt>
   <trkpt lat="36.6412810" lon="126.6785310">
    <ele>43</ele>
   </trkpt>
   <trkpt lat="36.6412900" lon="126.6785200">
    <ele>44</ele>
   </trkpt>
   <trkpt lat="36.6414090" lon="126.6783540">
    <ele>44</ele>
   </trkpt>
   <trkpt lat="36.6415240" lon="126.6781840">
    <ele>46</ele>
   </trkpt>
   <trkpt lat="36.6415790" lon="126.6781010">
    <ele>46</ele>
   </trkpt>
   <trkpt lat="36.6417810" lon="126.6778020">
    <ele>48</ele>
   </trkpt>
   <trkpt lat="36.6423350" lon="126.6769790">
    <ele>52</ele>
   </trkpt>
   <trkpt lat="36.6428900" lon="126.6761560">
    <ele>51</ele>
   </trkpt>
   <trkpt lat="36.6434440" lon="126.6753330">
    <ele>46</ele>
   </trkpt>
   <trkpt lat="36.6439980" lon="126.6745100">
    <ele>43</ele>
   </trkpt>
   <trkpt lat="36.6441500" lon="126.6742830">
    <ele>43</ele>
   </trkpt>
   <trkpt lat="36.6442170" lon="126.6741840">
    <ele>43</ele>
   </trkpt>
   <trkpt lat="36.6443710" lon="126.6739560">
    <ele>43</ele>
   </trkpt>
   <trkpt lat="36.6447730" lon="126.6733590">
    <ele>42</ele>
   </trkpt>
   <trkpt lat="36.6451740" lon="126.6727630">
    <ele>42</ele>
   </trkpt>
   <trkpt lat="36.6455760" lon="126.6721660">
    <ele>42</ele>
   </trkpt>
   <trkpt lat="36.6457860" lon="126.6718540">
    <ele>42</ele>
   </trkpt>
   <trkpt lat="36.6459820" lon="126.6715620">
    <ele>43</ele>
   </trkpt>
   <trkpt lat="36.6463280" lon="126.6710470">
    <ele>45</ele>
   </trkpt>
   <trkpt lat="36.6467900" lon="126.6703610">
    <ele>44</ele>
   </trkpt>
   <trkpt lat="36.6471760" lon="126.6697890">
    <ele>42</ele>
   </trkpt>
   <trkpt lat="36.6474840" lon="126.6693330">
    <ele>41</ele>
   </trkpt>
   <trkpt lat="36.6477910" lon="126.6688760">
    <ele>39</ele>
   </trkpt>
   <trkpt lat="36.6480110" lon="126.6685490">
    <ele>38</ele>
   </trkpt>
   <trkpt lat="36.6485430" lon="126.6677590">
    <ele>41</ele>
   </trkpt>
   <trkpt lat="36.6490750" lon="126.6669690">
    <ele>45</ele>
   </trkpt>
   <trkpt lat="36.6492850" lon="126.6666580">
    <ele>47</ele>
   </trkpt>
   <trkpt lat="36.6496070" lon="126.6661790">
    <ele>49</ele>
   </trkpt>
   <trkpt lat="36.6497470" lon="126.6659720">
    <ele>49</ele>
   </trkpt>
   <trkpt lat="36.6498620" lon="126.6658000">
    <ele>50</ele>
   </trkpt>
   <trkpt lat="36.6498260" lon="126.6657640">
    <ele>50</ele>
   </trkpt>
   <trkpt lat="36.6497620" lon="126.6656980">
    <ele>50</ele>
   </trkpt>
   <trkpt lat="36.6496920" lon="126.6656260">
    <ele>50</ele>
   </trkpt>
   <trkpt lat="36.6495510" lon="126.6655070">
    <ele>50</ele>
   </trkpt>
   <trkpt lat="36.6494620" lon="126.6654390">
    <ele>50</ele>
   </trkpt>
   <trkpt lat="36.6493670" lon="126.6653660">
    <ele>50</ele>
   </trkpt>
   <trkpt lat="36.6492140" lon="126.6652770">
    <ele>50</ele>
   </trkpt>
   <trkpt lat="36.6490000" lon="126.6651560">
    <ele>49</ele>
   </trkpt>
   <trkpt lat="36.6487990" lon="126.6650460">
    <ele>49</ele>
   </trkpt>
   <trkpt lat="36.6487240" lon="126.6650090">
    <ele>49</ele>
   </trkpt>
   <trkpt lat="36.6486010" lon="126.6649480">
    <ele>49</ele>
   </trkpt>
   <trkpt lat="36.6484260" lon="126.6648710">
    <ele>49</ele>
   </trkpt>
   <trkpt lat="36.6482410" lon="126.6648020">
    <ele>49</ele>
   </trkpt>
   <trkpt lat="36.6480390" lon="126.6647410">
    <ele>48</ele>
   </trkpt>
   <trkpt lat="36.6480310" lon="126.6647390">
    <ele>48</ele>
   </trkpt>
   <trkpt lat="36.6478630" lon="126.6646950">
    <ele>47</ele>
   </trkpt>
   <trkpt lat="36.6478430" lon="126.6646890">
    <ele>47</ele>
   </trkpt>
   <trkpt lat="36.6476080" lon="126.6646390">
    <ele>48</ele>
   </trkpt>
   <trkpt lat="36.6474550" lon="126.6646180">
    <ele>48</ele>
   </trkpt>
   <trkpt lat="36.6474550" lon="126.6646180">
    <ele>48</ele>
   </trkpt>
   <trkpt lat="36.6474010" lon="126.6646110">
    <ele>48</ele>
   </trkpt>
   <trkpt lat="36.6472430" lon="126.6645980">
    <ele>48</ele>
   </trkpt>
   <trkpt lat="36.6470510" lon="126.6645940">
    <ele>49</ele>
   </trkpt>
   <trkpt lat="36.6467290" lon="126.6645880">
    <ele>50</ele>
   </trkpt>
   <trkpt lat="36.6465420" lon="126.6645850">
    <ele>50</ele>
   </trkpt>
   <trkpt lat="36.6457990" lon="126.6645870">
    <ele>54</ele>
   </trkpt>
   <trkpt lat="36.6450570" lon="126.6645890">
    <ele>57</ele>
   </trkpt>
   <trkpt lat="36.6444690" lon="126.6645910">
    <ele>59</ele>
   </trkpt>
   <trkpt lat="36.6437510" lon="126.6645930">
    <ele>57</ele>
   </trkpt>
   <trkpt lat="36.6444490" lon="126.6645910">
    <ele>59</ele>
   </trkpt>
   <trkpt lat="36.6451470" lon="126.6645890">
    <ele>57</ele>
   </trkpt>
   <trkpt lat="36.6458440" lon="126.6645870">
    <ele>53</ele>
   </trkpt>
   <trkpt lat="36.6465420" lon="126.6645850">
    <ele>50</ele>
   </trkpt>
   <trkpt lat="36.6470510" lon="126.6645940">
    <ele>49</ele>
   </trkpt>
   <trkpt lat="36.6472430" lon="126.6645980">
    <ele>48</ele>
   </trkpt>
   <trkpt lat="36.6474010" lon="126.6646110">
    <ele>48</ele>
   </trkpt>
   <trkpt lat="36.6474550" lon="126.6646180">
    <ele>48</ele>
   </trkpt>
   <trkpt lat="36.6476080" lon="126.6646390">
    <ele>48</ele>
   </trkpt>
   <trkpt lat="36.6478430" lon="126.6646890">
    <ele>47</ele>
   </trkpt>
   <trkpt lat="36.6478630" lon="126.6646950">
    <ele>47</ele>
   </trkpt>
   <trkpt lat="36.6480310" lon="126.6647390">
    <ele>48</ele>
   </trkpt>
   <trkpt lat="36.6482410" lon="126.6648020">
    <ele>49</ele>
   </trkpt>
   <trkpt lat="36.6484260" lon="126.6648710">
    <ele>49</ele>
   </trkpt>
   <trkpt lat="36.6485770" lon="126.6649370">
    <ele>49</ele>
   </trkpt>
   <trkpt lat="36.6486010" lon="126.6649480">
    <ele>49</ele>
   </trkpt>
   <trkpt lat="36.6487990" lon="126.6650460">
    <ele>49</ele>
   </trkpt>
   <trkpt lat="36.6490000" lon="126.6651560">
    <ele>49</ele>
   </trkpt>
   <trkpt lat="36.6492140" lon="126.6652770">
    <ele>50</ele>
   </trkpt>
   <trkpt lat="36.6492370" lon="126.6652910">
    <ele>50</ele>
   </trkpt>
   <trkpt lat="36.6493670" lon="126.6653660">
    <ele>50</ele>
   </trkpt>
   <trkpt lat="36.6494620" lon="126.6654390">
    <ele>50</ele>
   </trkpt>
   <trkpt lat="36.6494770" lon="126.6654640">
    <ele>50</ele>
   </trkpt>
   <trkpt lat="36.6494920" lon="126.6654910">
    <ele>50</ele>
   </trkpt>
   <trkpt lat="36.6495110" lon="126.6655310">
    <ele>50</ele>
   </trkpt>
   <trkpt lat="36.6495280" lon="126.6655710">
    <ele>50</ele>
   </trkpt>
   <trkpt lat="36.6495430" lon="126.6656140">
    <ele>50</ele>
   </trkpt>
   <trkpt lat="36.6495530" lon="126.6656550">
    <ele>50</ele>
   </trkpt>
   <trkpt lat="36.6495600" lon="126.6657060">
    <ele>50</ele>
   </trkpt>
   <trkpt lat="36.6495640" lon="126.6657620">
    <ele>50</ele>
   </trkpt>
   <trkpt lat="36.6495640" lon="126.6658160">
    <ele>50</ele>
   </trkpt>
   <trkpt lat="36.6495610" lon="126.6658620">
    <ele>49</ele>
   </trkpt>
   <trkpt lat="36.6495540" lon="126.6659110">
    <ele>49</ele>
   </trkpt>
   <trkpt lat="36.6495460" lon="126.6659530">
    <ele>49</ele>
   </trkpt>
   <trkpt lat="36.6495320" lon="126.6660040">
    <ele>49</ele>
   </trkpt>
   <trkpt lat="36.6495170" lon="126.6660470">
    <ele>49</ele>
   </trkpt>
   <trkpt lat="36.6494890" lon="126.6661050">
    <ele>49</ele>
   </trkpt>
   <trkpt lat="36.6489180" lon="126.6669570">
    <ele>44</ele>
   </trkpt>
   <trkpt lat="36.6486630" lon="126.6673360">
    <ele>43</ele>
   </trkpt>
   <trkpt lat="36.6483290" lon="126.6678350">
    <ele>40</ele>
   </trkpt>
   <trkpt lat="36.6479950" lon="126.6683330">
    <ele>39</ele>
   </trkpt>
   <trkpt lat="36.6477700" lon="126.6686680">
    <ele>39</ele>
   </trkpt>
   <trkpt lat="36.6474270" lon="126.6691800">
    <ele>41</ele>
   </trkpt>
   <trkpt lat="36.6470840" lon="126.6696910">
    <ele>42</ele>
   </trkpt>
   <trkpt lat="36.6471760" lon="126.6697890">
    <ele>42</ele>
   </trkpt>
   <trkpt lat="36.6467780" lon="126.6703800">
    <ele>44</ele>
   </trkpt>
   <trkpt lat="36.6463800" lon="126.6709710">
    <ele>45</ele>
   </trkpt>
   <trkpt lat="36.6459820" lon="126.6715620">
    <ele>43</ele>
   </trkpt>
   <trkpt lat="36.6457860" lon="126.6718540">
    <ele>42</ele>
   </trkpt>
   <trkpt lat="36.6455760" lon="126.6721660">
    <ele>42</ele>
   </trkpt>
   <trkpt lat="36.6451740" lon="126.6727630">
    <ele>42</ele>
   </trkpt>
   <trkpt lat="36.6447730" lon="126.6733590">
    <ele>42</ele>
   </trkpt>
   <trkpt lat="36.6443710" lon="126.6739560">
    <ele>43</ele>
   </trkpt>
   <trkpt lat="36.6442170" lon="126.6741840">
    <ele>43</ele>
   </trkpt>
   <trkpt lat="36.6441500" lon="126.6742830">
    <ele>43</ele>
   </trkpt>
   <trkpt lat="36.6439980" lon="126.6745100">
    <ele>43</ele>
   </trkpt>
   <trkpt lat="36.6434960" lon="126.6752560">
    <ele>45</ele>
   </trkpt>
   <trkpt lat="36.6430690" lon="126.6758890">
    <ele>51</ele>
   </trkpt>
   <trkpt lat="36.6426070" lon="126.6765750">
    <ele>51</ele>
   </trkpt>
   <trkpt lat="36.6421940" lon="126.6771890">
    <ele>51</ele>
   </trkpt>
   <trkpt lat="36.6417810" lon="126.6778020">
    <ele>48</ele>
   </trkpt>
   <trkpt lat="36.6415790" lon="126.6781010">
    <ele>46</ele>
   </trkpt>
   <trkpt lat="36.6415240" lon="126.6781840">
    <ele>46</ele>
   </trkpt>
   <trkpt lat="36.6414090" lon="126.6783540">
    <ele>44</ele>
   </trkpt>
   <trkpt lat="36.6412900" lon="126.6785200">
    <ele>44</ele>
   </trkpt>
   <trkpt lat="36.6412810" lon="126.6785310">
    <ele>43</ele>
   </trkpt>
   <trkpt lat="36.6411800" lon="126.6786620">
    <ele>43</ele>
   </trkpt>
   <trkpt lat="36.6410380" lon="126.6788140">
    <ele>41</ele>
   </trkpt>
   <trkpt lat="36.6409430" lon="126.6789070">
    <ele>40</ele>
   </trkpt>
   <trkpt lat="36.6408290" lon="126.6790140">
    <ele>40</ele>
   </trkpt>
   <trkpt lat="36.6407300" lon="126.6790950">
    <ele>41</ele>
   </trkpt>
   <trkpt lat="36.6406260" lon="126.6791750">
    <ele>41</ele>
   </trkpt>
   <trkpt lat="36.6405190" lon="126.6792420">
    <ele>42</ele>
   </trkpt>
   <trkpt lat="36.6404320" lon="126.6792900">
    <ele>43</ele>
   </trkpt>
   <trkpt lat="36.6403510" lon="126.6793300">
    <ele>43</ele>
   </trkpt>
   <trkpt lat="36.6395450" lon="126.6796940">
    <ele>46</ele>
   </trkpt>
   <trkpt lat="36.6387390" lon="126.6800580">
    <ele>46</ele>
   </trkpt>
   <trkpt lat="36.6385400" lon="126.6801420">
    <ele>47</ele>
   </trkpt>
   <trkpt lat="36.6383970" lon="126.6802090">
    <ele>48</ele>
   </trkpt>
   <trkpt lat="36.6382570" lon="126.6802840">
    <ele>50</ele>
   </trkpt>
   <trkpt lat="36.6381520" lon="126.6803450">
    <ele>50</ele>
   </trkpt>
   <trkpt lat="36.6380350" lon="126.6804270">
    <ele>51</ele>
   </trkpt>
   <trkpt lat="36.6379370" lon="126.6805110">
    <ele>52</ele>
   </trkpt>
   <trkpt lat="36.6378020" lon="126.6806470">
    <ele>53</ele>
   </trkpt>
   <trkpt lat="36.6376760" lon="126.6807900">
    <ele>53</ele>
   </trkpt>
   <trkpt lat="36.6375810" lon="126.6809260">
    <ele>53</ele>
   </trkpt>
   <trkpt lat="36.6370810" lon="126.6816660">
    <ele>49</ele>
   </trkpt>
   <trkpt lat="36.6366480" lon="126.6823080">
    <ele>47</ele>
   </trkpt>
   <trkpt lat="36.6362140" lon="126.6829500">
    <ele>45</ele>
   </trkpt>
   <trkpt lat="36.6357810" lon="126.6835920">
    <ele>46</ele>
   </trkpt>
   <trkpt lat="36.6352610" lon="126.6843780">
    <ele>46</ele>
   </trkpt>
   <trkpt lat="36.6349930" lon="126.6847820">
    <ele>43</ele>
   </trkpt>
   <trkpt lat="36.6349530" lon="126.6848430">
    <ele>43</ele>
   </trkpt>
   <trkpt lat="36.6347860" lon="126.6850940">
    <ele>45</ele>
   </trkpt>
   <trkpt lat="36.6346450" lon="126.6852860">
    <ele>47</ele>
   </trkpt>
   <trkpt lat="36.6345310" lon="126.6854140">
    <ele>50</ele>
   </trkpt>
   <trkpt lat="36.6345070" lon="126.6854400">
    <ele>50</ele>
   </trkpt>
   <trkpt lat="36.6343840" lon="126.6855730">
    <ele>50</ele>
   </trkpt>
   <trkpt lat="36.6342770" lon="126.6856850">
    <ele>52</ele>
   </trkpt>
   <trkpt lat="36.6342410" lon="126.6857220">
    <ele>53</ele>
   </trkpt>
   <trkpt lat="36.6340990" lon="126.6858630">
    <ele>54</ele>
   </trkpt>
   <trkpt lat="36.6340520" lon="126.6859130">
    <ele>54</ele>
   </trkpt>
   <trkpt lat="36.6339420" lon="126.6860250">
    <ele>56</ele>
   </trkpt>
   <trkpt lat="36.6336130" lon="126.6863370">
    <ele>56</ele>
   </trkpt>
   <trkpt lat="36.6333170" lon="126.6866640">
    <ele>52</ele>
   </trkpt>
   <trkpt lat="36.6326120" lon="126.6873460">
    <ele>47</ele>
   </trkpt>
   <trkpt lat="36.6323990" lon="126.6875230">
    <ele>45</ele>
   </trkpt>
   <trkpt lat="36.6322170" lon="126.6876520">
    <ele>43</ele>
   </trkpt>
   <trkpt lat="36.6320110" lon="126.6877860">
    <ele>41</ele>
   </trkpt>
   <trkpt lat="36.6318210" lon="126.6878890">
    <ele>40</ele>
   </trkpt>
   <trkpt lat="36.6316240" lon="126.6879720">
    <ele>43</ele>
   </trkpt>
   <trkpt lat="36.6313780" lon="126.6880480">
    <ele>44</ele>
   </trkpt>
   <trkpt lat="36.6311250" lon="126.6881000">
    <ele>45</ele>
   </trkpt>
   <trkpt lat="36.6309060" lon="126.6881260">
    <ele>45</ele>
   </trkpt>
   <trkpt lat="36.6306640" lon="126.6881400">
    <ele>42</ele>
   </trkpt>
   <trkpt lat="36.6304610" lon="126.6881330">
    <ele>41</ele>
   </trkpt>
   <trkpt lat="36.6302550" lon="126.6881050">
    <ele>38</ele>
   </trkpt>
   <trkpt lat="36.6299890" lon="126.6880480">
    <ele>34</ele>
   </trkpt>
   <trkpt lat="36.6297530" lon="126.6879780">
    <ele>33</ele>
   </trkpt>
   <trkpt lat="36.6294710" lon="126.6878540">
    <ele>30</ele>
   </trkpt>
   <trkpt lat="36.6292140" lon="126.6877250">
    <ele>31</ele>
   </trkpt>
   <trkpt lat="36.6288910" lon="126.6875160">
    <ele>33</ele>
   </trkpt>
   <trkpt lat="36.6285330" lon="126.6872700">
    <ele>34</ele>
   </trkpt>
   <trkpt lat="36.6280900" lon="126.6869350">
    <ele>36</ele>
   </trkpt>
   <trkpt lat="36.6274530" lon="126.6864600">
    <ele>41</ele>
   </trkpt>
   <trkpt lat="36.6268160" lon="126.6859840">
    <ele>52</ele>
   </trkpt>
   <trkpt lat="36.6265740" lon="126.6858040">
    <ele>53</ele>
   </trkpt>
   <trkpt lat="36.6262240" lon="126.6855460">
    <ele>48</ele>
   </trkpt>
   <trkpt lat="36.6255230" lon="126.6850280">
    <ele>44</ele>
   </trkpt>
   <trkpt lat="36.6248210" lon="126.6845090">
    <ele>44</ele>
   </trkpt>
   <trkpt lat="36.6242930" lon="126.6841250">
    <ele>37</ele>
   </trkpt>
   <trkpt lat="36.6237640" lon="126.6837410">
    <ele>45</ele>
   </trkpt>
   <trkpt lat="36.6232930" lon="126.6833980">
    <ele>42</ele>
   </trkpt>
   <trkpt lat="36.6232360" lon="126.6833570">
    <ele>43</ele>
   </trkpt>
   <trkpt lat="36.6229990" lon="126.6831940">
    <ele>42</ele>
   </trkpt>
   <trkpt lat="36.6227020" lon="126.6830280">
    <ele>42</ele>
   </trkpt>
   <trkpt lat="36.6226490" lon="126.6830040">
    <ele>40</ele>
   </trkpt>
   <trkpt lat="36.6224300" lon="126.6829040">
    <ele>41</ele>
   </trkpt>
   <trkpt lat="36.6221360" lon="126.6827690">
    <ele>35</ele>
   </trkpt>
   <trkpt lat="36.6218490" lon="126.6826670">
    <ele>31</ele>
   </trkpt>
   <trkpt lat="36.6215550" lon="126.6825780">
    <ele>30</ele>
   </trkpt>
   <trkpt lat="36.6211520" lon="126.6824820">
    <ele>35</ele>
   </trkpt>
   <trkpt lat="36.6205960" lon="126.6823610">
    <ele>41</ele>
   </trkpt>
   <trkpt lat="36.6200390" lon="126.6822390">
    <ele>33</ele>
   </trkpt>
   <trkpt lat="36.6194980" lon="126.6821150">
    <ele>29</ele>
   </trkpt>
   <trkpt lat="36.6191020" lon="126.6820230">
    <ele>26</ele>
   </trkpt>
   <trkpt lat="36.6190310" lon="126.6820090">
    <ele>26</ele>
   </trkpt>
   <trkpt lat="36.6186530" lon="126.6819300">
    <ele>23</ele>
   </trkpt>
   <trkpt lat="36.6178060" lon="126.6817530">
    <ele>22</ele>
   </trkpt>
   <trkpt lat="36.6175930" lon="126.6817090">
    <ele>22</ele>
   </trkpt>
   <trkpt lat="36.6172500" lon="126.6816310">
    <ele>22</ele>
   </trkpt>
   <trkpt lat="36.6168000" lon="126.6815280">
    <ele>21</ele>
   </trkpt>
   <trkpt lat="36.6164080" lon="126.6814390">
    <ele>22</ele>
   </trkpt>
   <trkpt lat="36.6161880" lon="126.6813880">
    <ele>22</ele>
   </trkpt>
   <trkpt lat="36.6155290" lon="126.6812340">
    <ele>22</ele>
   </trkpt>
   <trkpt lat="36.6148700" lon="126.6810800">
    <ele>21</ele>
   </trkpt>
   <trkpt lat="36.6147020" lon="126.6810340">
    <ele>21</ele>
   </trkpt>
   <trkpt lat="36.6144430" lon="126.6809570">
    <ele>22</ele>
   </trkpt>
   <trkpt lat="36.6141540" lon="126.6808520">
    <ele>22</ele>
   </trkpt>
   <trkpt lat="36.6137910" lon="126.6807240">
    <ele>23</ele>
   </trkpt>
   <trkpt lat="36.6134290" lon="126.6805600">
    <ele>24</ele>
   </trkpt>
   <trkpt lat="36.6130480" lon="126.6803570">
    <ele>25</ele>
   </trkpt>
   <trkpt lat="36.6125010" lon="126.6800140">
    <ele>25</ele>
   </trkpt>
   <trkpt lat="36.6119370" lon="126.6795940">
    <ele>27</ele>
   </trkpt>
   <trkpt lat="36.6115080" lon="126.6792570">
    <ele>30</ele>
   </trkpt>
   <trkpt lat="36.6113020" lon="126.6790870">
    <ele>30</ele>
   </trkpt>
   <trkpt lat="36.6109050" lon="126.6787460">
    <ele>30</ele>
   </trkpt>
   <trkpt lat="36.6108110" lon="126.6786590">
    <ele>29</ele>
   </trkpt>
   <trkpt lat="36.6106310" lon="126.6784900">
    <ele>29</ele>
   </trkpt>
   <trkpt lat="36.6104710" lon="126.6783400">
    <ele>29</ele>
   </trkpt>
   <trkpt lat="36.6101330" lon="126.6780250">
    <ele>29</ele>
   </trkpt>
   <trkpt lat="36.6098610" lon="126.6778010">
    <ele>30</ele>
   </trkpt>
   <trkpt lat="36.6095640" lon="126.6775630">
    <ele>31</ele>
   </trkpt>
   <trkpt lat="36.6092670" lon="126.6773380">
    <ele>32</ele>
   </trkpt>
   <trkpt lat="36.6089410" lon="126.6771360">
    <ele>34</ele>
   </trkpt>
   <trkpt lat="36.6086730" lon="126.6769960">
    <ele>34</ele>
   </trkpt>
   <trkpt lat="36.6083440" lon="126.6768400">
    <ele>36</ele>
   </trkpt>
   <trkpt lat="36.6081150" lon="126.6767440">
    <ele>37</ele>
   </trkpt>
   <trkpt lat="36.6078190" lon="126.6766490">
    <ele>38</ele>
   </trkpt>
   <trkpt lat="36.6075410" lon="126.6765790">
    <ele>37</ele>
   </trkpt>
   <trkpt lat="36.6072850" lon="126.6765270">
    <ele>37</ele>
   </trkpt>
   <trkpt lat="36.6069920" lon="126.6764880">
    <ele>36</ele>
   </trkpt>
   <trkpt lat="36.6067600" lon="126.6764760">
    <ele>32</ele>
   </trkpt>
   <trkpt lat="36.6065250" lon="126.6764780">
    <ele>31</ele>
   </trkpt>
   <trkpt lat="36.6065240" lon="126.6764780">
    <ele>31</ele>
   </trkpt>
   <trkpt lat="36.6062840" lon="126.6764900">
    <ele>29</ele>
   </trkpt>
   <trkpt lat="36.6060460" lon="126.6765160">
    <ele>28</ele>
   </trkpt>
   <trkpt lat="36.6058230" lon="126.6765390">
    <ele>27</ele>
   </trkpt>
   <trkpt lat="36.6057830" lon="126.6765440">
    <ele>27</ele>
   </trkpt>
   <trkpt lat="36.6055190" lon="126.6765810">
    <ele>27</ele>
   </trkpt>
   <trkpt lat="36.6054270" lon="126.6765970">
    <ele>26</ele>
   </trkpt>
   <trkpt lat="36.6054300" lon="126.6765330">
    <ele>26</ele>
   </trkpt>
   <trkpt lat="36.6054290" lon="126.6764970">
    <ele>26</ele>
   </trkpt>
   <trkpt lat="36.6052380" lon="126.6765440">
    <ele>26</ele>
   </trkpt>
   <trkpt lat="36.6051390" lon="126.6765760">
    <ele>25</ele>
   </trkpt>
   <trkpt lat="36.6050240" lon="126.6766120">
    <ele>24</ele>
   </trkpt>
   <trkpt lat="36.6046970" lon="126.6767240">
    <ele>24</ele>
   </trkpt>
   <trkpt lat="36.6043890" lon="126.6768690">
    <ele>24</ele>
   </trkpt>
   <trkpt lat="36.6039130" lon="126.6771220">
    <ele>23</ele>
   </trkpt>
   <trkpt lat="36.6038310" lon="126.6771670">
    <ele>23</ele>
   </trkpt>
   <trkpt lat="36.6037800" lon="126.6771950">
    <ele>22</ele>
   </trkpt>
   <trkpt lat="36.6033170" lon="126.6774460">
    <ele>23</ele>
   </trkpt>
   <trkpt lat="36.6032820" lon="126.6774580">
    <ele>23</ele>
   </trkpt>
   <trkpt lat="36.6032450" lon="126.6774700">
    <ele>23</ele>
   </trkpt>
   <trkpt lat="36.6032230" lon="126.6774760">
    <ele>23</ele>
   </trkpt>
   <trkpt lat="36.6031670" lon="126.6774640">
    <ele>23</ele>
   </trkpt>
   <trkpt lat="36.6031310" lon="126.6774550">
    <ele>23</ele>
   </trkpt>
   <trkpt lat="36.6030910" lon="126.6774270">
    <ele>23</ele>
   </trkpt>
   <trkpt lat="36.6030470" lon="126.6773780">
    <ele>23</ele>
   </trkpt>
   <trkpt lat="36.6030160" lon="126.6773190">
    <ele>24</ele>
   </trkpt>
   <trkpt lat="36.6029960" lon="126.6772630">
    <ele>24</ele>
   </trkpt>
   <trkpt lat="36.6029920" lon="126.6772130">
    <ele>24</ele>
   </trkpt>
   <trkpt lat="36.6029900" lon="126.6771180">
    <ele>24</ele>
   </trkpt>
   <trkpt lat="36.6029840" lon="126.6770100">
    <ele>24</ele>
   </trkpt>
   <trkpt lat="36.6030010" lon="126.6768110">
    <ele>23</ele>
   </trkpt>
   <trkpt lat="36.6030180" lon="126.6766770">
    <ele>23</ele>
   </trkpt>
   <trkpt lat="36.6030750" lon="126.6762860">
    <ele>24</ele>
   </trkpt>
   <trkpt lat="36.6030990" lon="126.6761160">
    <ele>24</ele>
   </trkpt>
   <trkpt lat="36.6031610" lon="126.6756900">
    <ele>24</ele>
   </trkpt>
   <trkpt lat="36.6032860" lon="126.6750710">
    <ele>24</ele>
   </trkpt>
   <trkpt lat="36.6034100" lon="126.6744880">
    <ele>24</ele>
   </trkpt>
   <trkpt lat="36.6034970" lon="126.6740820">
    <ele>25</ele>
   </trkpt>
   <trkpt lat="36.6036240" lon="126.6734840">
    <ele>25</ele>
   </trkpt>
   <trkpt lat="36.6036820" lon="126.6732170">
    <ele>25</ele>
   </trkpt>
   <trkpt lat="36.6038750" lon="126.6723350">
    <ele>26</ele>
   </trkpt>
   <trkpt lat="36.6040200" lon="126.6716390">
    <ele>26</ele>
   </trkpt>
   <trkpt lat="36.6041470" lon="126.6710010">
    <ele>25</ele>
   </trkpt>
   <trkpt lat="36.6042040" lon="126.6708510">
    <ele>25</ele>
   </trkpt>
   <trkpt lat="36.6045900" lon="126.6700000">
    <ele>25</ele>
   </trkpt>
   <trkpt lat="36.6046620" lon="126.6697950">
    <ele>26</ele>
   </trkpt>
   <trkpt lat="36.6047050" lon="126.6696520">
    <ele>26</ele>
   </trkpt>
   <trkpt lat="36.6047590" lon="126.6694090">
    <ele>26</ele>
   </trkpt>
   <trkpt lat="36.6047830" lon="126.6691500">
    <ele>26</ele>
   </trkpt>
   <trkpt lat="36.6047860" lon="126.6690370">
    <ele>26</ele>
   </trkpt>
   <trkpt lat="36.6047950" lon="126.6685490">
    <ele>27</ele>
   </trkpt>
   <trkpt lat="36.6048110" lon="126.6677480">
    <ele>27</ele>
   </trkpt>
   <trkpt lat="36.6048260" lon="126.6669400">
    <ele>27</ele>
   </trkpt>
   <trkpt lat="36.6048460" lon="126.6662380">
    <ele>27</ele>
   </trkpt>
   <trkpt lat="36.6048660" lon="126.6655360">
    <ele>28</ele>
   </trkpt>
   <trkpt lat="36.6048740" lon="126.6647480">
    <ele>27</ele>
   </trkpt>
   <trkpt lat="36.6048890" lon="126.6642630">
    <ele>27</ele>
   </trkpt>
   <trkpt lat="36.6048870" lon="126.6636720">
    <ele>28</ele>
   </trkpt>
   <trkpt lat="36.6048720" lon="126.6629330">
    <ele>28</ele>
   </trkpt>
   <trkpt lat="36.6048740" lon="126.6623540">
    <ele>27</ele>
   </trkpt>
   <trkpt lat="36.6048780" lon="126.6622620">
    <ele>27</ele>
   </trkpt>
   <trkpt lat="36.6049220" lon="126.6619440">
    <ele>29</ele>
   </trkpt>
   <trkpt lat="36.6049590" lon="126.6616590">
    <ele>30</ele>
   </trkpt>
   <trkpt lat="36.6050550" lon="126.6609440">
    <ele>29</ele>
   </trkpt>
   <trkpt lat="36.6051370" lon="126.6601110">
    <ele>29</ele>
   </trkpt>
   <trkpt lat="36.6051570" lon="126.6599210">
    <ele>30</ele>
   </trkpt>
   <trkpt lat="36.6052030" lon="126.6593830">
    <ele>30</ele>
   </trkpt>
   <trkpt lat="36.6052350" lon="126.6589280">
    <ele>31</ele>
   </trkpt>
   <trkpt lat="36.6052840" lon="126.6580930">
    <ele>34</ele>
   </trkpt>
   <trkpt lat="36.6053330" lon="126.6572530">
    <ele>36</ele>
   </trkpt>
   <trkpt lat="36.6053820" lon="126.6565870">
    <ele>37</ele>
   </trkpt>
   <trkpt lat="36.6054500" lon="126.6557620">
    <ele>41</ele>
   </trkpt>
   <trkpt lat="36.6055170" lon="126.6549360">
    <ele>45</ele>
   </trkpt>
   <trkpt lat="36.6055350" lon="126.6547120">
    <ele>46</ele>
   </trkpt>
   <trkpt lat="36.6055980" lon="126.6542510">
    <ele>49</ele>
   </trkpt>
   <trkpt lat="36.6056280" lon="126.6540650">
    <ele>50</ele>
   </trkpt>
   <trkpt lat="36.6056470" lon="126.6538700">
    <ele>51</ele>
   </trkpt>
   <trkpt lat="36.6056520" lon="126.6537390">
    <ele>51</ele>
   </trkpt>
   <trkpt lat="36.6056520" lon="126.6536190">
    <ele>50</ele>
   </trkpt>
   <trkpt lat="36.6056500" lon="126.6534900">
    <ele>50</ele>
   </trkpt>
   <trkpt lat="36.6056390" lon="126.6532710">
    <ele>49</ele>
   </trkpt>
   <trkpt lat="36.6055920" lon="126.6524640">
    <ele>49</ele>
   </trkpt>
   <trkpt lat="36.6055850" lon="126.6520180">
    <ele>48</ele>
   </trkpt>
   <trkpt lat="36.6055710" lon="126.6513860">
    <ele>50</ele>
   </trkpt>
   <trkpt lat="36.6055460" lon="126.6502820">
    <ele>54</ele>
   </trkpt>
   <trkpt lat="36.6055340" lon="126.6493340">
    <ele>58</ele>
   </trkpt>
   <trkpt lat="36.6055170" lon="126.6487380">
    <ele>60</ele>
   </trkpt>
   <trkpt lat="36.6054990" lon="126.6481420">
    <ele>62</ele>
   </trkpt>
   <trkpt lat="36.6054900" lon="126.6475420">
    <ele>64</ele>
   </trkpt>
   <trkpt lat="36.6054130" lon="126.6467200">
    <ele>66</ele>
   </trkpt>
   <trkpt lat="36.6053130" lon="126.6458950">
    <ele>71</ele>
   </trkpt>
   <trkpt lat="36.6052120" lon="126.6450690">
    <ele>72</ele>
   </trkpt>
   <trkpt lat="36.6051610" lon="126.6445930">
    <ele>74</ele>
   </trkpt>
   <trkpt lat="36.6051500" lon="126.6444960">
    <ele>74</ele>
   </trkpt>
   <trkpt lat="36.6051370" lon="126.6442060">
    <ele>75</ele>
   </trkpt>
   <trkpt lat="36.6051390" lon="126.6441760">
    <ele>75</ele>
   </trkpt>
   <trkpt lat="36.6051560" lon="126.6439110">
    <ele>75</ele>
   </trkpt>
   <trkpt lat="36.6051733" lon="126.6439123">
    <ele>75</ele>
   </trkpt>
   <trkpt lat="36.6055019" lon="126.6439368">
    <ele>66</ele>
   </trkpt>
   <trkpt lat="36.6058478" lon="126.6439625">
    <ele>63</ele>
   </trkpt>
   <trkpt lat="36.6058653" lon="126.6439732">
    <ele>63</ele>
   </trkpt>
   <trkpt lat="36.6061968" lon="126.6441770">
    <ele>61</ele>
   </trkpt>
   <trkpt lat="36.6065459" lon="126.6443915">
    <ele>63</ele>
   </trkpt>
   <trkpt lat="36.6065641" lon="126.6443856">
    <ele>63</ele>
   </trkpt>
   <trkpt lat="36.6069106" lon="126.6442744">
    <ele>62</ele>
   </trkpt>
   <trkpt lat="36.6072752" lon="126.6441574">
    <ele>63</ele>
   </trkpt>
   <trkpt lat="36.6072740" lon="126.6441411">
    <ele>63</ele>
   </trkpt>
   <trkpt lat="36.6072521" lon="126.6438305">
    <ele>62</ele>
   </trkpt>
   <trkpt lat="36.6072289" lon="126.6435037">
    <ele>62</ele>
   </trkpt>
   <trkpt lat="36.6072129" lon="126.6435034">
    <ele>62</ele>
   </trkpt>
   <trkpt lat="36.6069098" lon="126.6434972">
    <ele>62</ele>
   </trkpt>
   <trkpt lat="36.6065906" lon="126.6434908">
    <ele>62</ele>
   </trkpt>
  </trkseg>
 </trk>
</gpx>
