<?xml version="1.0" encoding="UTF-8"?>
<gpx version="1.1" creator="HTML GPX Creator" xmlns="http://www.topografix.com/GPX/1/1">
  <trk>
    <name>2026_kimjesaeman_21k</name>
    <trkseg>
      <trkpt lat="35.81310641702215" lon="126.90057635307313">
        <ele>27.4</ele>
      </trkpt>
      <trkpt lat="35.813106" lon="126.900576">
        <ele>27.5</ele>
      </trkpt>
      <trkpt lat="35.813228" lon="126.900336">
        <ele>27.6</ele>
      </trkpt>
      <trkpt lat="35.813235" lon="126.899829">
        <ele>27.7</ele>
      </trkpt>
      <trkpt lat="35.813268" lon="126.899491">
        <ele>27.8</ele>
      </trkpt>
      <trkpt lat="35.81328042352956" lon="126.89949274063112">
        <ele>27.9</ele>
      </trkpt>
      <trkpt lat="35.813268" lon="126.899491">
        <ele>28.0</ele>
      </trkpt>
      <trkpt lat="35.81327" lon="126.899471">
        <ele>28.1</ele>
      </trkpt>
      <trkpt lat="35.813617" lon="126.899573">
        <ele>28.1</ele>
      </trkpt>
      <trkpt lat="35.815673" lon="126.900101">
        <ele>28.2</ele>
      </trkpt>
      <trkpt lat="35.816129" lon="126.900232">
        <ele>28.3</ele>
      </trkpt>
      <trkpt lat="35.816421" lon="126.900315">
        <ele>28.3</ele>
      </trkpt>
      <trkpt lat="35.81642117542884" lon="126.9003188610077">
        <ele>28.4</ele>
      </trkpt>
      <trkpt lat="35.816421" lon="126.900315">
        <ele>28.4</ele>
      </trkpt>
      <trkpt lat="35.816829" lon="126.900433">
        <ele>28.5</ele>
      </trkpt>
      <trkpt lat="35.817396" lon="126.900664">
        <ele>28.5</ele>
      </trkpt>
      <trkpt lat="35.817679" lon="126.900794">
        <ele>28.6</ele>
      </trkpt>
      <trkpt lat="35.818113" lon="126.90126">
        <ele>28.7</ele>
      </trkpt>
      <trkpt lat="35.818455" lon="126.90169">
        <ele>28.8</ele>
      </trkpt>
      <trkpt lat="35.818723" lon="126.902178">
        <ele>28.9</ele>
      </trkpt>
      <trkpt lat="35.819364" lon="126.9037">
        <ele>29.0</ele>
      </trkpt>
      <trkpt lat="35.819452" lon="126.903914">
        <ele>29.1</ele>
      </trkpt>
      <trkpt lat="35.81942260892624" lon="126.90393447875978">
        <ele>29.1</ele>
      </trkpt>
      <trkpt lat="35.819452" lon="126.903914">
        <ele>29.2</ele>
      </trkpt>
      <trkpt lat="35.819734" lon="126.904596">
        <ele>29.3</ele>
      </trkpt>
      <trkpt lat="35.819791" lon="126.904707">
        <ele>29.4</ele>
      </trkpt>
      <trkpt lat="35.819887" lon="126.904893">
        <ele>29.5</ele>
      </trkpt>
      <trkpt lat="35.820064" lon="126.905163">
        <ele>29.6</ele>
      </trkpt>
      <trkpt lat="35.820254" lon="126.905381">
        <ele>29.7</ele>
      </trkpt>
      <trkpt lat="35.82025777024048" lon="126.90537750720979">
        <ele>29.8</ele>
      </trkpt>
      <trkpt lat="35.820254" lon="126.905381">
        <ele>29.8</ele>
      </trkpt>
      <trkpt lat="35.820064" lon="126.905163">
        <ele>29.9</ele>
      </trkpt>
      <trkpt lat="35.819887" lon="126.904893">
        <ele>29.9</ele>
      </trkpt>
      <trkpt lat="35.819791" lon="126.904707">
        <ele>30.0</ele>
      </trkpt>
      <trkpt lat="35.819734" lon="126.904596">
        <ele>30.0</ele>
      </trkpt>
      <trkpt lat="35.819364" lon="126.9037">
        <ele>30.0</ele>
      </trkpt>
      <trkpt lat="35.818723" lon="126.902178">
        <ele>30.0</ele>
      </trkpt>
      <trkpt lat="35.818632" lon="126.902014">
        <ele>29.9</ele>
      </trkpt>
      <trkpt lat="35.81860918815857" lon="126.90203547477724">
        <ele>29.9</ele>
      </trkpt>
      <trkpt lat="35.818632" lon="126.902014">
        <ele>29.9</ele>
      </trkpt>
      <trkpt lat="35.818455" lon="126.90169">
        <ele>29.8</ele>
      </trkpt>
      <trkpt lat="35.818113" lon="126.90126">
        <ele>29.8</ele>
      </trkpt>
      <trkpt lat="35.817679" lon="126.900794">
        <ele>29.7</ele>
      </trkpt>
      <trkpt lat="35.817396" lon="126.900664">
        <ele>29.7</ele>
      </trkpt>
      <trkpt lat="35.816829" lon="126.900433">
        <ele>29.6</ele>
      </trkpt>
      <trkpt lat="35.81653" lon="126.900347">
        <ele>29.5</ele>
      </trkpt>
      <trkpt lat="35.816525575020506" lon="126.90037786960603">
        <ele>29.4</ele>
      </trkpt>
      <trkpt lat="35.81653" lon="126.900347">
        <ele>29.3</ele>
      </trkpt>
      <trkpt lat="35.816129" lon="126.900232">
        <ele>29.2</ele>
      </trkpt>
      <trkpt lat="35.815673" lon="126.900101">
        <ele>29.1</ele>
      </trkpt>
      <trkpt lat="35.813617" lon="126.899573">
        <ele>29.0</ele>
      </trkpt>
      <trkpt lat="35.81327" lon="126.899471">
        <ele>28.9</ele>
      </trkpt>
      <trkpt lat="35.811683" lon="126.898896">
        <ele>28.8</ele>
      </trkpt>
      <trkpt lat="35.811484" lon="126.898819">
        <ele>28.6</ele>
      </trkpt>
      <trkpt lat="35.81088" lon="126.898534">
        <ele>28.5</ele>
      </trkpt>
      <trkpt lat="35.810870399470026" lon="126.89857006073">
        <ele>28.4</ele>
      </trkpt>
      <trkpt lat="35.81088" lon="126.898534">
        <ele>28.2</ele>
      </trkpt>
      <trkpt lat="35.810572" lon="126.898389">
        <ele>28.1</ele>
      </trkpt>
      <trkpt lat="35.81031" lon="126.898236">
        <ele>27.9</ele>
      </trkpt>
      <trkpt lat="35.809875" lon="126.897878">
        <ele>27.7</ele>
      </trkpt>
      <trkpt lat="35.809817" lon="126.897829">
        <ele>27.5</ele>
      </trkpt>
      <trkpt lat="35.809521" lon="126.897579">
        <ele>27.3</ele>
      </trkpt>
      <trkpt lat="35.809234" lon="126.8974">
        <ele>27.1</ele>
      </trkpt>
      <trkpt lat="35.809303" lon="126.89702">
        <ele>26.9</ele>
      </trkpt>
      <trkpt lat="35.809278177386744" lon="126.89701437950136">
        <ele>26.7</ele>
      </trkpt>
      <trkpt lat="35.809303" lon="126.89702">
        <ele>26.5</ele>
      </trkpt>
      <trkpt lat="35.809614" lon="126.89532">
        <ele>26.3</ele>
      </trkpt>
      <trkpt lat="35.809844" lon="126.893968">
        <ele>26.1</ele>
      </trkpt>
      <trkpt lat="35.809944" lon="126.893423">
        <ele>25.9</ele>
      </trkpt>
      <trkpt lat="35.809989" lon="126.89318">
        <ele>25.7</ele>
      </trkpt>
      <trkpt lat="35.81001" lon="126.893059">
        <ele>25.5</ele>
      </trkpt>
      <trkpt lat="35.80999163603819" lon="126.89305543899538">
        <ele>25.3</ele>
      </trkpt>
      <trkpt lat="35.81001" lon="126.893059">
        <ele>25.2</ele>
      </trkpt>
      <trkpt lat="35.81019" lon="126.892027">
        <ele>25.1</ele>
      </trkpt>
      <trkpt lat="35.810234" lon="126.891747">
        <ele>25.0</ele>
      </trkpt>
      <trkpt lat="35.810276" lon="126.891481">
        <ele>24.9</ele>
      </trkpt>
      <trkpt lat="35.810362" lon="126.890939">
        <ele>24.8</ele>
      </trkpt>
      <trkpt lat="35.810609" lon="126.889531">
        <ele>24.8</ele>
      </trkpt>
      <trkpt lat="35.8106267828592" lon="126.88953638076784">
        <ele>24.7</ele>
      </trkpt>
      <trkpt lat="35.810609" lon="126.889531">
        <ele>24.6</ele>
      </trkpt>
      <trkpt lat="35.81074" lon="126.888787">
        <ele>24.6</ele>
      </trkpt>
      <trkpt lat="35.810805" lon="126.888295">
        <ele>24.5</ele>
      </trkpt>
      <trkpt lat="35.810827" lon="126.888021">
        <ele>24.4</ele>
      </trkpt>
      <trkpt lat="35.810847" lon="126.88756">
        <ele>24.3</ele>
      </trkpt>
      <trkpt lat="35.810843" lon="126.887484">
        <ele>24.2</ele>
      </trkpt>
      <trkpt lat="35.810818195973454" lon="126.88748717308046">
        <ele>24.1</ele>
      </trkpt>
      <trkpt lat="35.810843" lon="126.887484">
        <ele>24.1</ele>
      </trkpt>
      <trkpt lat="35.810812" lon="126.886823">
        <ele>23.9</ele>
      </trkpt>
      <trkpt lat="35.81068" lon="126.886015">
        <ele>23.9</ele>
      </trkpt>
      <trkpt lat="35.810538" lon="126.88559">
        <ele>23.8</ele>
      </trkpt>
      <trkpt lat="35.810404" lon="126.885088">
        <ele>23.7</ele>
      </trkpt>
      <trkpt lat="35.810417968026506" lon="126.88508391380311">
        <ele>23.6</ele>
      </trkpt>
      <trkpt lat="35.810404" lon="126.885088">
        <ele>23.6</ele>
      </trkpt>
      <trkpt lat="35.810291" lon="126.884661">
        <ele>23.5</ele>
      </trkpt>
      <trkpt lat="35.809933" lon="126.883422">
        <ele>23.5</ele>
      </trkpt>
      <trkpt lat="35.80963" lon="126.882449">
        <ele>23.4</ele>
      </trkpt>
      <trkpt lat="35.809412" lon="126.881736">
        <ele>23.4</ele>
      </trkpt>
      <trkpt lat="35.80939128711266" lon="126.88174724578859">
        <ele>23.3</ele>
      </trkpt>
      <trkpt lat="35.809412" lon="126.881736">
        <ele>23.3</ele>
      </trkpt>
      <trkpt lat="35.808799" lon="126.879726">
        <ele>23.2</ele>
      </trkpt>
      <trkpt lat="35.808248" lon="126.878094">
        <ele>23.1</ele>
      </trkpt>
      <trkpt lat="35.80819" lon="126.877874">
        <ele>23.0</ele>
      </trkpt>
      <trkpt lat="35.80816447302156" lon="126.87788486480714">
        <ele>22.8</ele>
      </trkpt>
      <trkpt lat="35.80819" lon="126.877874">
        <ele>22.7</ele>
      </trkpt>
      <trkpt lat="35.808029" lon="126.877249">
        <ele>22.4</ele>
      </trkpt>
      <trkpt lat="35.80794" lon="126.876907">
        <ele>22.2</ele>
      </trkpt>
      <trkpt lat="35.807786" lon="126.876383">
        <ele>21.9</ele>
      </trkpt>
      <trkpt lat="35.807657" lon="126.875929">
        <ele>21.7</ele>
      </trkpt>
      <trkpt lat="35.807459" lon="126.875473">
        <ele>21.4</ele>
      </trkpt>
      <trkpt lat="35.807354" lon="126.875319">
        <ele>21.1</ele>
      </trkpt>
      <trkpt lat="35.80731178256074" lon="126.87536358833314">
        <ele>20.8</ele>
      </trkpt>
      <trkpt lat="35.807354" lon="126.875319">
        <ele>20.5</ele>
      </trkpt>
      <trkpt lat="35.807242" lon="126.875156">
        <ele>20.2</ele>
      </trkpt>
      <trkpt lat="35.806957" lon="126.874889">
        <ele>19.9</ele>
      </trkpt>
      <trkpt lat="35.806773" lon="126.874766">
        <ele>19.6</ele>
      </trkpt>
      <trkpt lat="35.806744" lon="126.874628">
        <ele>19.3</ele>
      </trkpt>
      <trkpt lat="35.806753" lon="126.874501">
        <ele>19.0</ele>
      </trkpt>
      <trkpt lat="35.806772" lon="126.874406">
        <ele>18.7</ele>
      </trkpt>
      <trkpt lat="35.80702" lon="126.874138">
        <ele>18.4</ele>
      </trkpt>
      <trkpt lat="35.80700724803465" lon="126.87411904335023">
        <ele>18.1</ele>
      </trkpt>
      <trkpt lat="35.80702" lon="126.874138">
        <ele>17.8</ele>
      </trkpt>
      <trkpt lat="35.807285" lon="126.873854">
        <ele>17.5</ele>
      </trkpt>
      <trkpt lat="35.807435" lon="126.873662">
        <ele>17.2</ele>
      </trkpt>
      <trkpt lat="35.807831" lon="126.873626">
        <ele>16.9</ele>
      </trkpt>
      <trkpt lat="35.8079" lon="126.873641">
        <ele>16.6</ele>
      </trkpt>
      <trkpt lat="35.808045" lon="126.873611">
        <ele>16.2</ele>
      </trkpt>
      <trkpt lat="35.808199" lon="126.873579">
        <ele>15.9</ele>
      </trkpt>
      <trkpt lat="35.808251" lon="126.873558">
        <ele>15.6</ele>
      </trkpt>
      <trkpt lat="35.80826018260384" lon="126.87359333038331">
        <ele>15.2</ele>
      </trkpt>
      <trkpt lat="35.808251" lon="126.873558">
        <ele>14.9</ele>
      </trkpt>
      <trkpt lat="35.80846" lon="126.873477">
        <ele>14.6</ele>
      </trkpt>
      <trkpt lat="35.8086" lon="126.873364">
        <ele>14.3</ele>
      </trkpt>
      <trkpt lat="35.80881" lon="126.873196">
        <ele>13.9</ele>
      </trkpt>
      <trkpt lat="35.809238" lon="126.872812">
        <ele>13.6</ele>
      </trkpt>
      <trkpt lat="35.809381" lon="126.872685">
        <ele>13.3</ele>
      </trkpt>
      <trkpt lat="35.809533" lon="126.872549">
        <ele>13.1</ele>
      </trkpt>
      <trkpt lat="35.809693" lon="126.872406">
        <ele>12.8</ele>
      </trkpt>
      <trkpt lat="35.809855" lon="126.872234">
        <ele>12.6</ele>
      </trkpt>
      <trkpt lat="35.810134" lon="126.871919">
        <ele>12.3</ele>
      </trkpt>
      <trkpt lat="35.810234" lon="126.871806">
        <ele>12.1</ele>
      </trkpt>
      <trkpt lat="35.810354" lon="126.871653">
        <ele>11.9</ele>
      </trkpt>
      <trkpt lat="35.810423" lon="126.871568">
        <ele>11.7</ele>
      </trkpt>
      <trkpt lat="35.810598" lon="126.87135">
        <ele>11.4</ele>
      </trkpt>
      <trkpt lat="35.810822" lon="126.871072">
        <ele>11.2</ele>
      </trkpt>
      <trkpt lat="35.811218" lon="126.870559">
        <ele>11.0</ele>
      </trkpt>
      <trkpt lat="35.811307" lon="126.870442">
        <ele>10.8</ele>
      </trkpt>
      <trkpt lat="35.81141" lon="126.870324">
        <ele>10.6</ele>
      </trkpt>
      <trkpt lat="35.811392432548004" lon="126.87029957771303">
        <ele>10.4</ele>
      </trkpt>
      <trkpt lat="35.81141" lon="126.870324">
        <ele>10.2</ele>
      </trkpt>
      <trkpt lat="35.811502" lon="126.87022">
        <ele>10.0</ele>
      </trkpt>
      <trkpt lat="35.811897" lon="126.869694">
        <ele>9.8</ele>
      </trkpt>
      <trkpt lat="35.812096" lon="126.869429">
        <ele>9.6</ele>
      </trkpt>
      <trkpt lat="35.812707" lon="126.868584">
        <ele>9.4</ele>
      </trkpt>
      <trkpt lat="35.813039" lon="126.86826">
        <ele>9.3</ele>
      </trkpt>
      <trkpt lat="35.813138" lon="126.868164">
        <ele>9.1</ele>
      </trkpt>
      <trkpt lat="35.813278" lon="126.868028">
        <ele>8.9</ele>
      </trkpt>
      <trkpt lat="35.813325" lon="126.867984">
        <ele>8.8</ele>
      </trkpt>
      <trkpt lat="35.813551" lon="126.867769">
        <ele>8.6</ele>
      </trkpt>
      <trkpt lat="35.814023" lon="126.86732">
        <ele>8.5</ele>
      </trkpt>
      <trkpt lat="35.814652" lon="126.866721">
        <ele>8.3</ele>
      </trkpt>
      <trkpt lat="35.814686" lon="126.866689">
        <ele>8.2</ele>
      </trkpt>
      <trkpt lat="35.815118" lon="126.86626">
        <ele>8.1</ele>
      </trkpt>
      <trkpt lat="35.81510746883514" lon="126.86624407768251">
        <ele>8.0</ele>
      </trkpt>
      <trkpt lat="35.815118" lon="126.86626">
        <ele>7.9</ele>
      </trkpt>
      <trkpt lat="35.815485" lon="126.865897">
        <ele>7.8</ele>
      </trkpt>
      <trkpt lat="35.815617" lon="126.86572">
        <ele>7.8</ele>
      </trkpt>
      <trkpt lat="35.815729" lon="126.865571">
        <ele>7.7</ele>
      </trkpt>
      <trkpt lat="35.816046" lon="126.865197">
        <ele>7.6</ele>
      </trkpt>
      <trkpt lat="35.816111" lon="126.86509">
        <ele>7.6</ele>
      </trkpt>
      <trkpt lat="35.816375" lon="126.864653">
        <ele>7.6</ele>
      </trkpt>
      <trkpt lat="35.816647" lon="126.864077">
        <ele>7.5</ele>
      </trkpt>
      <trkpt lat="35.816704" lon="126.863957">
        <ele>7.5</ele>
      </trkpt>
      <trkpt lat="35.816835" lon="126.86356">
        <ele>7.5</ele>
      </trkpt>
      <trkpt lat="35.817144" lon="126.862708">
        <ele>7.5</ele>
      </trkpt>
      <trkpt lat="35.81741" lon="126.861921">
        <ele>7.5</ele>
      </trkpt>
      <trkpt lat="35.817626" lon="126.861302">
        <ele>7.5</ele>
      </trkpt>
      <trkpt lat="35.8175956629198" lon="126.86128735542299">
        <ele>7.6</ele>
      </trkpt>
      <trkpt lat="35.817626" lon="126.861302">
        <ele>7.6</ele>
      </trkpt>
      <trkpt lat="35.817675" lon="126.861163">
        <ele>7.7</ele>
      </trkpt>
      <trkpt lat="35.818011" lon="126.860371">
        <ele>7.8</ele>
      </trkpt>
      <trkpt lat="35.818358" lon="126.859692">
        <ele>7.8</ele>
      </trkpt>
      <trkpt lat="35.818582" lon="126.859281">
        <ele>8.0</ele>
      </trkpt>
      <trkpt lat="35.819363" lon="126.857843">
        <ele>8.1</ele>
      </trkpt>
      <trkpt lat="35.819397" lon="126.857783">
        <ele>8.2</ele>
      </trkpt>
      <trkpt lat="35.819659" lon="126.857331">
        <ele>8.3</ele>
      </trkpt>
      <trkpt lat="35.819687" lon="126.857275">
        <ele>8.5</ele>
      </trkpt>
      <trkpt lat="35.819812" lon="126.857021">
        <ele>8.6</ele>
      </trkpt>
      <trkpt lat="35.820246" lon="126.856223">
        <ele>8.8</ele>
      </trkpt>
      <trkpt lat="35.820737" lon="126.855615">
        <ele>9.0</ele>
      </trkpt>
      <trkpt lat="35.821068" lon="126.855312">
        <ele>9.2</ele>
      </trkpt>
      <trkpt lat="35.821436" lon="126.855033">
        <ele>9.3</ele>
      </trkpt>
      <trkpt lat="35.82144090039516" lon="126.85504317283632">
        <ele>9.6</ele>
      </trkpt>
      <trkpt lat="35.821436" lon="126.855033">
        <ele>9.8</ele>
      </trkpt>
      <trkpt lat="35.821645" lon="126.854876">
        <ele>9.9</ele>
      </trkpt>
      <trkpt lat="35.821931" lon="126.854577">
        <ele>10.2</ele>
      </trkpt>
      <trkpt lat="35.822004" lon="126.854418">
        <ele>10.4</ele>
      </trkpt>
      <trkpt lat="35.822165" lon="126.854063">
        <ele>10.6</ele>
      </trkpt>
      <trkpt lat="35.82243" lon="126.853478">
        <ele>10.8</ele>
      </trkpt>
      <trkpt lat="35.82262" lon="126.853041">
        <ele>11.0</ele>
      </trkpt>
      <trkpt lat="35.822658" lon="126.852954">
        <ele>11.2</ele>
      </trkpt>
      <trkpt lat="35.822982" lon="126.852219">
        <ele>11.4</ele>
      </trkpt>
      <trkpt lat="35.823047" lon="126.852081">
        <ele>11.6</ele>
      </trkpt>
      <trkpt lat="35.823172" lon="126.851816">
        <ele>11.8</ele>
      </trkpt>
      <trkpt lat="35.823187" lon="126.851785">
        <ele>12.0</ele>
      </trkpt>
      <trkpt lat="35.823425" lon="126.85128">
        <ele>12.2</ele>
      </trkpt>
      <trkpt lat="35.823705" lon="126.850826">
        <ele>12.3</ele>
      </trkpt>
      <trkpt lat="35.823753" lon="126.850748">
        <ele>12.5</ele>
      </trkpt>
      <trkpt lat="35.824449" lon="126.849804">
        <ele>12.6</ele>
      </trkpt>
      <trkpt lat="35.825194" lon="126.848869">
        <ele>12.7</ele>
      </trkpt>
      <trkpt lat="35.825516" lon="126.848526">
        <ele>12.9</ele>
      </trkpt>
      <trkpt lat="35.82551212529546" lon="126.8485200405121">
        <ele>13.0</ele>
      </trkpt>
      <trkpt lat="35.825516" lon="126.848526">
        <ele>13.1</ele>
      </trkpt>
      <trkpt lat="35.825793" lon="126.848234">
        <ele>13.2</ele>
      </trkpt>
      <trkpt lat="35.826091" lon="126.847933">
        <ele>13.3</ele>
      </trkpt>
      <trkpt lat="35.826545" lon="126.847646">
        <ele>13.4</ele>
      </trkpt>
      <trkpt lat="35.826859" lon="126.847492">
        <ele>13.5</ele>
      </trkpt>
      <trkpt lat="35.827159" lon="126.847344">
        <ele>13.5</ele>
      </trkpt>
      <trkpt lat="35.8275" lon="126.847093">
        <ele>13.6</ele>
      </trkpt>
      <trkpt lat="35.827678" lon="126.846925">
        <ele>13.7</ele>
      </trkpt>
      <trkpt lat="35.827914" lon="126.84667">
        <ele>13.7</ele>
      </trkpt>
      <trkpt lat="35.827973" lon="126.846606">
        <ele>13.7</ele>
      </trkpt>
      <trkpt lat="35.828088" lon="126.846385">
        <ele>13.8</ele>
      </trkpt>
      <trkpt lat="35.82823" lon="126.846053">
        <ele>13.8</ele>
      </trkpt>
      <trkpt lat="35.828386" lon="126.845587">
        <ele>13.8</ele>
      </trkpt>
      <trkpt lat="35.828466" lon="126.845094">
        <ele>13.8</ele>
      </trkpt>
      <trkpt lat="35.828497" lon="126.843808">
        <ele>13.8</ele>
      </trkpt>
      <trkpt lat="35.828527" lon="126.842989">
        <ele>13.8</ele>
      </trkpt>
      <trkpt lat="35.828528" lon="126.842919">
        <ele>13.8</ele>
      </trkpt>
      <trkpt lat="35.82854800964649" lon="126.842919588089">
        <ele>13.8</ele>
      </trkpt>
      <trkpt lat="35.828528" lon="126.842919">
        <ele>13.9</ele>
      </trkpt>
      <trkpt lat="35.828564" lon="126.841499">
        <ele>13.9</ele>
      </trkpt>
      <trkpt lat="35.828596" lon="126.841023">
        <ele>14.0</ele>
      </trkpt>
      <trkpt lat="35.828683" lon="126.840402">
        <ele>14.1</ele>
      </trkpt>
      <trkpt lat="35.828749" lon="126.840137">
        <ele>14.2</ele>
      </trkpt>
      <trkpt lat="35.829008" lon="126.83941">
        <ele>14.3</ele>
      </trkpt>
      <trkpt lat="35.829257" lon="126.838889">
        <ele>14.4</ele>
      </trkpt>
      <trkpt lat="35.829447" lon="126.838636">
        <ele>14.5</ele>
      </trkpt>
      <trkpt lat="35.829703" lon="126.838322">
        <ele>14.7</ele>
      </trkpt>
      <trkpt lat="35.82991" lon="126.838067">
        <ele>14.8</ele>
      </trkpt>
      <trkpt lat="35.830245" lon="126.837722">
        <ele>15.0</ele>
      </trkpt>
      <trkpt lat="35.830327" lon="126.837638">
        <ele>15.1</ele>
      </trkpt>
      <trkpt lat="35.830745" lon="126.837277">
        <ele>15.3</ele>
      </trkpt>
      <trkpt lat="35.831107" lon="126.83702">
        <ele>15.4</ele>
      </trkpt>
      <trkpt lat="35.831509" lon="126.836746">
        <ele>15.6</ele>
      </trkpt>
      <trkpt lat="35.831776" lon="126.836543">
        <ele>15.8</ele>
      </trkpt>
      <trkpt lat="35.831997" lon="126.836248">
        <ele>15.9</ele>
      </trkpt>
      <trkpt lat="35.832066" lon="126.836093">
        <ele>16.1</ele>
      </trkpt>
      <trkpt lat="35.832109" lon="126.83601">
        <ele>16.2</ele>
      </trkpt>
      <trkpt lat="35.832131599789115" lon="126.83602823248174">
        <ele>16.4</ele>
      </trkpt>
      <trkpt lat="35.832109" lon="126.83601">
        <ele>16.5</ele>
      </trkpt>
      <trkpt lat="35.83222" lon="126.835801">
        <ele>16.7</ele>
      </trkpt>
      <trkpt lat="35.832445" lon="126.835477">
        <ele>16.9</ele>
      </trkpt>
      <trkpt lat="35.832505" lon="126.835401">
        <ele>17.1</ele>
      </trkpt>
      <trkpt lat="35.832651" lon="126.835218">
        <ele>17.3</ele>
      </trkpt>
      <trkpt lat="35.833172" lon="126.834647">
        <ele>17.5</ele>
      </trkpt>
      <trkpt lat="35.833637" lon="126.834125">
        <ele>17.7</ele>
      </trkpt>
      <trkpt lat="35.833929" lon="126.833837">
        <ele>17.8</ele>
      </trkpt>
      <trkpt lat="35.83434" lon="126.833509">
        <ele>18.0</ele>
      </trkpt>
      <trkpt lat="35.834782" lon="126.832904">
        <ele>18.1</ele>
      </trkpt>
      <trkpt lat="35.835352" lon="126.831711">
        <ele>18.3</ele>
      </trkpt>
      <trkpt lat="35.835717" lon="126.830918">
        <ele>18.4</ele>
      </trkpt>
      <trkpt lat="35.835744" lon="126.830849">
        <ele>18.5</ele>
      </trkpt>
      <trkpt lat="35.835955" lon="126.830306">
        <ele>18.6</ele>
      </trkpt>
      <trkpt lat="35.836145" lon="126.829704">
        <ele>18.7</ele>
      </trkpt>
      <trkpt lat="35.836148" lon="126.829614">
        <ele>18.8</ele>
      </trkpt>
      <trkpt lat="35.836165" lon="126.829088">
        <ele>18.9</ele>
      </trkpt>
      <trkpt lat="35.83611308402319" lon="126.82908593076769">
        <ele>18.9</ele>
      </trkpt>
      <trkpt lat="35.836165" lon="126.829088">
        <ele>19.0</ele>
      </trkpt>
      <trkpt lat="35.836195" lon="126.828238">
        <ele>19.0</ele>
      </trkpt>
      <trkpt lat="35.836378" lon="126.826871">
        <ele>19.1</ele>
      </trkpt>
      <trkpt lat="35.83644" lon="126.825206">
        <ele>19.1</ele>
      </trkpt>
      <trkpt lat="35.836468" lon="126.823318">
        <ele>19.2</ele>
      </trkpt>
      <trkpt lat="35.836476" lon="126.822995">
        <ele>19.2</ele>
      </trkpt>
      <trkpt lat="35.836487" lon="126.822534">
        <ele>19.2</ele>
      </trkpt>
      <trkpt lat="35.836489472984" lon="126.82253479957582">
        <ele>19.3</ele>
      </trkpt>
      <trkpt lat="35.836487" lon="126.822534">
        <ele>19.3</ele>
      </trkpt>
      <trkpt lat="35.836489" lon="126.822451">
        <ele>19.4</ele>
      </trkpt>
      <trkpt lat="35.836505" lon="126.82219">
        <ele>19.4</ele>
      </trkpt>
      <trkpt lat="35.836577" lon="126.821595">
        <ele>19.4</ele>
      </trkpt>
      <trkpt lat="35.836721" lon="126.820981">
        <ele>19.5</ele>
      </trkpt>
      <trkpt lat="35.837201" lon="126.81943">
        <ele>19.5</ele>
      </trkpt>
      <trkpt lat="35.837508" lon="126.818867">
        <ele>19.5</ele>
      </trkpt>
      <trkpt lat="35.83787" lon="126.818352">
        <ele>19.5</ele>
      </trkpt>
      <trkpt lat="35.838314" lon="126.817749">
        <ele>19.5</ele>
      </trkpt>
      <trkpt lat="35.83855" lon="126.817428">
        <ele>19.5</ele>
      </trkpt>
      <trkpt lat="35.838851" lon="126.817062">
        <ele>19.5</ele>
      </trkpt>
      <trkpt lat="35.83897" lon="126.816936">
        <ele>19.5</ele>
      </trkpt>
      <trkpt lat="35.839478" lon="126.81659">
        <ele>19.4</ele>
      </trkpt>
      <trkpt lat="35.84015" lon="126.816343">
        <ele>19.4</ele>
      </trkpt>
      <trkpt lat="35.840574" lon="126.81629">
        <ele>19.4</ele>
      </trkpt>
      <trkpt lat="35.840642" lon="126.816282">
        <ele>19.4</ele>
      </trkpt>
      <trkpt lat="35.840689" lon="126.816272">
        <ele>19.4</ele>
      </trkpt>
      <trkpt lat="35.84069038567718" lon="126.81627988815309">
        <ele>19.4</ele>
      </trkpt>
      <trkpt lat="35.840689" lon="126.816272">
        <ele>19.4</ele>
      </trkpt>
      <trkpt lat="35.840771" lon="126.816257">
        <ele>19.4</ele>
      </trkpt>
      <trkpt lat="35.840797" lon="126.816253">
        <ele>19.4</ele>
      </trkpt>
      <trkpt lat="35.840861" lon="126.816245">
        <ele>19.4</ele>
      </trkpt>
      <trkpt lat="35.841037" lon="126.816256">
        <ele>19.4</ele>
      </trkpt>
      <trkpt lat="35.841063" lon="126.816265">
        <ele>19.4</ele>
      </trkpt>
      <trkpt lat="35.84109" lon="126.816264">
        <ele>19.4</ele>
      </trkpt>
      <trkpt lat="35.84109046099806" lon="126.81623697280885">
        <ele>19.4</ele>
      </trkpt>
      <trkpt lat="35.84109" lon="126.816264">
        <ele>19.4</ele>
      </trkpt>
      <trkpt lat="35.841116" lon="126.816264">
        <ele>19.4</ele>
      </trkpt>
      <trkpt lat="35.841166" lon="126.816241">
        <ele>19.4</ele>
      </trkpt>
      <trkpt lat="35.841207" lon="126.816198">
        <ele>19.4</ele>
      </trkpt>
      <trkpt lat="35.841232" lon="126.81614">
        <ele>19.4</ele>
      </trkpt>
      <trkpt lat="35.841239" lon="126.816075">
        <ele>19.4</ele>
      </trkpt>
      <trkpt lat="35.841228" lon="126.81601">
        <ele>19.4</ele>
      </trkpt>
      <trkpt lat="35.841198" lon="126.815955">
        <ele>19.4</ele>
      </trkpt>
      <trkpt lat="35.841151" lon="126.815913">
        <ele>19.4</ele>
      </trkpt>
      <trkpt lat="35.841094" lon="126.815897">
        <ele>19.4</ele>
      </trkpt>
      <trkpt lat="35.841065" lon="126.815899">
        <ele>19.4</ele>
      </trkpt>
      <trkpt lat="35.841036" lon="126.815909">
        <ele>19.4</ele>
      </trkpt>
      <trkpt lat="35.840985" lon="126.815948">
        <ele>19.4</ele>
      </trkpt>
      <trkpt lat="35.840951" lon="126.816008">
        <ele>19.4</ele>
      </trkpt>
      <trkpt lat="35.840942" lon="126.816044">
        <ele>19.4</ele>
      </trkpt>
      <trkpt lat="35.840927" lon="126.816103">
        <ele>19.4</ele>
      </trkpt>
      <trkpt lat="35.840912" lon="126.816139">
        <ele>19.4</ele>
      </trkpt>
      <trkpt lat="35.84088" lon="126.816185">
        <ele>19.4</ele>
      </trkpt>
      <trkpt lat="35.840848" lon="126.816217">
        <ele>19.4</ele>
      </trkpt>
      <trkpt lat="35.840797" lon="126.816253">
        <ele>19.4</ele>
      </trkpt>
      <trkpt lat="35.840771" lon="126.816257">
        <ele>19.4</ele>
      </trkpt>
      <trkpt lat="35.840642" lon="126.816282">
        <ele>19.5</ele>
      </trkpt>
      <trkpt lat="35.840574" lon="126.81629">
        <ele>19.5</ele>
      </trkpt>
      <trkpt lat="35.84015" lon="126.816343">
        <ele>19.5</ele>
      </trkpt>
      <trkpt lat="35.839478" lon="126.81659">
        <ele>19.5</ele>
      </trkpt>
      <trkpt lat="35.83897" lon="126.816936">
        <ele>19.5</ele>
      </trkpt>
      <trkpt lat="35.838851" lon="126.817062">
        <ele>19.6</ele>
      </trkpt>
      <trkpt lat="35.83855" lon="126.817428">
        <ele>19.6</ele>
      </trkpt>
      <trkpt lat="35.838314" lon="126.817749">
        <ele>19.6</ele>
      </trkpt>
      <trkpt lat="35.83787" lon="126.818352">
        <ele>19.6</ele>
      </trkpt>
      <trkpt lat="35.837508" lon="126.818867">
        <ele>19.7</ele>
      </trkpt>
      <trkpt lat="35.837201" lon="126.81943">
        <ele>19.7</ele>
      </trkpt>
      <trkpt lat="35.836994" lon="126.820098">
        <ele>19.7</ele>
      </trkpt>
      <trkpt lat="35.83699394216165" lon="126.8200993537903">
        <ele>19.7</ele>
      </trkpt>
      <trkpt lat="35.836994" lon="126.820098">
        <ele>19.7</ele>
      </trkpt>
      <trkpt lat="35.836721" lon="126.820981">
        <ele>19.7</ele>
      </trkpt>
      <trkpt lat="35.836577" lon="126.821595">
        <ele>19.7</ele>
      </trkpt>
      <trkpt lat="35.836505" lon="126.82219">
        <ele>19.7</ele>
      </trkpt>
      <trkpt lat="35.836489" lon="126.822451">
        <ele>19.6</ele>
      </trkpt>
      <trkpt lat="35.836476" lon="126.822995">
        <ele>19.6</ele>
      </trkpt>
      <trkpt lat="35.836468" lon="126.823318">
        <ele>19.6</ele>
      </trkpt>
      <trkpt lat="35.83644" lon="126.825206">
        <ele>19.6</ele>
      </trkpt>
      <trkpt lat="35.836378" lon="126.826871">
        <ele>19.6</ele>
      </trkpt>
      <trkpt lat="35.836319" lon="126.827306">
        <ele>19.6</ele>
      </trkpt>
      <trkpt lat="35.83633291293182" lon="126.82730913162233">
        <ele>19.5</ele>
      </trkpt>
      <trkpt lat="35.836319" lon="126.827306">
        <ele>19.5</ele>
      </trkpt>
      <trkpt lat="35.836195" lon="126.828238">
        <ele>19.5</ele>
      </trkpt>
      <trkpt lat="35.836148" lon="126.829614">
        <ele>19.4</ele>
      </trkpt>
      <trkpt lat="35.836145" lon="126.829704">
        <ele>19.4</ele>
      </trkpt>
      <trkpt lat="35.835955" lon="126.830306">
        <ele>19.4</ele>
      </trkpt>
      <trkpt lat="35.835744" lon="126.830849">
        <ele>19.3</ele>
      </trkpt>
      <trkpt lat="35.835717" lon="126.830918">
        <ele>19.2</ele>
      </trkpt>
      <trkpt lat="35.835352" lon="126.831711">
        <ele>19.2</ele>
      </trkpt>
      <trkpt lat="35.834792" lon="126.832882">
        <ele>19.1</ele>
      </trkpt>
      <trkpt lat="35.8347846913376" lon="126.83287739753725">
        <ele>19.0</ele>
      </trkpt>
      <trkpt lat="35.834792" lon="126.832882">
        <ele>18.8</ele>
      </trkpt>
      <trkpt lat="35.834782" lon="126.832904">
        <ele>18.7</ele>
      </trkpt>
      <trkpt lat="35.83434" lon="126.833509">
        <ele>18.5</ele>
      </trkpt>
      <trkpt lat="35.833929" lon="126.833837">
        <ele>18.3</ele>
      </trkpt>
      <trkpt lat="35.833637" lon="126.834125">
        <ele>18.1</ele>
      </trkpt>
      <trkpt lat="35.833172" lon="126.834647">
        <ele>17.9</ele>
      </trkpt>
      <trkpt lat="35.832651" lon="126.835218">
        <ele>17.7</ele>
      </trkpt>
      <trkpt lat="35.832505" lon="126.835401">
        <ele>17.5</ele>
      </trkpt>
      <trkpt lat="35.832445" lon="126.835477">
        <ele>17.3</ele>
      </trkpt>
      <trkpt lat="35.83222" lon="126.835801">
        <ele>17.1</ele>
      </trkpt>
      <trkpt lat="35.832066" lon="126.836093">
        <ele>17.0</ele>
      </trkpt>
      <trkpt lat="35.831997" lon="126.836248">
        <ele>16.8</ele>
      </trkpt>
      <trkpt lat="35.831776" lon="126.836543">
        <ele>16.6</ele>
      </trkpt>
      <trkpt lat="35.831566" lon="126.836702">
        <ele>16.4</ele>
      </trkpt>
      <trkpt lat="35.83157507955389" lon="126.83671832084657">
        <ele>16.3</ele>
      </trkpt>
      <trkpt lat="35.831566" lon="126.836702">
        <ele>16.1</ele>
      </trkpt>
      <trkpt lat="35.831509" lon="126.836746">
        <ele>15.9</ele>
      </trkpt>
      <trkpt lat="35.831107" lon="126.83702">
        <ele>15.7</ele>
      </trkpt>
      <trkpt lat="35.830745" lon="126.837277">
        <ele>15.6</ele>
      </trkpt>
      <trkpt lat="35.830327" lon="126.837638">
        <ele>15.4</ele>
      </trkpt>
      <trkpt lat="35.830245" lon="126.837722">
        <ele>15.2</ele>
      </trkpt>
      <trkpt lat="35.82991" lon="126.838067">
        <ele>15.0</ele>
      </trkpt>
      <trkpt lat="35.829703" lon="126.838322">
        <ele>14.9</ele>
      </trkpt>
      <trkpt lat="35.829447" lon="126.838636">
        <ele>14.7</ele>
      </trkpt>
      <trkpt lat="35.829257" lon="126.838889">
        <ele>14.6</ele>
      </trkpt>
      <trkpt lat="35.829008" lon="126.83941">
        <ele>14.4</ele>
      </trkpt>
      <trkpt lat="35.828749" lon="126.840137">
        <ele>14.3</ele>
      </trkpt>
      <trkpt lat="35.828683" lon="126.840402">
        <ele>14.2</ele>
      </trkpt>
      <trkpt lat="35.828596" lon="126.841023">
        <ele>14.1</ele>
      </trkpt>
      <trkpt lat="35.828569" lon="126.841421">
        <ele>14.1</ele>
      </trkpt>
      <trkpt lat="35.828530612359266" lon="126.84141755104066">
        <ele>14.0</ele>
      </trkpt>
      <trkpt lat="35.828569" lon="126.841421">
        <ele>14.0</ele>
      </trkpt>
      <trkpt lat="35.828564" lon="126.841499">
        <ele>14.0</ele>
      </trkpt>
      <trkpt lat="35.828527" lon="126.842989">
        <ele>14.0</ele>
      </trkpt>
      <trkpt lat="35.828497" lon="126.843808">
        <ele>14.0</ele>
      </trkpt>
      <trkpt lat="35.828466" lon="126.845094">
        <ele>14.0</ele>
      </trkpt>
      <trkpt lat="35.828386" lon="126.845587">
        <ele>14.0</ele>
      </trkpt>
      <trkpt lat="35.82823" lon="126.846053">
        <ele>14.0</ele>
      </trkpt>
      <trkpt lat="35.828088" lon="126.846385">
        <ele>14.0</ele>
      </trkpt>
      <trkpt lat="35.827973" lon="126.846606">
        <ele>14.1</ele>
      </trkpt>
      <trkpt lat="35.827914" lon="126.84667">
        <ele>14.0</ele>
      </trkpt>
      <trkpt lat="35.827678" lon="126.846925">
        <ele>14.0</ele>
      </trkpt>
      <trkpt lat="35.8275" lon="126.847093">
        <ele>14.0</ele>
      </trkpt>
      <trkpt lat="35.827376" lon="126.847183">
        <ele>14.0</ele>
      </trkpt>
      <trkpt lat="35.82737368420022" lon="126.84717893600465">
        <ele>13.9</ele>
      </trkpt>
      <trkpt lat="35.827376" lon="126.847183">
        <ele>13.9</ele>
      </trkpt>
      <trkpt lat="35.827159" lon="126.847344">
        <ele>13.8</ele>
      </trkpt>
      <trkpt lat="35.826859" lon="126.847492">
        <ele>13.7</ele>
      </trkpt>
      <trkpt lat="35.826545" lon="126.847646">
        <ele>13.6</ele>
      </trkpt>
      <trkpt lat="35.826091" lon="126.847933">
        <ele>13.5</ele>
      </trkpt>
      <trkpt lat="35.825793" lon="126.848234">
        <ele>13.4</ele>
      </trkpt>
      <trkpt lat="35.825194" lon="126.848869">
        <ele>13.3</ele>
      </trkpt>
      <trkpt lat="35.824449" lon="126.849804">
        <ele>13.2</ele>
      </trkpt>
      <trkpt lat="35.823976" lon="126.850445">
        <ele>13.1</ele>
      </trkpt>
      <trkpt lat="35.823972391713795" lon="126.85044050216676">
        <ele>12.9</ele>
      </trkpt>
      <trkpt lat="35.823976" lon="126.850445">
        <ele>12.8</ele>
      </trkpt>
      <trkpt lat="35.823753" lon="126.850748">
        <ele>12.6</ele>
      </trkpt>
      <trkpt lat="35.823705" lon="126.850826">
        <ele>12.4</ele>
      </trkpt>
      <trkpt lat="35.823425" lon="126.85128">
        <ele>12.3</ele>
      </trkpt>
      <trkpt lat="35.823187" lon="126.851785">
        <ele>12.1</ele>
      </trkpt>
      <trkpt lat="35.823172" lon="126.851816">
        <ele>11.8</ele>
      </trkpt>
      <trkpt lat="35.823047" lon="126.852081">
        <ele>11.6</ele>
      </trkpt>
      <trkpt lat="35.822982" lon="126.852219">
        <ele>11.4</ele>
      </trkpt>
      <trkpt lat="35.822658" lon="126.852954">
        <ele>11.2</ele>
      </trkpt>
      <trkpt lat="35.82262" lon="126.853041">
        <ele>10.9</ele>
      </trkpt>
      <trkpt lat="35.82243" lon="126.853478">
        <ele>10.7</ele>
      </trkpt>
      <trkpt lat="35.822165" lon="126.854063">
        <ele>10.5</ele>
      </trkpt>
      <trkpt lat="35.822004" lon="126.854418">
        <ele>10.2</ele>
      </trkpt>
      <trkpt lat="35.821931" lon="126.854577">
        <ele>10.0</ele>
      </trkpt>
      <trkpt lat="35.821645" lon="126.854876">
        <ele>9.8</ele>
      </trkpt>
      <trkpt lat="35.821068" lon="126.855312">
        <ele>9.5</ele>
      </trkpt>
      <trkpt lat="35.820737" lon="126.855615">
        <ele>9.3</ele>
      </trkpt>
      <trkpt lat="35.820246" lon="126.856223">
        <ele>9.1</ele>
      </trkpt>
      <trkpt lat="35.819812" lon="126.857021">
        <ele>8.9</ele>
      </trkpt>
      <trkpt lat="35.819687" lon="126.857275">
        <ele>8.7</ele>
      </trkpt>
      <trkpt lat="35.819659" lon="126.857331">
        <ele>8.6</ele>
      </trkpt>
      <trkpt lat="35.819397" lon="126.857783">
        <ele>8.4</ele>
      </trkpt>
      <trkpt lat="35.819363" lon="126.857843">
        <ele>8.3</ele>
      </trkpt>
      <trkpt lat="35.818795" lon="126.858887">
        <ele>8.1</ele>
      </trkpt>
      <trkpt lat="35.81880493188554" lon="126.8588948249817">
        <ele>8.0</ele>
      </trkpt>
      <trkpt lat="35.818795" lon="126.858887">
        <ele>7.9</ele>
      </trkpt>
      <trkpt lat="35.818582" lon="126.859281">
        <ele>7.8</ele>
      </trkpt>
      <trkpt lat="35.818358" lon="126.859692">
        <ele>7.7</ele>
      </trkpt>
      <trkpt lat="35.818011" lon="126.860371">
        <ele>7.7</ele>
      </trkpt>
      <trkpt lat="35.817675" lon="126.861163">
        <ele>7.6</ele>
      </trkpt>
      <trkpt lat="35.81741" lon="126.861921">
        <ele>7.6</ele>
      </trkpt>
      <trkpt lat="35.817144" lon="126.862708">
        <ele>7.6</ele>
      </trkpt>
      <trkpt lat="35.816835" lon="126.86356">
        <ele>7.6</ele>
      </trkpt>
      <trkpt lat="35.816704" lon="126.863957">
        <ele>7.6</ele>
      </trkpt>
      <trkpt lat="35.816647" lon="126.864077">
        <ele>7.6</ele>
      </trkpt>
      <trkpt lat="35.816375" lon="126.864653">
        <ele>7.6</ele>
      </trkpt>
      <trkpt lat="35.816111" lon="126.86509">
        <ele>7.6</ele>
      </trkpt>
      <trkpt lat="35.816046" lon="126.865197">
        <ele>7.7</ele>
      </trkpt>
      <trkpt lat="35.815729" lon="126.865571">
        <ele>7.8</ele>
      </trkpt>
      <trkpt lat="35.815617" lon="126.86572">
        <ele>7.8</ele>
      </trkpt>
      <trkpt lat="35.815485" lon="126.865897">
        <ele>7.9</ele>
      </trkpt>
      <trkpt lat="35.814686" lon="126.866689">
        <ele>8.0</ele>
      </trkpt>
      <trkpt lat="35.814652" lon="126.866721">
        <ele>8.1</ele>
      </trkpt>
      <trkpt lat="35.814023" lon="126.86732">
        <ele>8.2</ele>
      </trkpt>
      <trkpt lat="35.813551" lon="126.867769">
        <ele>8.4</ele>
      </trkpt>
      <trkpt lat="35.81333" lon="126.867978">
        <ele>8.5</ele>
      </trkpt>
      <trkpt lat="35.81333262540743" lon="126.86798214912416">
        <ele>8.7</ele>
      </trkpt>
      <trkpt lat="35.81333" lon="126.867978">
        <ele>8.8</ele>
      </trkpt>
      <trkpt lat="35.813325" lon="126.867984">
        <ele>9.0</ele>
      </trkpt>
      <trkpt lat="35.813278" lon="126.868028">
        <ele>9.2</ele>
      </trkpt>
      <trkpt lat="35.813138" lon="126.868164">
        <ele>9.4</ele>
      </trkpt>
      <trkpt lat="35.813039" lon="126.86826">
        <ele>9.6</ele>
      </trkpt>
      <trkpt lat="35.812707" lon="126.868584">
        <ele>9.8</ele>
      </trkpt>
      <trkpt lat="35.812096" lon="126.869429">
        <ele>10.0</ele>
      </trkpt>
      <trkpt lat="35.811897" lon="126.869694">
        <ele>10.3</ele>
      </trkpt>
      <trkpt lat="35.811502" lon="126.87022">
        <ele>10.5</ele>
      </trkpt>
      <trkpt lat="35.811307" lon="126.870442">
        <ele>10.7</ele>
      </trkpt>
      <trkpt lat="35.811218" lon="126.870559">
        <ele>10.9</ele>
      </trkpt>
      <trkpt lat="35.810822" lon="126.871072">
        <ele>11.2</ele>
      </trkpt>
      <trkpt lat="35.810598" lon="126.87135">
        <ele>11.4</ele>
      </trkpt>
      <trkpt lat="35.810423" lon="126.871568">
        <ele>11.7</ele>
      </trkpt>
      <trkpt lat="35.810354" lon="126.871653">
        <ele>11.9</ele>
      </trkpt>
      <trkpt lat="35.810234" lon="126.871806">
        <ele>12.2</ele>
      </trkpt>
      <trkpt lat="35.810134" lon="126.871919">
        <ele>12.5</ele>
      </trkpt>
      <trkpt lat="35.809855" lon="126.872234">
        <ele>12.8</ele>
      </trkpt>
      <trkpt lat="35.809693" lon="126.872406">
        <ele>13.1</ele>
      </trkpt>
      <trkpt lat="35.809533" lon="126.872549">
        <ele>13.5</ele>
      </trkpt>
      <trkpt lat="35.809381" lon="126.872685">
        <ele>13.8</ele>
      </trkpt>
      <trkpt lat="35.809238" lon="126.872812">
        <ele>14.2</ele>
      </trkpt>
      <trkpt lat="35.80881" lon="126.873196">
        <ele>14.5</ele>
      </trkpt>
      <trkpt lat="35.8086" lon="126.873364">
        <ele>14.9</ele>
      </trkpt>
      <trkpt lat="35.80846" lon="126.873477">
        <ele>15.3</ele>
      </trkpt>
      <trkpt lat="35.808199" lon="126.873579">
        <ele>15.6</ele>
      </trkpt>
      <trkpt lat="35.808045" lon="126.873611">
        <ele>16.0</ele>
      </trkpt>
      <trkpt lat="35.8079" lon="126.873641">
        <ele>16.3</ele>
      </trkpt>
      <trkpt lat="35.807831" lon="126.873626">
        <ele>16.6</ele>
      </trkpt>
      <trkpt lat="35.807435" lon="126.873662">
        <ele>17.0</ele>
      </trkpt>
      <trkpt lat="35.807392" lon="126.873716">
        <ele>17.3</ele>
      </trkpt>
      <trkpt lat="35.80741619412945" lon="126.87374353408815">
        <ele>17.6</ele>
      </trkpt>
      <trkpt lat="35.807392" lon="126.873716">
        <ele>17.9</ele>
      </trkpt>
      <trkpt lat="35.807285" lon="126.873854">
        <ele>18.2</ele>
      </trkpt>
      <trkpt lat="35.806772" lon="126.874406">
        <ele>18.5</ele>
      </trkpt>
      <trkpt lat="35.806541" lon="126.874611">
        <ele>18.8</ele>
      </trkpt>
      <trkpt lat="35.806427" lon="126.874701">
        <ele>19.1</ele>
      </trkpt>
      <trkpt lat="35.806603" lon="126.87483">
        <ele>19.4</ele>
      </trkpt>
      <trkpt lat="35.80661570192815" lon="126.87480568885805">
        <ele>19.8</ele>
      </trkpt>
      <trkpt lat="35.806603" lon="126.87483">
        <ele>20.1</ele>
      </trkpt>
      <trkpt lat="35.80702" lon="126.875135">
        <ele>20.4</ele>
      </trkpt>
      <trkpt lat="35.80732" lon="126.875499">
        <ele>20.7</ele>
      </trkpt>
      <trkpt lat="35.807512" lon="126.875927">
        <ele>21.0</ele>
      </trkpt>
      <trkpt lat="35.807595" lon="126.876232">
        <ele>21.3</ele>
      </trkpt>
      <trkpt lat="35.807833" lon="126.876948">
        <ele>21.5</ele>
      </trkpt>
      <trkpt lat="35.80780773628957" lon="126.87696218490602">
        <ele>21.8</ele>
      </trkpt>
      <trkpt lat="35.807833" lon="126.876948">
        <ele>22.0</ele>
      </trkpt>
      <trkpt lat="35.807845" lon="126.876985">
        <ele>22.2</ele>
      </trkpt>
      <trkpt lat="35.808196" lon="126.878221">
        <ele>22.4</ele>
      </trkpt>
      <trkpt lat="35.808334" lon="126.878641">
        <ele>22.6</ele>
      </trkpt>
      <trkpt lat="35.808472" lon="126.879061">
        <ele>22.7</ele>
      </trkpt>
      <trkpt lat="35.808538" lon="126.87927">
        <ele>22.8</ele>
      </trkpt>
      <trkpt lat="35.808621" lon="126.879496">
        <ele>22.9</ele>
      </trkpt>
      <trkpt lat="35.808866" lon="126.88029">
        <ele>23.0</ele>
      </trkpt>
      <trkpt lat="35.809575" lon="126.882645">
        <ele>23.1</ele>
      </trkpt>
      <trkpt lat="35.809713" lon="126.883318">
        <ele>23.2</ele>
      </trkpt>
      <trkpt lat="35.809796" lon="126.883601">
        <ele>23.3</ele>
      </trkpt>
      <trkpt lat="35.80981762232397" lon="126.88359260559083">
        <ele>23.4</ele>
      </trkpt>
      <trkpt lat="35.809796" lon="126.883601">
        <ele>23.5</ele>
      </trkpt>
      <trkpt lat="35.80999" lon="126.884262">
        <ele>23.7</ele>
      </trkpt>
      <trkpt lat="35.810174" lon="126.884906">
        <ele>23.8</ele>
      </trkpt>
      <trkpt lat="35.810392" lon="126.885587">
        <ele>24.0</ele>
      </trkpt>
      <trkpt lat="35.810421" lon="126.885662">
        <ele>24.1</ele>
      </trkpt>
      <trkpt lat="35.810616" lon="126.886164">
        <ele>24.3</ele>
      </trkpt>
      <trkpt lat="35.810664" lon="126.886559">
        <ele>24.5</ele>
      </trkpt>
      <trkpt lat="35.810689" lon="126.886859">
        <ele>24.6</ele>
      </trkpt>
      <trkpt lat="35.81071" lon="126.887111">
        <ele>24.8</ele>
      </trkpt>
      <trkpt lat="35.810706" lon="126.887275">
        <ele>24.9</ele>
      </trkpt>
      <trkpt lat="35.810725" lon="126.887766">
        <ele>25.1</ele>
      </trkpt>
      <trkpt lat="35.810697" lon="126.88819">
        <ele>25.3</ele>
      </trkpt>
      <trkpt lat="35.810485" lon="126.889544">
        <ele>25.4</ele>
      </trkpt>
      <trkpt lat="35.81049627365311" lon="126.8895471096039">
        <ele>25.5</ele>
      </trkpt>
      <trkpt lat="35.810485" lon="126.889544">
        <ele>25.6</ele>
      </trkpt>
      <trkpt lat="35.810375" lon="126.890247">
        <ele>25.8</ele>
      </trkpt>
      <trkpt lat="35.810295" lon="126.891107">
        <ele>25.9</ele>
      </trkpt>
      <trkpt lat="35.810252" lon="126.891214">
        <ele>26.0</ele>
      </trkpt>
      <trkpt lat="35.809841" lon="126.893471">
        <ele>26.1</ele>
      </trkpt>
      <trkpt lat="35.809716" lon="126.894176">
        <ele>26.3</ele>
      </trkpt>
      <trkpt lat="35.80926" lon="126.896813">
        <ele>26.4</ele>
      </trkpt>
      <trkpt lat="35.80925207511942" lon="126.89681053161623">
        <ele>26.6</ele>
      </trkpt>
      <trkpt lat="35.80926" lon="126.896813">
        <ele>26.7</ele>
      </trkpt>
      <trkpt lat="35.809167" lon="126.897358">
        <ele>26.9</ele>
      </trkpt>
      <trkpt lat="35.809234" lon="126.8974">
        <ele>27.1</ele>
      </trkpt>
      <trkpt lat="35.809521" lon="126.897579">
        <ele>27.2</ele>
      </trkpt>
      <trkpt lat="35.809817" lon="126.897829">
        <ele>27.3</ele>
      </trkpt>
      <trkpt lat="35.809875" lon="126.897878">
        <ele>27.5</ele>
      </trkpt>
      <trkpt lat="35.81031" lon="126.898236">
        <ele>27.6</ele>
      </trkpt>
      <trkpt lat="35.810572" lon="126.898389">
        <ele>27.7</ele>
      </trkpt>
      <trkpt lat="35.811484" lon="126.898819">
        <ele>27.8</ele>
      </trkpt>
      <trkpt lat="35.811683" lon="126.898896">
        <ele>27.9</ele>
      </trkpt>
      <trkpt lat="35.81319" lon="126.899442">
        <ele>27.9</ele>
      </trkpt>
      <trkpt lat="35.813184719997665" lon="126.899471282959">
        <ele>28.0</ele>
      </trkpt>
      <trkpt lat="35.81319" lon="126.899442">
        <ele>28.1</ele>
      </trkpt>
      <trkpt lat="35.81327" lon="126.899471">
        <ele>28.1</ele>
      </trkpt>
      <trkpt lat="35.813235" lon="126.899829">
        <ele>28.2</ele>
      </trkpt>
      <trkpt lat="35.813228" lon="126.900336">
        <ele>28.2</ele>
      </trkpt>
      <trkpt lat="35.81309" lon="126.90061">
        <ele>28.3</ele>
      </trkpt>
      <trkpt lat="35.81305" lon="126.900681">
        <ele>28.3</ele>
      </trkpt>
      <trkpt lat="35.813054214995574" lon="126.90068364143373">
        <ele>28.4</ele>
      </trkpt>
    </trkseg>
  </trk>
</gpx>