<?xml version="1.0" encoding="UTF-8"?>
<gpx xmlns="http://www.topografix.com/GPX/1/1" xmlns:gpxdata="http://www.cluetrust.com/XML/GPXDATA/1/0" xmlns:xsi="http://www.w3.org/2001/XMLSchema-instance" xsi:schemaLocation="http://www.topografix.com/GPX/1/1 https://www.topografix.com/GPX/1/1/gpx.xsd http://www.cluetrust.com/XML/GPXDATA/1/0 https://www.cluetrust.com/Schemas/gpxdata10.xsd" creator="COROS Wearables" version="1.1">
 <metadata>
  <link href="https://www.coros.com">
   <text>COROS</text>
  </link>
  <time>2026-05-06T10:21:27Z</time>
  <coros_edit>1</coros_edit>
 </metadata>
 <trk>
  <name>안동 하프</name>
  <type>running</type>
  <trkseg>
   <trkpt lat="36.5491520" lon="128.7240390">
    <ele>103</ele>
   </trkpt>
   <trkpt lat="36.5495620" lon="128.7240020">
    <ele>104</ele>
   </trkpt>
   <trkpt lat="36.5496660" lon="128.7239810">
    <ele>102</ele>
   </trkpt>
   <trkpt lat="36.5497690" lon="128.7239200">
    <ele>102</ele>
   </trkpt>
   <trkpt lat="36.5498510" lon="128.7238310">
    <ele>102</ele>
   </trkpt>
   <trkpt lat="36.5499180" lon="128.7237140">
    <ele>102</ele>
   </trkpt>
   <trkpt lat="36.5500360" lon="128.7234330">
    <ele>104</ele>
   </trkpt>
   <trkpt lat="36.5502800" lon="128.7228450">
    <ele>106</ele>
   </trkpt>
   <trkpt lat="36.5504180" lon="128.7225090">
    <ele>107</ele>
   </trkpt>
   <trkpt lat="36.5507460" lon="128.7217120">
    <ele>98</ele>
   </trkpt>
   <trkpt lat="36.5507820" lon="128.7216250">
    <ele>97</ele>
   </trkpt>
   <trkpt lat="36.5509340" lon="128.7212330">
    <ele>96</ele>
   </trkpt>
   <trkpt lat="36.5510250" lon="128.7210420">
    <ele>95</ele>
   </trkpt>
   <trkpt lat="36.5510980" lon="128.7209350">
    <ele>95</ele>
   </trkpt>
   <trkpt lat="36.5511930" lon="128.7208310">
    <ele>95</ele>
   </trkpt>
   <trkpt lat="36.5514320" lon="128.7206440">
    <ele>95</ele>
   </trkpt>
   <trkpt lat="36.5515530" lon="128.7205630">
    <ele>96</ele>
   </trkpt>
   <trkpt lat="36.5517830" lon="128.7204610">
    <ele>98</ele>
   </trkpt>
   <trkpt lat="36.5519980" lon="128.7204200">
    <ele>98</ele>
   </trkpt>
   <trkpt lat="36.5522430" lon="128.7203840">
    <ele>99</ele>
   </trkpt>
   <trkpt lat="36.5521930" lon="128.7206280">
    <ele>99</ele>
   </trkpt>
   <trkpt lat="36.5521590" lon="128.7207900">
    <ele>99</ele>
   </trkpt>
   <trkpt lat="36.5521290" lon="128.7210920">
    <ele>99</ele>
   </trkpt>
   <trkpt lat="36.5521200" lon="128.7211890">
    <ele>100</ele>
   </trkpt>
   <trkpt lat="36.5521170" lon="128.7213180">
    <ele>100</ele>
   </trkpt>
   <trkpt lat="36.5521120" lon="128.7215610">
    <ele>102</ele>
   </trkpt>
   <trkpt lat="36.5521300" lon="128.7219500">
    <ele>111</ele>
   </trkpt>
   <trkpt lat="36.5522410" lon="128.7226000">
    <ele>124</ele>
   </trkpt>
   <trkpt lat="36.5523720" lon="128.7232540">
    <ele>125</ele>
   </trkpt>
   <trkpt lat="36.5526720" lon="128.7248360">
    <ele>103</ele>
   </trkpt>
   <trkpt lat="36.5528050" lon="128.7257350">
    <ele>115</ele>
   </trkpt>
   <trkpt lat="36.5528590" lon="128.7262020">
    <ele>111</ele>
   </trkpt>
   <trkpt lat="36.5529310" lon="128.7268210">
    <ele>114</ele>
   </trkpt>
   <trkpt lat="36.5529300" lon="128.7268940">
    <ele>114</ele>
   </trkpt>
   <trkpt lat="36.5529150" lon="128.7278700">
    <ele>103</ele>
   </trkpt>
   <trkpt lat="36.5529430" lon="128.7284150">
    <ele>102</ele>
   </trkpt>
   <trkpt lat="36.5532580" lon="128.7304270">
    <ele>105</ele>
   </trkpt>
   <trkpt lat="36.5533340" lon="128.7311510">
    <ele>112</ele>
   </trkpt>
   <trkpt lat="36.5534080" lon="128.7320480">
    <ele>104</ele>
   </trkpt>
   <trkpt lat="36.5535410" lon="128.7336260">
    <ele>101</ele>
   </trkpt>
   <trkpt lat="36.5535490" lon="128.7337210">
    <ele>100</ele>
   </trkpt>
   <trkpt lat="36.5536070" lon="128.7342140">
    <ele>97</ele>
   </trkpt>
   <trkpt lat="36.5536230" lon="128.7343190">
    <ele>97</ele>
   </trkpt>
   <trkpt lat="36.5536850" lon="128.7347270">
    <ele>100</ele>
   </trkpt>
   <trkpt lat="36.5537960" lon="128.7352420">
    <ele>103</ele>
   </trkpt>
   <trkpt lat="36.5539640" lon="128.7359040">
    <ele>99</ele>
   </trkpt>
   <trkpt lat="36.5541080" lon="128.7365270">
    <ele>98</ele>
   </trkpt>
   <trkpt lat="36.5542240" lon="128.7369600">
    <ele>98</ele>
   </trkpt>
   <trkpt lat="36.5543470" lon="128.7374780">
    <ele>95</ele>
   </trkpt>
   <trkpt lat="36.5544060" lon="128.7380510">
    <ele>94</ele>
   </trkpt>
   <trkpt lat="36.5544110" lon="128.7386000">
    <ele>95</ele>
   </trkpt>
   <trkpt lat="36.5544130" lon="128.7388640">
    <ele>95</ele>
   </trkpt>
   <trkpt lat="36.5543540" lon="128.7392940">
    <ele>94</ele>
   </trkpt>
   <trkpt lat="36.5542810" lon="128.7398340">
    <ele>91</ele>
   </trkpt>
   <trkpt lat="36.5540590" lon="128.7405970">
    <ele>95</ele>
   </trkpt>
   <trkpt lat="36.5536650" lon="128.7415740">
    <ele>95</ele>
   </trkpt>
   <trkpt lat="36.5531600" lon="128.7427670">
    <ele>92</ele>
   </trkpt>
   <trkpt lat="36.5527810" lon="128.7436800">
    <ele>93</ele>
   </trkpt>
   <trkpt lat="36.5525180" lon="128.7443040">
    <ele>94</ele>
   </trkpt>
   <trkpt lat="36.5508910" lon="128.7481550">
    <ele>97</ele>
   </trkpt>
   <trkpt lat="36.5508360" lon="128.7482880">
    <ele>97</ele>
   </trkpt>
   <trkpt lat="36.5505790" lon="128.7489030">
    <ele>97</ele>
   </trkpt>
   <trkpt lat="36.5499950" lon="128.7503010">
    <ele>97</ele>
   </trkpt>
   <trkpt lat="36.5502030" lon="128.7505080">
    <ele>92</ele>
   </trkpt>
   <trkpt lat="36.5508780" lon="128.7511980">
    <ele>87</ele>
   </trkpt>
   <trkpt lat="36.5513080" lon="128.7516380">
    <ele>87</ele>
   </trkpt>
   <trkpt lat="36.5521130" lon="128.7524610">
    <ele>91</ele>
   </trkpt>
   <trkpt lat="36.5526810" lon="128.7530230">
    <ele>97</ele>
   </trkpt>
   <trkpt lat="36.5532140" lon="128.7535490">
    <ele>94</ele>
   </trkpt>
   <trkpt lat="36.5533140" lon="128.7536480">
    <ele>95</ele>
   </trkpt>
   <trkpt lat="36.5536340" lon="128.7539670">
    <ele>95</ele>
   </trkpt>
   <trkpt lat="36.5540850" lon="128.7544160">
    <ele>94</ele>
   </trkpt>
   <trkpt lat="36.5545570" lon="128.7548860">
    <ele>95</ele>
   </trkpt>
   <trkpt lat="36.5550180" lon="128.7553460">
    <ele>96</ele>
   </trkpt>
   <trkpt lat="36.5554630" lon="128.7557890">
    <ele>96</ele>
   </trkpt>
   <trkpt lat="36.5557820" lon="128.7561070">
    <ele>95</ele>
   </trkpt>
   <trkpt lat="36.5558530" lon="128.7561770">
    <ele>96</ele>
   </trkpt>
   <trkpt lat="36.5559690" lon="128.7563810">
    <ele>96</ele>
   </trkpt>
   <trkpt lat="36.5560310" lon="128.7564460">
    <ele>97</ele>
   </trkpt>
   <trkpt lat="36.5560310" lon="128.7564460">
    <ele>97</ele>
   </trkpt>
   <trkpt lat="36.5562250" lon="128.7566490">
    <ele>98</ele>
   </trkpt>
   <trkpt lat="36.5563340" lon="128.7567790">
    <ele>99</ele>
   </trkpt>
   <trkpt lat="36.5564370" lon="128.7568930">
    <ele>99</ele>
   </trkpt>
   <trkpt lat="36.5567450" lon="128.7572360">
    <ele>99</ele>
   </trkpt>
   <trkpt lat="36.5572920" lon="128.7578430">
    <ele>103</ele>
   </trkpt>
   <trkpt lat="36.5575290" lon="128.7581050">
    <ele>111</ele>
   </trkpt>
   <trkpt lat="36.5576310" lon="128.7582000">
    <ele>111</ele>
   </trkpt>
   <trkpt lat="36.5577140" lon="128.7582770">
    <ele>114</ele>
   </trkpt>
   <trkpt lat="36.5578830" lon="128.7584040">
    <ele>117</ele>
   </trkpt>
   <trkpt lat="36.5580280" lon="128.7585020">
    <ele>118</ele>
   </trkpt>
   <trkpt lat="36.5582310" lon="128.7586390">
    <ele>126</ele>
   </trkpt>
   <trkpt lat="36.5601770" lon="128.7594890">
    <ele>129</ele>
   </trkpt>
   <trkpt lat="36.5606460" lon="128.7596390">
    <ele>133</ele>
   </trkpt>
   <trkpt lat="36.5608720" lon="128.7597550">
    <ele>130</ele>
   </trkpt>
   <trkpt lat="36.5610750" lon="128.7598780">
    <ele>132</ele>
   </trkpt>
   <trkpt lat="36.5612620" lon="128.7600410">
    <ele>131</ele>
   </trkpt>
   <trkpt lat="36.5612950" lon="128.7600690">
    <ele>131</ele>
   </trkpt>
   <trkpt lat="36.5614820" lon="128.7602610">
    <ele>130</ele>
   </trkpt>
   <trkpt lat="36.5615790" lon="128.7603980">
    <ele>128</ele>
   </trkpt>
   <trkpt lat="36.5617450" lon="128.7606320">
    <ele>129</ele>
   </trkpt>
   <trkpt lat="36.5618650" lon="128.7608580">
    <ele>129</ele>
   </trkpt>
   <trkpt lat="36.5620150" lon="128.7611420">
    <ele>128</ele>
   </trkpt>
   <trkpt lat="36.5622230" lon="128.7616990">
    <ele>131</ele>
   </trkpt>
   <trkpt lat="36.5624040" lon="128.7622680">
    <ele>131</ele>
   </trkpt>
   <trkpt lat="36.5624580" lon="128.7625210">
    <ele>133</ele>
   </trkpt>
   <trkpt lat="36.5624840" lon="128.7627720">
    <ele>132</ele>
   </trkpt>
   <trkpt lat="36.5624950" lon="128.7630520">
    <ele>133</ele>
   </trkpt>
   <trkpt lat="36.5624920" lon="128.7634840">
    <ele>138</ele>
   </trkpt>
   <trkpt lat="36.5624900" lon="128.7638510">
    <ele>141</ele>
   </trkpt>
   <trkpt lat="36.5624840" lon="128.7643780">
    <ele>147</ele>
   </trkpt>
   <trkpt lat="36.5624730" lon="128.7652700">
    <ele>152</ele>
   </trkpt>
   <trkpt lat="36.5624750" lon="128.7655330">
    <ele>153</ele>
   </trkpt>
   <trkpt lat="36.5625010" lon="128.7658060">
    <ele>154</ele>
   </trkpt>
   <trkpt lat="36.5625460" lon="128.7660640">
    <ele>154</ele>
   </trkpt>
   <trkpt lat="36.5625920" lon="128.7662530">
    <ele>154</ele>
   </trkpt>
   <trkpt lat="36.5626250" lon="128.7663750">
    <ele>156</ele>
   </trkpt>
   <trkpt lat="36.5626910" lon="128.7665180">
    <ele>154</ele>
   </trkpt>
   <trkpt lat="36.5627450" lon="128.7666350">
    <ele>156</ele>
   </trkpt>
   <trkpt lat="36.5629100" lon="128.7669520">
    <ele>158</ele>
   </trkpt>
   <trkpt lat="36.5631090" lon="128.7672430">
    <ele>159</ele>
   </trkpt>
   <trkpt lat="36.5631690" lon="128.7673300">
    <ele>161</ele>
   </trkpt>
   <trkpt lat="36.5634920" lon="128.7678180">
    <ele>165</ele>
   </trkpt>
   <trkpt lat="36.5636300" lon="128.7679840">
    <ele>165</ele>
   </trkpt>
   <trkpt lat="36.5638170" lon="128.7681770">
    <ele>163</ele>
   </trkpt>
   <trkpt lat="36.5643940" lon="128.7686350">
    <ele>163</ele>
   </trkpt>
   <trkpt lat="36.5650820" lon="128.7691670">
    <ele>170</ele>
   </trkpt>
   <trkpt lat="36.5658450" lon="128.7697630">
    <ele>181</ele>
   </trkpt>
   <trkpt lat="36.5660990" lon="128.7699610">
    <ele>185</ele>
   </trkpt>
   <trkpt lat="36.5664470" lon="128.7702510">
    <ele>188</ele>
   </trkpt>
   <trkpt lat="36.5669220" lon="128.7706480">
    <ele>194</ele>
   </trkpt>
   <trkpt lat="36.5671450" lon="128.7708480">
    <ele>195</ele>
   </trkpt>
   <trkpt lat="36.5673230" lon="128.7710440">
    <ele>195</ele>
   </trkpt>
   <trkpt lat="36.5674640" lon="128.7712120">
    <ele>194</ele>
   </trkpt>
   <trkpt lat="36.5676490" lon="128.7714720">
    <ele>195</ele>
   </trkpt>
   <trkpt lat="36.5679290" lon="128.7719410">
    <ele>202</ele>
   </trkpt>
   <trkpt lat="36.5682730" lon="128.7725680">
    <ele>206</ele>
   </trkpt>
   <trkpt lat="36.5683630" lon="128.7726970">
    <ele>206</ele>
   </trkpt>
   <trkpt lat="36.5684600" lon="128.7728320">
    <ele>207</ele>
   </trkpt>
   <trkpt lat="36.5684940" lon="128.7728800">
    <ele>207</ele>
   </trkpt>
   <trkpt lat="36.5686340" lon="128.7730320">
    <ele>208</ele>
   </trkpt>
   <trkpt lat="36.5689980" lon="128.7734240">
    <ele>209</ele>
   </trkpt>
   <trkpt lat="36.5695360" lon="128.7740020">
    <ele>214</ele>
   </trkpt>
   <trkpt lat="36.5713720" lon="128.7758280">
    <ele>223</ele>
   </trkpt>
   <trkpt lat="36.5720910" lon="128.7764800">
    <ele>217</ele>
   </trkpt>
   <trkpt lat="36.5721460" lon="128.7765300">
    <ele>215</ele>
   </trkpt>
   <trkpt lat="36.5724320" lon="128.7768060">
    <ele>204</ele>
   </trkpt>
   <trkpt lat="36.5725850" lon="128.7769190">
    <ele>202</ele>
   </trkpt>
   <trkpt lat="36.5726910" lon="128.7769600">
    <ele>199</ele>
   </trkpt>
   <trkpt lat="36.5727210" lon="128.7769720">
    <ele>199</ele>
   </trkpt>
   <trkpt lat="36.5728670" lon="128.7769970">
    <ele>199</ele>
   </trkpt>
   <trkpt lat="36.5730890" lon="128.7770050">
    <ele>201</ele>
   </trkpt>
   <trkpt lat="36.5733000" lon="128.7769800">
    <ele>203</ele>
   </trkpt>
   <trkpt lat="36.5737290" lon="128.7769000">
    <ele>209</ele>
   </trkpt>
   <trkpt lat="36.5740090" lon="128.7768760">
    <ele>213</ele>
   </trkpt>
   <trkpt lat="36.5742030" lon="128.7768810">
    <ele>216</ele>
   </trkpt>
   <trkpt lat="36.5743820" lon="128.7769350">
    <ele>219</ele>
   </trkpt>
   <trkpt lat="36.5745910" lon="128.7770310">
    <ele>219</ele>
   </trkpt>
   <trkpt lat="36.5747460" lon="128.7771410">
    <ele>217</ele>
   </trkpt>
   <trkpt lat="36.5749270" lon="128.7773050">
    <ele>214</ele>
   </trkpt>
   <trkpt lat="36.5751720" lon="128.7775600">
    <ele>203</ele>
   </trkpt>
   <trkpt lat="36.5760070" lon="128.7784170">
    <ele>201</ele>
   </trkpt>
   <trkpt lat="36.5760980" lon="128.7784970">
    <ele>201</ele>
   </trkpt>
   <trkpt lat="36.5761630" lon="128.7785310">
    <ele>199</ele>
   </trkpt>
   <trkpt lat="36.5762320" lon="128.7785400">
    <ele>199</ele>
   </trkpt>
   <trkpt lat="36.5762920" lon="128.7785240">
    <ele>199</ele>
   </trkpt>
   <trkpt lat="36.5763470" lon="128.7784810">
    <ele>199</ele>
   </trkpt>
   <trkpt lat="36.5763990" lon="128.7784130">
    <ele>196</ele>
   </trkpt>
   <trkpt lat="36.5765820" lon="128.7782880">
    <ele>194</ele>
   </trkpt>
   <trkpt lat="36.5766570" lon="128.7782360">
    <ele>194</ele>
   </trkpt>
   <trkpt lat="36.5768840" lon="128.7781290">
    <ele>190</ele>
   </trkpt>
   <trkpt lat="36.5770710" lon="128.7780850">
    <ele>188</ele>
   </trkpt>
   <trkpt lat="36.5772290" lon="128.7780490">
    <ele>183</ele>
   </trkpt>
   <trkpt lat="36.5772670" lon="128.7780390">
    <ele>183</ele>
   </trkpt>
   <trkpt lat="36.5777760" lon="128.7779020">
    <ele>176</ele>
   </trkpt>
   <trkpt lat="36.5779920" lon="128.7778140">
    <ele>175</ele>
   </trkpt>
   <trkpt lat="36.5782090" lon="128.7777080">
    <ele>176</ele>
   </trkpt>
   <trkpt lat="36.5785860" lon="128.7774690">
    <ele>175</ele>
   </trkpt>
   <trkpt lat="36.5789940" lon="128.7771130">
    <ele>173</ele>
   </trkpt>
   <trkpt lat="36.5793800" lon="128.7767770">
    <ele>169</ele>
   </trkpt>
   <trkpt lat="36.5796970" lon="128.7764710">
    <ele>166</ele>
   </trkpt>
   <trkpt lat="36.5797900" lon="128.7763450">
    <ele>167</ele>
   </trkpt>
   <trkpt lat="36.5798070" lon="128.7763210">
    <ele>167</ele>
   </trkpt>
   <trkpt lat="36.5799030" lon="128.7761790">
    <ele>171</ele>
   </trkpt>
   <trkpt lat="36.5799840" lon="128.7760230">
    <ele>174</ele>
   </trkpt>
   <trkpt lat="36.5800480" lon="128.7758560">
    <ele>177</ele>
   </trkpt>
   <trkpt lat="36.5801070" lon="128.7756270">
    <ele>177</ele>
   </trkpt>
   <trkpt lat="36.5801170" lon="128.7755620">
    <ele>177</ele>
   </trkpt>
   <trkpt lat="36.5801380" lon="128.7754180">
    <ele>174</ele>
   </trkpt>
   <trkpt lat="36.5801520" lon="128.7751660">
    <ele>171</ele>
   </trkpt>
   <trkpt lat="36.5801450" lon="128.7749100">
    <ele>172</ele>
   </trkpt>
   <trkpt lat="36.5801430" lon="128.7746810">
    <ele>178</ele>
   </trkpt>
   <trkpt lat="36.5803000" lon="128.7746610">
    <ele>176</ele>
   </trkpt>
   <trkpt lat="36.5804040" lon="128.7745440">
    <ele>174</ele>
   </trkpt>
   <trkpt lat="36.5804870" lon="128.7744360">
    <ele>179</ele>
   </trkpt>
   <trkpt lat="36.5805510" lon="128.7743080">
    <ele>183</ele>
   </trkpt>
   <trkpt lat="36.5806120" lon="128.7741380">
    <ele>188</ele>
   </trkpt>
   <trkpt lat="36.5807820" lon="128.7731140">
    <ele>186</ele>
   </trkpt>
   <trkpt lat="36.5808120" lon="128.7730560">
    <ele>186</ele>
   </trkpt>
   <trkpt lat="36.5808910" lon="128.7730280">
    <ele>186</ele>
   </trkpt>
   <trkpt lat="36.5809510" lon="128.7730350">
    <ele>187</ele>
   </trkpt>
   <trkpt lat="36.5811850" lon="128.7730790">
    <ele>188</ele>
   </trkpt>
   <trkpt lat="36.5814200" lon="128.7731110">
    <ele>189</ele>
   </trkpt>
   <trkpt lat="36.5818060" lon="128.7731220">
    <ele>181</ele>
   </trkpt>
   <trkpt lat="36.5818970" lon="128.7731780">
    <ele>177</ele>
   </trkpt>
   <trkpt lat="36.5819760" lon="128.7733260">
    <ele>173</ele>
   </trkpt>
   <trkpt lat="36.5820670" lon="128.7734030">
    <ele>166</ele>
   </trkpt>
   <trkpt lat="36.5821960" lon="128.7734800">
    <ele>162</ele>
   </trkpt>
   <trkpt lat="36.5823750" lon="128.7735480">
    <ele>159</ele>
   </trkpt>
   <trkpt lat="36.5824810" lon="128.7735730">
    <ele>156</ele>
   </trkpt>
   <trkpt lat="36.5825180" lon="128.7735820">
    <ele>156</ele>
   </trkpt>
   <trkpt lat="36.5827010" lon="128.7735990">
    <ele>154</ele>
   </trkpt>
   <trkpt lat="36.5827970" lon="128.7735810">
    <ele>154</ele>
   </trkpt>
   <trkpt lat="36.5828860" lon="128.7735800">
    <ele>153</ele>
   </trkpt>
   <trkpt lat="36.5831950" lon="128.7736220">
    <ele>154</ele>
   </trkpt>
   <trkpt lat="36.5854150" lon="128.7739250">
    <ele>158</ele>
   </trkpt>
   <trkpt lat="36.5873720" lon="128.7741780">
    <ele>165</ele>
   </trkpt>
   <trkpt lat="36.5874870" lon="128.7741980">
    <ele>171</ele>
   </trkpt>
   <trkpt lat="36.5875000" lon="128.7742900">
    <ele>171</ele>
   </trkpt>
   <trkpt lat="36.5875200" lon="128.7744400">
    <ele>174</ele>
   </trkpt>
   <trkpt lat="36.5875600" lon="128.7745600">
    <ele>179</ele>
   </trkpt>
   <trkpt lat="36.5877800" lon="128.7748700">
    <ele>184</ele>
   </trkpt>
   <trkpt lat="36.5878600" lon="128.7750300">
    <ele>189</ele>
   </trkpt>
   <trkpt lat="36.5878850" lon="128.7751220">
    <ele>189</ele>
   </trkpt>
   <trkpt lat="36.5879300" lon="128.7752900">
    <ele>189</ele>
   </trkpt>
   <trkpt lat="36.5878800" lon="128.7755100">
    <ele>189</ele>
   </trkpt>
   <trkpt lat="36.5878000" lon="128.7757200">
    <ele>185</ele>
   </trkpt>
   <trkpt lat="36.5876270" lon="128.7758200">
    <ele>182</ele>
   </trkpt>
   <trkpt lat="36.5875400" lon="128.7758700">
    <ele>179</ele>
   </trkpt>
   <trkpt lat="36.5873700" lon="128.7760900">
    <ele>175</ele>
   </trkpt>
   <trkpt lat="36.5873000" lon="128.7762200">
    <ele>175</ele>
   </trkpt>
   <trkpt lat="36.5873500" lon="128.7763500">
    <ele>175</ele>
   </trkpt>
   <trkpt lat="36.5874300" lon="128.7763900">
    <ele>179</ele>
   </trkpt>
   <trkpt lat="36.5875000" lon="128.7764500">
    <ele>177</ele>
   </trkpt>
   <trkpt lat="36.5875000" lon="128.7766200">
    <ele>174</ele>
   </trkpt>
   <trkpt lat="36.5875600" lon="128.7767700">
    <ele>175</ele>
   </trkpt>
   <trkpt lat="36.5876300" lon="128.7768400">
    <ele>175</ele>
   </trkpt>
   <trkpt lat="36.5877600" lon="128.7769300">
    <ele>180</ele>
   </trkpt>
   <trkpt lat="36.5878400" lon="128.7769900">
    <ele>184</ele>
   </trkpt>
   <trkpt lat="36.5879700" lon="128.7776100">
    <ele>189</ele>
   </trkpt>
   <trkpt lat="36.5881400" lon="128.7779300">
    <ele>194</ele>
   </trkpt>
   <trkpt lat="36.5883100" lon="128.7781000">
    <ele>197</ele>
   </trkpt>
   <trkpt lat="36.5883300" lon="128.7786700">
    <ele>192</ele>
   </trkpt>
   <trkpt lat="36.5881200" lon="128.7791500">
    <ele>194</ele>
   </trkpt>
   <trkpt lat="36.5880500" lon="128.7794100">
    <ele>200</ele>
   </trkpt>
   <trkpt lat="36.5880500" lon="128.7796700">
    <ele>203</ele>
   </trkpt>
   <trkpt lat="36.5879300" lon="128.7801500">
    <ele>212</ele>
   </trkpt>
   <trkpt lat="36.5878000" lon="128.7803400">
    <ele>215</ele>
   </trkpt>
   <trkpt lat="36.5875600" lon="128.7803800">
    <ele>216</ele>
   </trkpt>
   <trkpt lat="36.5873900" lon="128.7804800">
    <ele>208</ele>
   </trkpt>
   <trkpt lat="36.5873200" lon="128.7805700">
    <ele>211</ele>
   </trkpt>
   <trkpt lat="36.5873200" lon="128.7807900">
    <ele>211</ele>
   </trkpt>
   <trkpt lat="36.5876130" lon="128.7811280">
    <ele>217</ele>
   </trkpt>
   <trkpt lat="36.5876500" lon="128.7811700">
    <ele>217</ele>
   </trkpt>
   <trkpt lat="36.5877100" lon="128.7819000">
    <ele>222</ele>
   </trkpt>
   <trkpt lat="36.5877400" lon="128.7819350">
    <ele>221</ele>
   </trkpt>
   <trkpt lat="36.5878800" lon="128.7821000">
    <ele>223</ele>
   </trkpt>
   <trkpt lat="36.5881200" lon="128.7820700">
    <ele>230</ele>
   </trkpt>
   <trkpt lat="36.5883500" lon="128.7819500">
    <ele>231</ele>
   </trkpt>
   <trkpt lat="36.5885100" lon="128.7819500">
    <ele>232</ele>
   </trkpt>
   <trkpt lat="36.5885700" lon="128.7820500">
    <ele>231</ele>
   </trkpt>
   <trkpt lat="36.5887000" lon="128.7820500">
    <ele>229</ele>
   </trkpt>
   <trkpt lat="36.5888500" lon="128.7819000">
    <ele>233</ele>
   </trkpt>
   <trkpt lat="36.5890200" lon="128.7819000">
    <ele>231</ele>
   </trkpt>
   <trkpt lat="36.5897300" lon="128.7826800">
    <ele>223</ele>
   </trkpt>
   <trkpt lat="36.5897300" lon="128.7829500">
    <ele>221</ele>
   </trkpt>
   <trkpt lat="36.5895600" lon="128.7833200">
    <ele>220</ele>
   </trkpt>
   <trkpt lat="36.5895800" lon="128.7836400">
    <ele>221</ele>
   </trkpt>
   <trkpt lat="36.5897300" lon="128.7841100">
    <ele>227</ele>
   </trkpt>
   <trkpt lat="36.5896900" lon="128.7843300">
    <ele>228</ele>
   </trkpt>
   <trkpt lat="36.5895100" lon="128.7846500">
    <ele>225</ele>
   </trkpt>
   <trkpt lat="36.5895310" lon="128.7850100">
    <ele>228</ele>
   </trkpt>
   <trkpt lat="36.5895400" lon="128.7851700">
    <ele>228</ele>
   </trkpt>
   <trkpt lat="36.5893600" lon="128.7855300">
    <ele>221</ele>
   </trkpt>
   <trkpt lat="36.5893400" lon="128.7857500">
    <ele>214</ele>
   </trkpt>
   <trkpt lat="36.5893660" lon="128.7858070">
    <ele>219</ele>
   </trkpt>
   <trkpt lat="36.5894900" lon="128.7860800">
    <ele>219</ele>
   </trkpt>
   <trkpt lat="36.5894900" lon="128.7864900">
    <ele>213</ele>
   </trkpt>
   <trkpt lat="36.5896900" lon="128.7867100">
    <ele>216</ele>
   </trkpt>
   <trkpt lat="36.5897700" lon="128.7869200">
    <ele>218</ele>
   </trkpt>
   <trkpt lat="36.5896900" lon="128.7871800">
    <ele>213</ele>
   </trkpt>
   <trkpt lat="36.5894700" lon="128.7873900">
    <ele>206</ele>
   </trkpt>
   <trkpt lat="36.5893000" lon="128.7877000">
    <ele>205</ele>
   </trkpt>
   <trkpt lat="36.5890800" lon="128.7878200">
    <ele>206</ele>
   </trkpt>
   <trkpt lat="36.5888500" lon="128.7880400">
    <ele>213</ele>
   </trkpt>
   <trkpt lat="36.5886300" lon="128.7881300">
    <ele>221</ele>
   </trkpt>
   <trkpt lat="36.5881400" lon="128.7880200">
    <ele>220</ele>
   </trkpt>
   <trkpt lat="36.5877050" lon="128.7877890">
    <ele>221</ele>
   </trkpt>
   <trkpt lat="36.5876500" lon="128.7877600">
    <ele>223</ele>
   </trkpt>
   <trkpt lat="36.5873900" lon="128.7875500">
    <ele>212</ele>
   </trkpt>
   <trkpt lat="36.5872400" lon="128.7875500">
    <ele>212</ele>
   </trkpt>
   <trkpt lat="36.5870770" lon="128.7876910">
    <ele>218</ele>
   </trkpt>
   <trkpt lat="36.5872400" lon="128.7875500">
    <ele>212</ele>
   </trkpt>
   <trkpt lat="36.5873900" lon="128.7875500">
    <ele>212</ele>
   </trkpt>
   <trkpt lat="36.5876500" lon="128.7877600">
    <ele>223</ele>
   </trkpt>
   <trkpt lat="36.5877720" lon="128.7878250">
    <ele>221</ele>
   </trkpt>
   <trkpt lat="36.5881400" lon="128.7880200">
    <ele>220</ele>
   </trkpt>
   <trkpt lat="36.5884530" lon="128.7880900">
    <ele>222</ele>
   </trkpt>
   <trkpt lat="36.5886300" lon="128.7881300">
    <ele>221</ele>
   </trkpt>
   <trkpt lat="36.5888500" lon="128.7880400">
    <ele>213</ele>
   </trkpt>
   <trkpt lat="36.5890800" lon="128.7878200">
    <ele>206</ele>
   </trkpt>
   <trkpt lat="36.5893000" lon="128.7877000">
    <ele>205</ele>
   </trkpt>
   <trkpt lat="36.5894700" lon="128.7873900">
    <ele>206</ele>
   </trkpt>
   <trkpt lat="36.5896900" lon="128.7871800">
    <ele>213</ele>
   </trkpt>
   <trkpt lat="36.5897700" lon="128.7869200">
    <ele>218</ele>
   </trkpt>
   <trkpt lat="36.5896900" lon="128.7867100">
    <ele>216</ele>
   </trkpt>
   <trkpt lat="36.5894900" lon="128.7864900">
    <ele>213</ele>
   </trkpt>
   <trkpt lat="36.5894900" lon="128.7860800">
    <ele>219</ele>
   </trkpt>
   <trkpt lat="36.5893400" lon="128.7857500">
    <ele>214</ele>
   </trkpt>
   <trkpt lat="36.5893600" lon="128.7855300">
    <ele>221</ele>
   </trkpt>
   <trkpt lat="36.5895400" lon="128.7851700">
    <ele>228</ele>
   </trkpt>
   <trkpt lat="36.5895330" lon="128.7850550">
    <ele>228</ele>
   </trkpt>
   <trkpt lat="36.5895100" lon="128.7846500">
    <ele>225</ele>
   </trkpt>
   <trkpt lat="36.5896900" lon="128.7843300">
    <ele>228</ele>
   </trkpt>
   <trkpt lat="36.5897070" lon="128.7842340">
    <ele>227</ele>
   </trkpt>
   <trkpt lat="36.5897300" lon="128.7841100">
    <ele>227</ele>
   </trkpt>
   <trkpt lat="36.5895800" lon="128.7836400">
    <ele>221</ele>
   </trkpt>
   <trkpt lat="36.5895600" lon="128.7833200">
    <ele>220</ele>
   </trkpt>
   <trkpt lat="36.5897300" lon="128.7829500">
    <ele>221</ele>
   </trkpt>
   <trkpt lat="36.5897300" lon="128.7826800">
    <ele>223</ele>
   </trkpt>
   <trkpt lat="36.5890200" lon="128.7819000">
    <ele>231</ele>
   </trkpt>
   <trkpt lat="36.5888500" lon="128.7819000">
    <ele>233</ele>
   </trkpt>
   <trkpt lat="36.5887000" lon="128.7820500">
    <ele>229</ele>
   </trkpt>
   <trkpt lat="36.5885700" lon="128.7820500">
    <ele>231</ele>
   </trkpt>
   <trkpt lat="36.5885100" lon="128.7819500">
    <ele>232</ele>
   </trkpt>
   <trkpt lat="36.5883500" lon="128.7819500">
    <ele>231</ele>
   </trkpt>
   <trkpt lat="36.5881200" lon="128.7820700">
    <ele>230</ele>
   </trkpt>
   <trkpt lat="36.5878800" lon="128.7821000">
    <ele>223</ele>
   </trkpt>
   <trkpt lat="36.5877100" lon="128.7819000">
    <ele>222</ele>
   </trkpt>
   <trkpt lat="36.5876500" lon="128.7811700">
    <ele>217</ele>
   </trkpt>
   <trkpt lat="36.5873200" lon="128.7807900">
    <ele>211</ele>
   </trkpt>
   <trkpt lat="36.5873200" lon="128.7805700">
    <ele>211</ele>
   </trkpt>
   <trkpt lat="36.5873900" lon="128.7804800">
    <ele>208</ele>
   </trkpt>
   <trkpt lat="36.5874500" lon="128.7804450">
    <ele>213</ele>
   </trkpt>
   <trkpt lat="36.5875600" lon="128.7803800">
    <ele>216</ele>
   </trkpt>
   <trkpt lat="36.5878000" lon="128.7803400">
    <ele>215</ele>
   </trkpt>
   <trkpt lat="36.5879300" lon="128.7801500">
    <ele>212</ele>
   </trkpt>
   <trkpt lat="36.5879760" lon="128.7799670">
    <ele>209</ele>
   </trkpt>
   <trkpt lat="36.5880500" lon="128.7796700">
    <ele>203</ele>
   </trkpt>
   <trkpt lat="36.5880500" lon="128.7794100">
    <ele>200</ele>
   </trkpt>
   <trkpt lat="36.5881200" lon="128.7791500">
    <ele>194</ele>
   </trkpt>
   <trkpt lat="36.5883300" lon="128.7786700">
    <ele>192</ele>
   </trkpt>
   <trkpt lat="36.5883100" lon="128.7781000">
    <ele>197</ele>
   </trkpt>
   <trkpt lat="36.5881400" lon="128.7779300">
    <ele>194</ele>
   </trkpt>
   <trkpt lat="36.5879700" lon="128.7776100">
    <ele>189</ele>
   </trkpt>
   <trkpt lat="36.5879280" lon="128.7774100">
    <ele>183</ele>
   </trkpt>
   <trkpt lat="36.5878400" lon="128.7769900">
    <ele>184</ele>
   </trkpt>
   <trkpt lat="36.5877600" lon="128.7769300">
    <ele>180</ele>
   </trkpt>
   <trkpt lat="36.5876300" lon="128.7768400">
    <ele>175</ele>
   </trkpt>
   <trkpt lat="36.5875600" lon="128.7767700">
    <ele>175</ele>
   </trkpt>
   <trkpt lat="36.5875430" lon="128.7767270">
    <ele>174</ele>
   </trkpt>
   <trkpt lat="36.5875000" lon="128.7766200">
    <ele>174</ele>
   </trkpt>
   <trkpt lat="36.5875000" lon="128.7764500">
    <ele>177</ele>
   </trkpt>
   <trkpt lat="36.5874300" lon="128.7763900">
    <ele>179</ele>
   </trkpt>
   <trkpt lat="36.5873500" lon="128.7763500">
    <ele>175</ele>
   </trkpt>
   <trkpt lat="36.5873000" lon="128.7762200">
    <ele>175</ele>
   </trkpt>
   <trkpt lat="36.5873700" lon="128.7760900">
    <ele>175</ele>
   </trkpt>
   <trkpt lat="36.5875400" lon="128.7758700">
    <ele>179</ele>
   </trkpt>
   <trkpt lat="36.5878000" lon="128.7757200">
    <ele>185</ele>
   </trkpt>
   <trkpt lat="36.5878800" lon="128.7755100">
    <ele>189</ele>
   </trkpt>
   <trkpt lat="36.5879300" lon="128.7752900">
    <ele>189</ele>
   </trkpt>
   <trkpt lat="36.5878600" lon="128.7750300">
    <ele>189</ele>
   </trkpt>
   <trkpt lat="36.5877800" lon="128.7748700">
    <ele>184</ele>
   </trkpt>
   <trkpt lat="36.5875600" lon="128.7745600">
    <ele>179</ele>
   </trkpt>
   <trkpt lat="36.5875200" lon="128.7744400">
    <ele>174</ele>
   </trkpt>
   <trkpt lat="36.5875000" lon="128.7742900">
    <ele>171</ele>
   </trkpt>
   <trkpt lat="36.5874870" lon="128.7741980">
    <ele>171</ele>
   </trkpt>
   <trkpt lat="36.5873720" lon="128.7741780">
    <ele>165</ele>
   </trkpt>
   <trkpt lat="36.5866830" lon="128.7740890">
    <ele>159</ele>
   </trkpt>
   <trkpt lat="36.5859680" lon="128.7739960">
    <ele>155</ele>
   </trkpt>
   <trkpt lat="36.5854150" lon="128.7739250">
    <ele>158</ele>
   </trkpt>
   <trkpt lat="36.5828860" lon="128.7735800">
    <ele>153</ele>
   </trkpt>
   <trkpt lat="36.5827970" lon="128.7735810">
    <ele>154</ele>
   </trkpt>
   <trkpt lat="36.5827010" lon="128.7735990">
    <ele>154</ele>
   </trkpt>
   <trkpt lat="36.5825180" lon="128.7735820">
    <ele>156</ele>
   </trkpt>
   <trkpt lat="36.5823750" lon="128.7735480">
    <ele>159</ele>
   </trkpt>
   <trkpt lat="36.5821960" lon="128.7734800">
    <ele>162</ele>
   </trkpt>
   <trkpt lat="36.5820670" lon="128.7734030">
    <ele>166</ele>
   </trkpt>
   <trkpt lat="36.5819760" lon="128.7733260">
    <ele>173</ele>
   </trkpt>
   <trkpt lat="36.5818970" lon="128.7731780">
    <ele>177</ele>
   </trkpt>
   <trkpt lat="36.5818060" lon="128.7731220">
    <ele>181</ele>
   </trkpt>
   <trkpt lat="36.5814200" lon="128.7731110">
    <ele>189</ele>
   </trkpt>
   <trkpt lat="36.5811850" lon="128.7730790">
    <ele>188</ele>
   </trkpt>
   <trkpt lat="36.5809510" lon="128.7730350">
    <ele>187</ele>
   </trkpt>
   <trkpt lat="36.5808910" lon="128.7730280">
    <ele>186</ele>
   </trkpt>
   <trkpt lat="36.5808120" lon="128.7730560">
    <ele>186</ele>
   </trkpt>
   <trkpt lat="36.5807820" lon="128.7731140">
    <ele>186</ele>
   </trkpt>
   <trkpt lat="36.5806120" lon="128.7741380">
    <ele>188</ele>
   </trkpt>
   <trkpt lat="36.5805510" lon="128.7743080">
    <ele>183</ele>
   </trkpt>
   <trkpt lat="36.5804870" lon="128.7744360">
    <ele>179</ele>
   </trkpt>
   <trkpt lat="36.5804040" lon="128.7745440">
    <ele>174</ele>
   </trkpt>
   <trkpt lat="36.5803000" lon="128.7746610">
    <ele>176</ele>
   </trkpt>
   <trkpt lat="36.5801430" lon="128.7746810">
    <ele>178</ele>
   </trkpt>
   <trkpt lat="36.5801450" lon="128.7749100">
    <ele>172</ele>
   </trkpt>
   <trkpt lat="36.5801520" lon="128.7751660">
    <ele>171</ele>
   </trkpt>
   <trkpt lat="36.5801380" lon="128.7754180">
    <ele>174</ele>
   </trkpt>
   <trkpt lat="36.5801140" lon="128.7755800">
    <ele>177</ele>
   </trkpt>
   <trkpt lat="36.5801070" lon="128.7756270">
    <ele>177</ele>
   </trkpt>
   <trkpt lat="36.5800480" lon="128.7758560">
    <ele>177</ele>
   </trkpt>
   <trkpt lat="36.5799840" lon="128.7760230">
    <ele>174</ele>
   </trkpt>
   <trkpt lat="36.5799030" lon="128.7761790">
    <ele>171</ele>
   </trkpt>
   <trkpt lat="36.5798070" lon="128.7763210">
    <ele>167</ele>
   </trkpt>
   <trkpt lat="36.5797800" lon="128.7763580">
    <ele>167</ele>
   </trkpt>
   <trkpt lat="36.5796970" lon="128.7764710">
    <ele>166</ele>
   </trkpt>
   <trkpt lat="36.5793800" lon="128.7767770">
    <ele>169</ele>
   </trkpt>
   <trkpt lat="36.5789940" lon="128.7771130">
    <ele>173</ele>
   </trkpt>
   <trkpt lat="36.5785860" lon="128.7774690">
    <ele>175</ele>
   </trkpt>
   <trkpt lat="36.5782090" lon="128.7777080">
    <ele>176</ele>
   </trkpt>
   <trkpt lat="36.5779920" lon="128.7778140">
    <ele>175</ele>
   </trkpt>
   <trkpt lat="36.5777760" lon="128.7779020">
    <ele>176</ele>
   </trkpt>
   <trkpt lat="36.5772290" lon="128.7780490">
    <ele>183</ele>
   </trkpt>
   <trkpt lat="36.5770710" lon="128.7780850">
    <ele>188</ele>
   </trkpt>
   <trkpt lat="36.5768840" lon="128.7781290">
    <ele>190</ele>
   </trkpt>
   <trkpt lat="36.5766570" lon="128.7782360">
    <ele>194</ele>
   </trkpt>
   <trkpt lat="36.5763990" lon="128.7784130">
    <ele>196</ele>
   </trkpt>
   <trkpt lat="36.5763470" lon="128.7784810">
    <ele>199</ele>
   </trkpt>
   <trkpt lat="36.5762920" lon="128.7785240">
    <ele>199</ele>
   </trkpt>
   <trkpt lat="36.5762320" lon="128.7785400">
    <ele>199</ele>
   </trkpt>
   <trkpt lat="36.5761630" lon="128.7785310">
    <ele>199</ele>
   </trkpt>
   <trkpt lat="36.5760980" lon="128.7784970">
    <ele>201</ele>
   </trkpt>
   <trkpt lat="36.5760070" lon="128.7784170">
    <ele>201</ele>
   </trkpt>
   <trkpt lat="36.5751720" lon="128.7775600">
    <ele>203</ele>
   </trkpt>
   <trkpt lat="36.5749270" lon="128.7773050">
    <ele>214</ele>
   </trkpt>
   <trkpt lat="36.5747460" lon="128.7771410">
    <ele>217</ele>
   </trkpt>
   <trkpt lat="36.5745910" lon="128.7770310">
    <ele>219</ele>
   </trkpt>
   <trkpt lat="36.5743820" lon="128.7769350">
    <ele>219</ele>
   </trkpt>
   <trkpt lat="36.5742030" lon="128.7768810">
    <ele>216</ele>
   </trkpt>
   <trkpt lat="36.5740090" lon="128.7768760">
    <ele>213</ele>
   </trkpt>
   <trkpt lat="36.5737290" lon="128.7769000">
    <ele>209</ele>
   </trkpt>
   <trkpt lat="36.5736380" lon="128.7769170">
    <ele>209</ele>
   </trkpt>
   <trkpt lat="36.5733000" lon="128.7769800">
    <ele>203</ele>
   </trkpt>
   <trkpt lat="36.5730890" lon="128.7770050">
    <ele>201</ele>
   </trkpt>
   <trkpt lat="36.5729240" lon="128.7769990">
    <ele>199</ele>
   </trkpt>
   <trkpt lat="36.5728670" lon="128.7769970">
    <ele>199</ele>
   </trkpt>
   <trkpt lat="36.5727210" lon="128.7769720">
    <ele>199</ele>
   </trkpt>
   <trkpt lat="36.5725850" lon="128.7769190">
    <ele>202</ele>
   </trkpt>
   <trkpt lat="36.5724320" lon="128.7768060">
    <ele>204</ele>
   </trkpt>
   <trkpt lat="36.5721460" lon="128.7765300">
    <ele>215</ele>
   </trkpt>
   <trkpt lat="36.5713720" lon="128.7758280">
    <ele>223</ele>
   </trkpt>
   <trkpt lat="36.5695360" lon="128.7740020">
    <ele>214</ele>
   </trkpt>
   <trkpt lat="36.5686340" lon="128.7730320">
    <ele>208</ele>
   </trkpt>
   <trkpt lat="36.5684940" lon="128.7728800">
    <ele>207</ele>
   </trkpt>
   <trkpt lat="36.5683630" lon="128.7726970">
    <ele>206</ele>
   </trkpt>
   <trkpt lat="36.5683220" lon="128.7726380">
    <ele>206</ele>
   </trkpt>
   <trkpt lat="36.5682730" lon="128.7725680">
    <ele>206</ele>
   </trkpt>
   <trkpt lat="36.5679290" lon="128.7719410">
    <ele>202</ele>
   </trkpt>
   <trkpt lat="36.5679080" lon="128.7719060">
    <ele>202</ele>
   </trkpt>
   <trkpt lat="36.5676490" lon="128.7714720">
    <ele>195</ele>
   </trkpt>
   <trkpt lat="36.5674640" lon="128.7712120">
    <ele>194</ele>
   </trkpt>
   <trkpt lat="36.5673230" lon="128.7710440">
    <ele>195</ele>
   </trkpt>
   <trkpt lat="36.5671450" lon="128.7708480">
    <ele>195</ele>
   </trkpt>
   <trkpt lat="36.5669220" lon="128.7706480">
    <ele>194</ele>
   </trkpt>
   <trkpt lat="36.5660990" lon="128.7699610">
    <ele>185</ele>
   </trkpt>
   <trkpt lat="36.5650820" lon="128.7691670">
    <ele>170</ele>
   </trkpt>
   <trkpt lat="36.5643940" lon="128.7686350">
    <ele>163</ele>
   </trkpt>
   <trkpt lat="36.5638170" lon="128.7681770">
    <ele>163</ele>
   </trkpt>
   <trkpt lat="36.5636300" lon="128.7679840">
    <ele>165</ele>
   </trkpt>
   <trkpt lat="36.5634920" lon="128.7678180">
    <ele>165</ele>
   </trkpt>
   <trkpt lat="36.5633270" lon="128.7675690">
    <ele>163</ele>
   </trkpt>
   <trkpt lat="36.5631690" lon="128.7673300">
    <ele>161</ele>
   </trkpt>
   <trkpt lat="36.5629100" lon="128.7669520">
    <ele>158</ele>
   </trkpt>
   <trkpt lat="36.5628720" lon="128.7668780">
    <ele>155</ele>
   </trkpt>
   <trkpt lat="36.5627450" lon="128.7666350">
    <ele>156</ele>
   </trkpt>
   <trkpt lat="36.5626250" lon="128.7663750">
    <ele>156</ele>
   </trkpt>
   <trkpt lat="36.5625920" lon="128.7662530">
    <ele>154</ele>
   </trkpt>
   <trkpt lat="36.5625460" lon="128.7660640">
    <ele>154</ele>
   </trkpt>
   <trkpt lat="36.5625010" lon="128.7658060">
    <ele>154</ele>
   </trkpt>
   <trkpt lat="36.5624750" lon="128.7655330">
    <ele>153</ele>
   </trkpt>
   <trkpt lat="36.5624730" lon="128.7652700">
    <ele>152</ele>
   </trkpt>
   <trkpt lat="36.5624900" lon="128.7638510">
    <ele>141</ele>
   </trkpt>
   <trkpt lat="36.5624950" lon="128.7630520">
    <ele>133</ele>
   </trkpt>
   <trkpt lat="36.5624840" lon="128.7627720">
    <ele>132</ele>
   </trkpt>
   <trkpt lat="36.5624640" lon="128.7625820">
    <ele>131</ele>
   </trkpt>
   <trkpt lat="36.5624580" lon="128.7625210">
    <ele>133</ele>
   </trkpt>
   <trkpt lat="36.5624040" lon="128.7622680">
    <ele>131</ele>
   </trkpt>
   <trkpt lat="36.5622350" lon="128.7617370">
    <ele>131</ele>
   </trkpt>
   <trkpt lat="36.5622230" lon="128.7616990">
    <ele>131</ele>
   </trkpt>
   <trkpt lat="36.5620150" lon="128.7611420">
    <ele>128</ele>
   </trkpt>
   <trkpt lat="36.5617450" lon="128.7606320">
    <ele>129</ele>
   </trkpt>
   <trkpt lat="36.5614820" lon="128.7602610">
    <ele>130</ele>
   </trkpt>
   <trkpt lat="36.5612950" lon="128.7600690">
    <ele>131</ele>
   </trkpt>
   <trkpt lat="36.5612620" lon="128.7600410">
    <ele>131</ele>
   </trkpt>
   <trkpt lat="36.5610750" lon="128.7598780">
    <ele>132</ele>
   </trkpt>
   <trkpt lat="36.5608720" lon="128.7597550">
    <ele>130</ele>
   </trkpt>
   <trkpt lat="36.5606460" lon="128.7596390">
    <ele>133</ele>
   </trkpt>
   <trkpt lat="36.5601770" lon="128.7594890">
    <ele>129</ele>
   </trkpt>
   <trkpt lat="36.5599400" lon="128.7593850">
    <ele>134</ele>
   </trkpt>
   <trkpt lat="36.5592620" lon="128.7590890">
    <ele>158</ele>
   </trkpt>
   <trkpt lat="36.5582310" lon="128.7586390">
    <ele>126</ele>
   </trkpt>
   <trkpt lat="36.5578830" lon="128.7584040">
    <ele>117</ele>
   </trkpt>
   <trkpt lat="36.5577140" lon="128.7582770">
    <ele>114</ele>
   </trkpt>
   <trkpt lat="36.5575290" lon="128.7581050">
    <ele>111</ele>
   </trkpt>
   <trkpt lat="36.5572920" lon="128.7578430">
    <ele>103</ele>
   </trkpt>
   <trkpt lat="36.5567450" lon="128.7572360">
    <ele>99</ele>
   </trkpt>
   <trkpt lat="36.5563340" lon="128.7567790">
    <ele>99</ele>
   </trkpt>
   <trkpt lat="36.5562250" lon="128.7566490">
    <ele>98</ele>
   </trkpt>
   <trkpt lat="36.5560310" lon="128.7564460">
    <ele>97</ele>
   </trkpt>
   <trkpt lat="36.5560310" lon="128.7564460">
    <ele>97</ele>
   </trkpt>
   <trkpt lat="36.5559690" lon="128.7563810">
    <ele>96</ele>
   </trkpt>
   <trkpt lat="36.5558530" lon="128.7561770">
    <ele>96</ele>
   </trkpt>
   <trkpt lat="36.5557820" lon="128.7561070">
    <ele>95</ele>
   </trkpt>
   <trkpt lat="36.5554630" lon="128.7557890">
    <ele>96</ele>
   </trkpt>
   <trkpt lat="36.5554630" lon="128.7557890">
    <ele>96</ele>
   </trkpt>
   <trkpt lat="36.5550180" lon="128.7553460">
    <ele>96</ele>
   </trkpt>
   <trkpt lat="36.5545570" lon="128.7548860">
    <ele>95</ele>
   </trkpt>
   <trkpt lat="36.5540850" lon="128.7544160">
    <ele>94</ele>
   </trkpt>
   <trkpt lat="36.5533140" lon="128.7536480">
    <ele>95</ele>
   </trkpt>
   <trkpt lat="36.5526810" lon="128.7530230">
    <ele>97</ele>
   </trkpt>
   <trkpt lat="36.5521130" lon="128.7524610">
    <ele>91</ele>
   </trkpt>
   <trkpt lat="36.5508550" lon="128.7511740">
    <ele>85</ele>
   </trkpt>
   <trkpt lat="36.5502990" lon="128.7506060">
    <ele>92</ele>
   </trkpt>
   <trkpt lat="36.5502030" lon="128.7505080">
    <ele>92</ele>
   </trkpt>
   <trkpt lat="36.5499950" lon="128.7503010">
    <ele>97</ele>
   </trkpt>
   <trkpt lat="36.5508910" lon="128.7481550">
    <ele>97</ele>
   </trkpt>
   <trkpt lat="36.5518570" lon="128.7458680">
    <ele>94</ele>
   </trkpt>
   <trkpt lat="36.5521920" lon="128.7450760">
    <ele>96</ele>
   </trkpt>
   <trkpt lat="36.5527790" lon="128.7436860">
    <ele>93</ele>
   </trkpt>
   <trkpt lat="36.5531600" lon="128.7427670">
    <ele>92</ele>
   </trkpt>
   <trkpt lat="36.5536650" lon="128.7415740">
    <ele>95</ele>
   </trkpt>
   <trkpt lat="36.5540590" lon="128.7405970">
    <ele>95</ele>
   </trkpt>
   <trkpt lat="36.5542810" lon="128.7398340">
    <ele>91</ele>
   </trkpt>
   <trkpt lat="36.5543170" lon="128.7395660">
    <ele>92</ele>
   </trkpt>
   <trkpt lat="36.5544130" lon="128.7388640">
    <ele>95</ele>
   </trkpt>
   <trkpt lat="36.5544110" lon="128.7386820">
    <ele>95</ele>
   </trkpt>
   <trkpt lat="36.5544060" lon="128.7380510">
    <ele>94</ele>
   </trkpt>
   <trkpt lat="36.5543470" lon="128.7374780">
    <ele>95</ele>
   </trkpt>
   <trkpt lat="36.5542240" lon="128.7369600">
    <ele>98</ele>
   </trkpt>
   <trkpt lat="36.5541080" lon="128.7365270">
    <ele>98</ele>
   </trkpt>
   <trkpt lat="36.5539640" lon="128.7359040">
    <ele>99</ele>
   </trkpt>
   <trkpt lat="36.5537960" lon="128.7352420">
    <ele>103</ele>
   </trkpt>
   <trkpt lat="36.5536850" lon="128.7347270">
    <ele>100</ele>
   </trkpt>
   <trkpt lat="36.5536070" lon="128.7342140">
    <ele>97</ele>
   </trkpt>
   <trkpt lat="36.5535490" lon="128.7337210">
    <ele>100</ele>
   </trkpt>
   <trkpt lat="36.5534840" lon="128.7329490">
    <ele>102</ele>
   </trkpt>
   <trkpt lat="36.5534080" lon="128.7320480">
    <ele>104</ele>
   </trkpt>
   <trkpt lat="36.5534080" lon="128.7320480">
    <ele>104</ele>
   </trkpt>
   <trkpt lat="36.5533340" lon="128.7311510">
    <ele>112</ele>
   </trkpt>
   <trkpt lat="36.5532580" lon="128.7304270">
    <ele>105</ele>
   </trkpt>
   <trkpt lat="36.5529430" lon="128.7284150">
    <ele>102</ele>
   </trkpt>
   <trkpt lat="36.5529150" lon="128.7278700">
    <ele>103</ele>
   </trkpt>
   <trkpt lat="36.5529310" lon="128.7268210">
    <ele>114</ele>
   </trkpt>
   <trkpt lat="36.5528050" lon="128.7257350">
    <ele>115</ele>
   </trkpt>
   <trkpt lat="36.5527400" lon="128.7252940">
    <ele>109</ele>
   </trkpt>
   <trkpt lat="36.5526720" lon="128.7248360">
    <ele>103</ele>
   </trkpt>
   <trkpt lat="36.5525930" lon="128.7244190">
    <ele>106</ele>
   </trkpt>
   <trkpt lat="36.5523720" lon="128.7232540">
    <ele>125</ele>
   </trkpt>
   <trkpt lat="36.5523270" lon="128.7230280">
    <ele>124</ele>
   </trkpt>
   <trkpt lat="36.5522410" lon="128.7226000">
    <ele>124</ele>
   </trkpt>
   <trkpt lat="36.5521650" lon="128.7221560">
    <ele>114</ele>
   </trkpt>
   <trkpt lat="36.5521300" lon="128.7219500">
    <ele>111</ele>
   </trkpt>
   <trkpt lat="36.5521120" lon="128.7215610">
    <ele>102</ele>
   </trkpt>
   <trkpt lat="36.5521200" lon="128.7211890">
    <ele>100</ele>
   </trkpt>
   <trkpt lat="36.5521290" lon="128.7210920">
    <ele>99</ele>
   </trkpt>
   <trkpt lat="36.5521590" lon="128.7207900">
    <ele>99</ele>
   </trkpt>
   <trkpt lat="36.5522430" lon="128.7203840">
    <ele>99</ele>
   </trkpt>
   <trkpt lat="36.5519980" lon="128.7204200">
    <ele>98</ele>
   </trkpt>
   <trkpt lat="36.5517830" lon="128.7204610">
    <ele>98</ele>
   </trkpt>
   <trkpt lat="36.5515530" lon="128.7205630">
    <ele>96</ele>
   </trkpt>
   <trkpt lat="36.5514320" lon="128.7206440">
    <ele>95</ele>
   </trkpt>
   <trkpt lat="36.5511930" lon="128.7208310">
    <ele>95</ele>
   </trkpt>
   <trkpt lat="36.5510980" lon="128.7209350">
    <ele>95</ele>
   </trkpt>
   <trkpt lat="36.5510170" lon="128.7210590">
    <ele>95</ele>
   </trkpt>
   <trkpt lat="36.5509340" lon="128.7212330">
    <ele>96</ele>
   </trkpt>
   <trkpt lat="36.5507820" lon="128.7216250">
    <ele>97</ele>
   </trkpt>
   <trkpt lat="36.5502800" lon="128.7228450">
    <ele>106</ele>
   </trkpt>
   <trkpt lat="36.5500360" lon="128.7234330">
    <ele>104</ele>
   </trkpt>
   <trkpt lat="36.5499180" lon="128.7237140">
    <ele>102</ele>
   </trkpt>
   <trkpt lat="36.5498510" lon="128.7238310">
    <ele>102</ele>
   </trkpt>
   <trkpt lat="36.5497690" lon="128.7239200">
    <ele>102</ele>
   </trkpt>
   <trkpt lat="36.5496660" lon="128.7239810">
    <ele>102</ele>
   </trkpt>
   <trkpt lat="36.5495630" lon="128.7240020">
    <ele>104</ele>
   </trkpt>
  </trkseg>
 </trk>
</gpx>
