<?xml version="1.0" encoding="UTF-8"?>
<gpx version="1.1" creator="HTML GPX Creator" xmlns="http://www.topografix.com/GPX/1/1">
  <trk>
    <name>ansan_marathon_half</name>
    <trkseg>
      <trkpt lat="37.274761414828745" lon="126.57630801200868">
        <ele>3.6</ele>
      </trkpt>
      <trkpt lat="37.274775" lon="126.576281">
        <ele>3.6</ele>
      </trkpt>
      <trkpt lat="37.274987" lon="126.576473">
        <ele>3.7</ele>
      </trkpt>
      <trkpt lat="37.275377" lon="126.57681">
        <ele>3.7</ele>
      </trkpt>
      <trkpt lat="37.277665" lon="126.578734">
        <ele>3.7</ele>
      </trkpt>
      <trkpt lat="37.278123" lon="126.579116">
        <ele>3.7</ele>
      </trkpt>
      <trkpt lat="37.27811652554422" lon="126.57912969589235">
        <ele>3.7</ele>
      </trkpt>
      <trkpt lat="37.278123" lon="126.579116">
        <ele>3.7</ele>
      </trkpt>
      <trkpt lat="37.279074" lon="126.579912">
        <ele>3.7</ele>
      </trkpt>
      <trkpt lat="37.27917083607169" lon="126.58001482486725">
        <ele>3.7</ele>
      </trkpt>
      <trkpt lat="37.28068611481045" lon="126.58125668764116">
        <ele>3.7</ele>
      </trkpt>
      <trkpt lat="37.28182148677399" lon="126.58220618963243">
        <ele>3.7</ele>
      </trkpt>
      <trkpt lat="37.28377206703612" lon="126.58382356166841">
        <ele>3.7</ele>
      </trkpt>
      <trkpt lat="37.285784483618244" lon="126.58552408218385">
        <ele>3.7</ele>
      </trkpt>
      <trkpt lat="37.289393040715794" lon="126.58852815628053">
        <ele>3.7</ele>
      </trkpt>
      <trkpt lat="37.289391" lon="126.58853">
        <ele>3.7</ele>
      </trkpt>
      <trkpt lat="37.290156" lon="126.58917">
        <ele>3.8</ele>
      </trkpt>
      <trkpt lat="37.289463" lon="126.590475">
        <ele>3.8</ele>
      </trkpt>
      <trkpt lat="37.28946986204882" lon="126.59048080444337">
        <ele>3.8</ele>
      </trkpt>
      <trkpt lat="37.289463" lon="126.590475">
        <ele>3.8</ele>
      </trkpt>
      <trkpt lat="37.284473" lon="126.59989">
        <ele>3.8</ele>
      </trkpt>
      <trkpt lat="37.28443363091711" lon="126.59985780715944">
        <ele>3.8</ele>
      </trkpt>
      <trkpt lat="37.284474" lon="126.599891">
        <ele>3.8</ele>
      </trkpt>
      <trkpt lat="37.278189" lon="126.611751">
        <ele>3.8</ele>
      </trkpt>
      <trkpt lat="37.278205" lon="126.611799">
        <ele>3.8</ele>
      </trkpt>
      <trkpt lat="37.27827019115581" lon="126.61176681518556">
        <ele>3.8</ele>
      </trkpt>
      <trkpt lat="37.278205" lon="126.611799">
        <ele>3.8</ele>
      </trkpt>
      <trkpt lat="37.282736" lon="126.625205">
        <ele>3.7</ele>
      </trkpt>
      <trkpt lat="37.282803" lon="126.62548">
        <ele>3.7</ele>
      </trkpt>
      <trkpt lat="37.282832" lon="126.625776">
        <ele>3.7</ele>
      </trkpt>
      <trkpt lat="37.282812" lon="126.626097">
        <ele>3.6</ele>
      </trkpt>
      <trkpt lat="37.282746" lon="126.626413">
        <ele>3.6</ele>
      </trkpt>
      <trkpt lat="37.282584" lon="126.626951">
        <ele>3.5</ele>
      </trkpt>
      <trkpt lat="37.282544" lon="126.627218">
        <ele>3.5</ele>
      </trkpt>
      <trkpt lat="37.282547" lon="126.627493">
        <ele>3.4</ele>
      </trkpt>
      <trkpt lat="37.28256" lon="126.627551">
        <ele>3.4</ele>
      </trkpt>
      <trkpt lat="37.282538554978785" lon="126.62755966186525">
        <ele>3.3</ele>
      </trkpt>
      <trkpt lat="37.28256" lon="126.627551">
        <ele>3.3</ele>
      </trkpt>
      <trkpt lat="37.28261" lon="126.627768">
        <ele>3.2</ele>
      </trkpt>
      <trkpt lat="37.282706" lon="126.628026">
        <ele>3.1</ele>
      </trkpt>
      <trkpt lat="37.282862" lon="126.628335">
        <ele>3.0</ele>
      </trkpt>
      <trkpt lat="37.2812" lon="126.6307">
        <ele>3.0</ele>
      </trkpt>
      <trkpt lat="37.280885" lon="126.631159">
        <ele>2.9</ele>
      </trkpt>
      <trkpt lat="37.279938" lon="126.632433">
        <ele>2.8</ele>
      </trkpt>
      <trkpt lat="37.27603" lon="126.637859">
        <ele>2.7</ele>
      </trkpt>
      <trkpt lat="37.274322" lon="126.640223">
        <ele>2.6</ele>
      </trkpt>
      <trkpt lat="37.273925" lon="126.640721">
        <ele>2.5</ele>
      </trkpt>
      <trkpt lat="37.273605" lon="126.641075">
        <ele>2.5</ele>
      </trkpt>
      <trkpt lat="37.273427" lon="126.641254">
        <ele>2.4</ele>
      </trkpt>
      <trkpt lat="37.27343811121293" lon="126.64127111434938">
        <ele>2.3</ele>
      </trkpt>
      <trkpt lat="37.273427" lon="126.641254">
        <ele>2.2</ele>
      </trkpt>
      <trkpt lat="37.273246" lon="126.641437">
        <ele>2.1</ele>
      </trkpt>
      <trkpt lat="37.27288" lon="126.641766">
        <ele>2.1</ele>
      </trkpt>
      <trkpt lat="37.272612" lon="126.641987">
        <ele>2.0</ele>
      </trkpt>
      <trkpt lat="37.272216" lon="126.642284">
        <ele>2.0</ele>
      </trkpt>
      <trkpt lat="37.271892" lon="126.642504">
        <ele>1.9</ele>
      </trkpt>
      <trkpt lat="37.271498" lon="126.64274">
        <ele>1.9</ele>
      </trkpt>
      <trkpt lat="37.271237" lon="126.642883">
        <ele>1.9</ele>
      </trkpt>
      <trkpt lat="37.270974" lon="126.643013">
        <ele>1.8</ele>
      </trkpt>
      <trkpt lat="37.270577" lon="126.643188">
        <ele>1.8</ele>
      </trkpt>
      <trkpt lat="37.270171" lon="126.643341">
        <ele>1.8</ele>
      </trkpt>
      <trkpt lat="37.269818" lon="126.643451">
        <ele>1.8</ele>
      </trkpt>
      <trkpt lat="37.2695" lon="126.643537">
        <ele>1.9</ele>
      </trkpt>
      <trkpt lat="37.269235" lon="126.643594">
        <ele>1.9</ele>
      </trkpt>
      <trkpt lat="37.268993" lon="126.643639">
        <ele>1.9</ele>
      </trkpt>
      <trkpt lat="37.26851" lon="126.643703">
        <ele>2.0</ele>
      </trkpt>
      <trkpt lat="37.268069" lon="126.643734">
        <ele>2.0</ele>
      </trkpt>
      <trkpt lat="37.267668" lon="126.643735">
        <ele>2.1</ele>
      </trkpt>
      <trkpt lat="37.267392" lon="126.64372">
        <ele>2.1</ele>
      </trkpt>
      <trkpt lat="37.267393306013425" lon="126.64373874664308">
        <ele>2.2</ele>
      </trkpt>
      <trkpt lat="37.267392" lon="126.64372">
        <ele>2.3</ele>
      </trkpt>
      <trkpt lat="37.267201" lon="126.643711">
        <ele>2.4</ele>
      </trkpt>
      <trkpt lat="37.266805" lon="126.643666">
        <ele>2.5</ele>
      </trkpt>
      <trkpt lat="37.266425" lon="126.643603">
        <ele>2.5</ele>
      </trkpt>
      <trkpt lat="37.266025" lon="126.643514">
        <ele>2.6</ele>
      </trkpt>
      <trkpt lat="37.265632" lon="126.643404">
        <ele>2.7</ele>
      </trkpt>
      <trkpt lat="37.265276" lon="126.643283">
        <ele>2.8</ele>
      </trkpt>
      <trkpt lat="37.264857" lon="126.643112">
        <ele>2.9</ele>
      </trkpt>
      <trkpt lat="37.264459" lon="126.642929">
        <ele>3.0</ele>
      </trkpt>
      <trkpt lat="37.264108" lon="126.642744">
        <ele>3.0</ele>
      </trkpt>
      <trkpt lat="37.263803" lon="126.642562">
        <ele>3.1</ele>
      </trkpt>
      <trkpt lat="37.263498" lon="126.642364">
        <ele>3.2</ele>
      </trkpt>
      <trkpt lat="37.26309" lon="126.642065">
        <ele>3.2</ele>
      </trkpt>
      <trkpt lat="37.262775" lon="126.64181">
        <ele>3.3</ele>
      </trkpt>
      <trkpt lat="37.262536" lon="126.641595">
        <ele>3.3</ele>
      </trkpt>
      <trkpt lat="37.262268" lon="126.641346">
        <ele>3.4</ele>
      </trkpt>
      <trkpt lat="37.26204" lon="126.641118">
        <ele>3.4</ele>
      </trkpt>
      <trkpt lat="37.261615" lon="126.640646">
        <ele>3.4</ele>
      </trkpt>
      <trkpt lat="37.260796" lon="126.639718">
        <ele>3.4</ele>
      </trkpt>
      <trkpt lat="37.260336" lon="126.639207">
        <ele>3.4</ele>
      </trkpt>
      <trkpt lat="37.260017" lon="126.638881">
        <ele>3.4</ele>
      </trkpt>
      <trkpt lat="37.259734" lon="126.638619">
        <ele>3.4</ele>
      </trkpt>
      <trkpt lat="37.259388" lon="126.638326">
        <ele>3.4</ele>
      </trkpt>
      <trkpt lat="37.258819" lon="126.637911">
        <ele>3.3</ele>
      </trkpt>
      <trkpt lat="37.258476" lon="126.637692">
        <ele>3.3</ele>
      </trkpt>
      <trkpt lat="37.258034" lon="126.637445">
        <ele>3.2</ele>
      </trkpt>
      <trkpt lat="37.257707" lon="126.637286">
        <ele>3.2</ele>
      </trkpt>
      <trkpt lat="37.257385" lon="126.637146">
        <ele>3.1</ele>
      </trkpt>
      <trkpt lat="37.257135" lon="126.637052">
        <ele>3.0</ele>
      </trkpt>
      <trkpt lat="37.256836" lon="126.63695">
        <ele>2.9</ele>
      </trkpt>
      <trkpt lat="37.256412" lon="126.636835">
        <ele>2.9</ele>
      </trkpt>
      <trkpt lat="37.256042" lon="126.636754">
        <ele>2.8</ele>
      </trkpt>
      <trkpt lat="37.255548" lon="126.636677">
        <ele>2.6</ele>
      </trkpt>
      <trkpt lat="37.254948" lon="126.636638">
        <ele>2.5</ele>
      </trkpt>
      <trkpt lat="37.254618" lon="126.636637">
        <ele>2.4</ele>
      </trkpt>
      <trkpt lat="37.25425" lon="126.636654">
        <ele>2.3</ele>
      </trkpt>
      <trkpt lat="37.253966" lon="126.636682">
        <ele>2.2</ele>
      </trkpt>
      <trkpt lat="37.25397005444898" lon="126.63674354553224">
        <ele>2.1</ele>
      </trkpt>
      <trkpt lat="37.253966" lon="126.636682">
        <ele>1.9</ele>
      </trkpt>
      <trkpt lat="37.25425" lon="126.636654">
        <ele>1.8</ele>
      </trkpt>
      <trkpt lat="37.254618" lon="126.636637">
        <ele>1.7</ele>
      </trkpt>
      <trkpt lat="37.254948" lon="126.636638">
        <ele>1.6</ele>
      </trkpt>
      <trkpt lat="37.255548" lon="126.636677">
        <ele>1.5</ele>
      </trkpt>
      <trkpt lat="37.256042" lon="126.636754">
        <ele>1.4</ele>
      </trkpt>
      <trkpt lat="37.256412" lon="126.636835">
        <ele>1.3</ele>
      </trkpt>
      <trkpt lat="37.256836" lon="126.63695">
        <ele>1.1</ele>
      </trkpt>
      <trkpt lat="37.257135" lon="126.637052">
        <ele>1.1</ele>
      </trkpt>
      <trkpt lat="37.257385" lon="126.637146">
        <ele>1.0</ele>
      </trkpt>
      <trkpt lat="37.257707" lon="126.637286">
        <ele>0.9</ele>
      </trkpt>
      <trkpt lat="37.258034" lon="126.637445">
        <ele>0.8</ele>
      </trkpt>
      <trkpt lat="37.258476" lon="126.637692">
        <ele>0.7</ele>
      </trkpt>
      <trkpt lat="37.258819" lon="126.637911">
        <ele>0.6</ele>
      </trkpt>
      <trkpt lat="37.259388" lon="126.638326">
        <ele>0.6</ele>
      </trkpt>
      <trkpt lat="37.259734" lon="126.638619">
        <ele>0.5</ele>
      </trkpt>
      <trkpt lat="37.260017" lon="126.638881">
        <ele>0.4</ele>
      </trkpt>
      <trkpt lat="37.260336" lon="126.639207">
        <ele>0.4</ele>
      </trkpt>
      <trkpt lat="37.260796" lon="126.639718">
        <ele>0.3</ele>
      </trkpt>
      <trkpt lat="37.261615" lon="126.640646">
        <ele>0.3</ele>
      </trkpt>
      <trkpt lat="37.26204" lon="126.641118">
        <ele>0.2</ele>
      </trkpt>
      <trkpt lat="37.262268" lon="126.641346">
        <ele>0.2</ele>
      </trkpt>
      <trkpt lat="37.262536" lon="126.641595">
        <ele>0.1</ele>
      </trkpt>
      <trkpt lat="37.262775" lon="126.64181">
        <ele>0.1</ele>
      </trkpt>
      <trkpt lat="37.26309" lon="126.642065">
        <ele>0.1</ele>
      </trkpt>
      <trkpt lat="37.263498" lon="126.642364">
        <ele>0.1</ele>
      </trkpt>
      <trkpt lat="37.263803" lon="126.642562">
        <ele>0.0</ele>
      </trkpt>
      <trkpt lat="37.264108" lon="126.642744">
        <ele>0.0</ele>
      </trkpt>
      <trkpt lat="37.264459" lon="126.642929">
        <ele>0.0</ele>
      </trkpt>
      <trkpt lat="37.264857" lon="126.643112">
        <ele>0.0</ele>
      </trkpt>
      <trkpt lat="37.265276" lon="126.643283">
        <ele>0.0</ele>
      </trkpt>
      <trkpt lat="37.265632" lon="126.643404">
        <ele>0.0</ele>
      </trkpt>
      <trkpt lat="37.266025" lon="126.643514">
        <ele>0.0</ele>
      </trkpt>
      <trkpt lat="37.266425" lon="126.643603">
        <ele>0.0</ele>
      </trkpt>
      <trkpt lat="37.266805" lon="126.643666">
        <ele>0.0</ele>
      </trkpt>
      <trkpt lat="37.267201" lon="126.643711">
        <ele>0.0</ele>
      </trkpt>
      <trkpt lat="37.267668" lon="126.643735">
        <ele>0.0</ele>
      </trkpt>
      <trkpt lat="37.268069" lon="126.643734">
        <ele>0.0</ele>
      </trkpt>
      <trkpt lat="37.26851" lon="126.643703">
        <ele>0.0</ele>
      </trkpt>
      <trkpt lat="37.268993" lon="126.643639">
        <ele>0.0</ele>
      </trkpt>
      <trkpt lat="37.269235" lon="126.643594">
        <ele>0.0</ele>
      </trkpt>
      <trkpt lat="37.2695" lon="126.643537">
        <ele>0.0</ele>
      </trkpt>
      <trkpt lat="37.269818" lon="126.643451">
        <ele>0.0</ele>
      </trkpt>
      <trkpt lat="37.270171" lon="126.643341">
        <ele>0.0</ele>
      </trkpt>
      <trkpt lat="37.270577" lon="126.643188">
        <ele>0.0</ele>
      </trkpt>
      <trkpt lat="37.270974" lon="126.643013">
        <ele>0.0</ele>
      </trkpt>
      <trkpt lat="37.271237" lon="126.642883">
        <ele>0.0</ele>
      </trkpt>
      <trkpt lat="37.271498" lon="126.64274">
        <ele>0.0</ele>
      </trkpt>
      <trkpt lat="37.271892" lon="126.642504">
        <ele>0.0</ele>
      </trkpt>
      <trkpt lat="37.272216" lon="126.642284">
        <ele>0.0</ele>
      </trkpt>
      <trkpt lat="37.272612" lon="126.641987">
        <ele>0.0</ele>
      </trkpt>
      <trkpt lat="37.27288" lon="126.641766">
        <ele>0.0</ele>
      </trkpt>
      <trkpt lat="37.273246" lon="126.641437">
        <ele>0.0</ele>
      </trkpt>
      <trkpt lat="37.273605" lon="126.641075">
        <ele>0.0</ele>
      </trkpt>
      <trkpt lat="37.273925" lon="126.640721">
        <ele>0.0</ele>
      </trkpt>
      <trkpt lat="37.274322" lon="126.640223">
        <ele>0.0</ele>
      </trkpt>
      <trkpt lat="37.27603" lon="126.637859">
        <ele>0.0</ele>
      </trkpt>
      <trkpt lat="37.27605" lon="126.637885">
        <ele>0.0</ele>
      </trkpt>
      <trkpt lat="37.276050546305434" lon="126.63790225982667">
        <ele>0.0</ele>
      </trkpt>
      <trkpt lat="37.27605" lon="126.637885">
        <ele>0.0</ele>
      </trkpt>
      <trkpt lat="37.27603" lon="126.637859">
        <ele>0.0</ele>
      </trkpt>
      <trkpt lat="37.279938" lon="126.632433">
        <ele>0.0</ele>
      </trkpt>
      <trkpt lat="37.280885" lon="126.631159">
        <ele>0.0</ele>
      </trkpt>
      <trkpt lat="37.2812" lon="126.6307">
        <ele>0.0</ele>
      </trkpt>
      <trkpt lat="37.282326" lon="126.629096">
        <ele>0.0</ele>
      </trkpt>
      <trkpt lat="37.28233367904599" lon="126.62910461425783">
        <ele>0.0</ele>
      </trkpt>
      <trkpt lat="37.282326" lon="126.629096">
        <ele>0.0</ele>
      </trkpt>
      <trkpt lat="37.282862" lon="126.628335">
        <ele>0.1</ele>
      </trkpt>
      <trkpt lat="37.282706" lon="126.628026">
        <ele>0.1</ele>
      </trkpt>
      <trkpt lat="37.28261" lon="126.627768">
        <ele>0.1</ele>
      </trkpt>
      <trkpt lat="37.282547" lon="126.627493">
        <ele>0.1</ele>
      </trkpt>
      <trkpt lat="37.282544" lon="126.627218">
        <ele>0.2</ele>
      </trkpt>
      <trkpt lat="37.282584" lon="126.626951">
        <ele>0.2</ele>
      </trkpt>
      <trkpt lat="37.282746" lon="126.626413">
        <ele>0.3</ele>
      </trkpt>
      <trkpt lat="37.282812" lon="126.626097">
        <ele>0.4</ele>
      </trkpt>
      <trkpt lat="37.282832" lon="126.625776">
        <ele>0.4</ele>
      </trkpt>
      <trkpt lat="37.282803" lon="126.62548">
        <ele>0.5</ele>
      </trkpt>
      <trkpt lat="37.282736" lon="126.625205">
        <ele>0.6</ele>
      </trkpt>
      <trkpt lat="37.28206051026804" lon="126.62316083908082">
        <ele>0.7</ele>
      </trkpt>
      <trkpt lat="37.282047" lon="126.623167">
        <ele>0.8</ele>
      </trkpt>
      <trkpt lat="37.278743" lon="126.613391">
        <ele>0.9</ele>
      </trkpt>
      <trkpt lat="37.278714112271594" lon="126.61340832710268">
        <ele>1.0</ele>
      </trkpt>
      <trkpt lat="37.278743" lon="126.613391">
        <ele>1.1</ele>
      </trkpt>
      <trkpt lat="37.278189" lon="126.611751">
        <ele>1.2</ele>
      </trkpt>
      <trkpt lat="37.280399" lon="126.607579">
        <ele>1.3</ele>
      </trkpt>
      <trkpt lat="37.28039586659722" lon="126.6075772047043">
        <ele>1.5</ele>
      </trkpt>
      <trkpt lat="37.280399" lon="126.607579">
        <ele>1.6</ele>
      </trkpt>
      <trkpt lat="37.284565" lon="126.599717">
        <ele>1.7</ele>
      </trkpt>
      <trkpt lat="37.284565942995435" lon="126.59971833229066">
        <ele>1.9</ele>
      </trkpt>
      <trkpt lat="37.284566" lon="126.599717">
        <ele>2.0</ele>
      </trkpt>
      <trkpt lat="37.290156" lon="126.58917">
        <ele>2.2</ele>
      </trkpt>
      <trkpt lat="37.290177" lon="126.589128">
        <ele>2.4</ele>
      </trkpt>
      <trkpt lat="37.290459" lon="126.588607">
        <ele>2.5</ele>
      </trkpt>
      <trkpt lat="37.290529" lon="126.58846">
        <ele>2.7</ele>
      </trkpt>
      <trkpt lat="37.290519745739275" lon="126.58845305442811">
        <ele>2.8</ele>
      </trkpt>
      <trkpt lat="37.290529" lon="126.58846">
        <ele>3.0</ele>
      </trkpt>
      <trkpt lat="37.290658" lon="126.588194">
        <ele>3.1</ele>
      </trkpt>
      <trkpt lat="37.290734" lon="126.587969">
        <ele>3.2</ele>
      </trkpt>
      <trkpt lat="37.2908" lon="126.587726">
        <ele>3.3</ele>
      </trkpt>
      <trkpt lat="37.290838" lon="126.587547">
        <ele>3.5</ele>
      </trkpt>
      <trkpt lat="37.290859" lon="126.587417">
        <ele>3.5</ele>
      </trkpt>
      <trkpt lat="37.290884" lon="126.587048">
        <ele>3.6</ele>
      </trkpt>
      <trkpt lat="37.290887" lon="126.586879">
        <ele>3.7</ele>
      </trkpt>
      <trkpt lat="37.290881" lon="126.586703">
        <ele>3.7</ele>
      </trkpt>
      <trkpt lat="37.290675" lon="126.582745">
        <ele>3.8</ele>
      </trkpt>
      <trkpt lat="37.290629" lon="126.582013">
        <ele>3.8</ele>
      </trkpt>
      <trkpt lat="37.29061363706294" lon="126.58201575279237">
        <ele>3.8</ele>
      </trkpt>
      <trkpt lat="37.290629" lon="126.582013">
        <ele>3.8</ele>
      </trkpt>
      <trkpt lat="37.290628" lon="126.581983">
        <ele>3.8</ele>
      </trkpt>
      <trkpt lat="37.290506" lon="126.58202">
        <ele>3.8</ele>
      </trkpt>
      <trkpt lat="37.290436" lon="126.582044">
        <ele>3.8</ele>
      </trkpt>
      <trkpt lat="37.290304" lon="126.5821">
        <ele>3.7</ele>
      </trkpt>
      <trkpt lat="37.290226" lon="126.582147">
        <ele>3.7</ele>
      </trkpt>
      <trkpt lat="37.290024" lon="126.582306">
        <ele>3.6</ele>
      </trkpt>
      <trkpt lat="37.289926" lon="126.582358">
        <ele>3.6</ele>
      </trkpt>
      <trkpt lat="37.28982" lon="126.582392">
        <ele>3.5</ele>
      </trkpt>
      <trkpt lat="37.289709" lon="126.582407">
        <ele>3.4</ele>
      </trkpt>
      <trkpt lat="37.289613" lon="126.582409">
        <ele>3.3</ele>
      </trkpt>
      <trkpt lat="37.289482" lon="126.58239">
        <ele>3.2</ele>
      </trkpt>
      <trkpt lat="37.28921" lon="126.582332">
        <ele>3.1</ele>
      </trkpt>
      <trkpt lat="37.289085" lon="126.582298">
        <ele>3.0</ele>
      </trkpt>
      <trkpt lat="37.288708" lon="126.582173">
        <ele>2.8</ele>
      </trkpt>
      <trkpt lat="37.28859" lon="126.582115">
        <ele>2.7</ele>
      </trkpt>
      <trkpt lat="37.2885" lon="126.582052">
        <ele>2.6</ele>
      </trkpt>
      <trkpt lat="37.288391" lon="126.581954">
        <ele>2.4</ele>
      </trkpt>
      <trkpt lat="37.288318" lon="126.581866">
        <ele>2.3</ele>
      </trkpt>
      <trkpt lat="37.288239" lon="126.581727">
        <ele>2.2</ele>
      </trkpt>
      <trkpt lat="37.288178" lon="126.581566">
        <ele>2.1</ele>
      </trkpt>
      <trkpt lat="37.288116" lon="126.581339">
        <ele>2.0</ele>
      </trkpt>
      <trkpt lat="37.28793" lon="126.580653">
        <ele>1.9</ele>
      </trkpt>
      <trkpt lat="37.287903" lon="126.580519">
        <ele>1.8</ele>
      </trkpt>
      <trkpt lat="37.287890741105294" lon="126.58052444458009">
        <ele>1.8</ele>
      </trkpt>
      <trkpt lat="37.287903" lon="126.580519">
        <ele>1.7</ele>
      </trkpt>
      <trkpt lat="37.287899" lon="126.580499">
        <ele>1.6</ele>
      </trkpt>
      <trkpt lat="37.287872" lon="126.58024">
        <ele>1.6</ele>
      </trkpt>
      <trkpt lat="37.287853" lon="126.580132">
        <ele>1.6</ele>
      </trkpt>
      <trkpt lat="37.28784" lon="126.580055">
        <ele>1.6</ele>
      </trkpt>
      <trkpt lat="37.287771" lon="126.57979">
        <ele>1.5</ele>
      </trkpt>
      <trkpt lat="37.287224" lon="126.57778">
        <ele>1.5</ele>
      </trkpt>
      <trkpt lat="37.287184" lon="126.577688">
        <ele>1.5</ele>
      </trkpt>
      <trkpt lat="37.287166" lon="126.577667">
        <ele>1.6</ele>
      </trkpt>
      <trkpt lat="37.28716518793858" lon="126.57767057418825">
        <ele>1.6</ele>
      </trkpt>
      <trkpt lat="37.287166" lon="126.577667">
        <ele>1.6</ele>
      </trkpt>
      <trkpt lat="37.287131" lon="126.577628">
        <ele>1.6</ele>
      </trkpt>
      <trkpt lat="37.285742" lon="126.5771">
        <ele>1.7</ele>
      </trkpt>
      <trkpt lat="37.285307" lon="126.576936">
        <ele>1.7</ele>
      </trkpt>
      <trkpt lat="37.283777" lon="126.576351">
        <ele>1.7</ele>
      </trkpt>
      <trkpt lat="37.281331" lon="126.575406">
        <ele>1.8</ele>
      </trkpt>
      <trkpt lat="37.281212" lon="126.575359">
        <ele>1.8</ele>
      </trkpt>
      <trkpt lat="37.27941" lon="126.574704">
        <ele>1.9</ele>
      </trkpt>
      <trkpt lat="37.278969" lon="126.574533">
        <ele>1.9</ele>
      </trkpt>
      <trkpt lat="37.276844" lon="126.573714">
        <ele>2.0</ele>
      </trkpt>
      <trkpt lat="37.276267" lon="126.573514">
        <ele>2.1</ele>
      </trkpt>
      <trkpt lat="37.276151" lon="126.573509">
        <ele>2.1</ele>
      </trkpt>
      <trkpt lat="37.27615299289309" lon="126.57348632812501">
        <ele>2.2</ele>
      </trkpt>
      <trkpt lat="37.276151" lon="126.573509">
        <ele>2.3</ele>
      </trkpt>
      <trkpt lat="37.276045" lon="126.573506">
        <ele>2.4</ele>
      </trkpt>
      <trkpt lat="37.276003" lon="126.573593">
        <ele>2.4</ele>
      </trkpt>
      <trkpt lat="37.275934" lon="126.573711">
        <ele>2.5</ele>
      </trkpt>
      <trkpt lat="37.275726" lon="126.574095">
        <ele>2.5</ele>
      </trkpt>
      <trkpt lat="37.275309" lon="126.574912">
        <ele>2.5</ele>
      </trkpt>
      <trkpt lat="37.274886" lon="126.575722">
        <ele>2.6</ele>
      </trkpt>
      <trkpt lat="37.274833" lon="126.575843">
        <ele>2.6</ele>
      </trkpt>
      <trkpt lat="37.274786" lon="126.575981">
        <ele>2.6</ele>
      </trkpt>
      <trkpt lat="37.274758" lon="126.576085">
        <ele>2.7</ele>
      </trkpt>
      <trkpt lat="37.27475287746062" lon="126.57608270645143">
        <ele>2.7</ele>
      </trkpt>
      <trkpt lat="37.274758" lon="126.576085">
        <ele>2.7</ele>
      </trkpt>
      <trkpt lat="37.274749" lon="126.576121">
        <ele>2.8</ele>
      </trkpt>
      <trkpt lat="37.274733" lon="126.576244">
        <ele>2.8</ele>
      </trkpt>
      <trkpt lat="37.274748" lon="126.576257">
        <ele>2.8</ele>
      </trkpt>
      <trkpt lat="37.274825" lon="126.576326">
        <ele>2.8</ele>
      </trkpt>
      <trkpt lat="37.27483398241876" lon="126.57631337642671">
        <ele>2.9</ele>
      </trkpt>
    </trkseg>
  </trk>
</gpx>