<?xml version="1.0" encoding="UTF-8"?>
<gpx version="1.1" creator="HTML GPX Creator" xmlns="http://www.topografix.com/GPX/1/1">
  <trk>
    <name>boyeo_Goodtrae_full</name>
    <trkseg>
      <trkpt lat="36.28871886112869" lon="126.90623044967653">
        <ele>9.5</ele>
      </trkpt>
      <trkpt lat="36.288746" lon="126.906195">
        <ele>9.5</ele>
      </trkpt>
      <trkpt lat="36.289581" lon="126.90722">
        <ele>9.6</ele>
      </trkpt>
      <trkpt lat="36.289795" lon="126.907538">
        <ele>9.6</ele>
      </trkpt>
      <trkpt lat="36.28977390058215" lon="126.90756082534791">
        <ele>9.7</ele>
      </trkpt>
      <trkpt lat="36.289795" lon="126.907538">
        <ele>9.8</ele>
      </trkpt>
      <trkpt lat="36.289827" lon="126.907584">
        <ele>9.8</ele>
      </trkpt>
      <trkpt lat="36.28966" lon="126.907698">
        <ele>9.9</ele>
      </trkpt>
      <trkpt lat="36.289437" lon="126.907783">
        <ele>9.9</ele>
      </trkpt>
      <trkpt lat="36.289349" lon="126.907808">
        <ele>10.0</ele>
      </trkpt>
      <trkpt lat="36.289391" lon="126.907861">
        <ele>10.1</ele>
      </trkpt>
      <trkpt lat="36.28939339619442" lon="126.90786123275758">
        <ele>10.1</ele>
      </trkpt>
      <trkpt lat="36.289391" lon="126.907861">
        <ele>10.1</ele>
      </trkpt>
      <trkpt lat="36.289349" lon="126.907808">
        <ele>10.2</ele>
      </trkpt>
      <trkpt lat="36.289234" lon="126.907768">
        <ele>10.2</ele>
      </trkpt>
      <trkpt lat="36.289064" lon="126.907697">
        <ele>10.2</ele>
      </trkpt>
      <trkpt lat="36.288359" lon="126.907048">
        <ele>10.3</ele>
      </trkpt>
      <trkpt lat="36.28783" lon="126.90653">
        <ele>10.4</ele>
      </trkpt>
      <trkpt lat="36.286836" lon="126.905593">
        <ele>10.4</ele>
      </trkpt>
      <trkpt lat="36.286704" lon="126.905454">
        <ele>10.5</ele>
      </trkpt>
      <trkpt lat="36.28628" lon="126.905059">
        <ele>10.5</ele>
      </trkpt>
      <trkpt lat="36.286162" lon="126.90501">
        <ele>10.6</ele>
      </trkpt>
      <trkpt lat="36.286086" lon="126.904963">
        <ele>10.6</ele>
      </trkpt>
      <trkpt lat="36.285873" lon="126.904785">
        <ele>10.6</ele>
      </trkpt>
      <trkpt lat="36.285547" lon="126.904477">
        <ele>10.7</ele>
      </trkpt>
      <trkpt lat="36.285117" lon="126.904088">
        <ele>10.7</ele>
      </trkpt>
      <trkpt lat="36.284772" lon="126.903764">
        <ele>10.7</ele>
      </trkpt>
      <trkpt lat="36.284149" lon="126.903222">
        <ele>10.8</ele>
      </trkpt>
      <trkpt lat="36.28342" lon="126.902649">
        <ele>10.8</ele>
      </trkpt>
      <trkpt lat="36.283165" lon="126.902476">
        <ele>10.8</ele>
      </trkpt>
      <trkpt lat="36.282519" lon="126.902066">
        <ele>10.8</ele>
      </trkpt>
      <trkpt lat="36.281841" lon="126.901692">
        <ele>10.8</ele>
      </trkpt>
      <trkpt lat="36.281225" lon="126.901376">
        <ele>10.8</ele>
      </trkpt>
      <trkpt lat="36.278946" lon="126.900214">
        <ele>10.8</ele>
      </trkpt>
      <trkpt lat="36.278663" lon="126.900067">
        <ele>10.8</ele>
      </trkpt>
      <trkpt lat="36.27864338065101" lon="126.90009355545045">
        <ele>10.9</ele>
      </trkpt>
      <trkpt lat="36.278654" lon="126.900062">
        <ele>10.9</ele>
      </trkpt>
      <trkpt lat="36.278544" lon="126.899994">
        <ele>10.8</ele>
      </trkpt>
      <trkpt lat="36.278417" lon="126.899747">
        <ele>10.8</ele>
      </trkpt>
      <trkpt lat="36.277669" lon="126.899511">
        <ele>10.8</ele>
      </trkpt>
      <trkpt lat="36.276877" lon="126.899436">
        <ele>10.8</ele>
      </trkpt>
      <trkpt lat="36.276447" lon="126.899433">
        <ele>10.9</ele>
      </trkpt>
      <trkpt lat="36.276266" lon="126.899554">
        <ele>10.9</ele>
      </trkpt>
      <trkpt lat="36.276143" lon="126.899707">
        <ele>10.9</ele>
      </trkpt>
      <trkpt lat="36.276143" lon="126.899708">
        <ele>10.9</ele>
      </trkpt>
      <trkpt lat="36.27613944360515" lon="126.89970999956134">
        <ele>11.0</ele>
      </trkpt>
      <trkpt lat="36.276143" lon="126.899708">
        <ele>11.0</ele>
      </trkpt>
      <trkpt lat="36.276143" lon="126.899707">
        <ele>11.1</ele>
      </trkpt>
      <trkpt lat="36.276152" lon="126.899476">
        <ele>11.2</ele>
      </trkpt>
      <trkpt lat="36.276142" lon="126.89874">
        <ele>11.3</ele>
      </trkpt>
      <trkpt lat="36.27612863195844" lon="126.89874172210695">
        <ele>11.4</ele>
      </trkpt>
      <trkpt lat="36.276142" lon="126.89874">
        <ele>11.5</ele>
      </trkpt>
      <trkpt lat="36.276111" lon="126.896346">
        <ele>11.6</ele>
      </trkpt>
      <trkpt lat="36.27610917099058" lon="126.89634650945666">
        <ele>11.8</ele>
      </trkpt>
      <trkpt lat="36.276112" lon="126.896345">
        <ele>11.9</ele>
      </trkpt>
      <trkpt lat="36.276069" lon="126.892949">
        <ele>12.1</ele>
      </trkpt>
      <trkpt lat="36.27606376204677" lon="126.8929508328438">
        <ele>12.3</ele>
      </trkpt>
      <trkpt lat="36.276069" lon="126.892949">
        <ele>12.5</ele>
      </trkpt>
      <trkpt lat="36.276034" lon="126.890182">
        <ele>12.7</ele>
      </trkpt>
      <trkpt lat="36.276029" lon="126.889937">
        <ele>12.9</ele>
      </trkpt>
      <trkpt lat="36.2760226777415" lon="126.88993871212007">
        <ele>13.2</ele>
      </trkpt>
      <trkpt lat="36.276029" lon="126.889937">
        <ele>13.3</ele>
      </trkpt>
      <trkpt lat="36.275986" lon="126.887601">
        <ele>13.6</ele>
      </trkpt>
      <trkpt lat="36.276001" lon="126.8872">
        <ele>13.7</ele>
      </trkpt>
      <trkpt lat="36.275967" lon="126.886849">
        <ele>13.9</ele>
      </trkpt>
      <trkpt lat="36.275971" lon="126.886701">
        <ele>14.1</ele>
      </trkpt>
      <trkpt lat="36.27595997007595" lon="126.8867012858391">
        <ele>14.3</ele>
      </trkpt>
      <trkpt lat="36.275971" lon="126.886701">
        <ele>14.4</ele>
      </trkpt>
      <trkpt lat="36.275973" lon="126.886632">
        <ele>14.6</ele>
      </trkpt>
      <trkpt lat="36.275969" lon="126.886489">
        <ele>14.7</ele>
      </trkpt>
      <trkpt lat="36.275989" lon="126.886379">
        <ele>14.8</ele>
      </trkpt>
      <trkpt lat="36.276034" lon="126.8863">
        <ele>14.9</ele>
      </trkpt>
      <trkpt lat="36.276099" lon="126.886236">
        <ele>15.0</ele>
      </trkpt>
      <trkpt lat="36.276303" lon="126.886142">
        <ele>15.1</ele>
      </trkpt>
      <trkpt lat="36.276369" lon="126.886114">
        <ele>15.2</ele>
      </trkpt>
      <trkpt lat="36.27636865016293" lon="126.88611388206483">
        <ele>15.2</ele>
      </trkpt>
      <trkpt lat="36.276369" lon="126.886114">
        <ele>15.3</ele>
      </trkpt>
      <trkpt lat="36.276922" lon="126.885883">
        <ele>15.3</ele>
      </trkpt>
      <trkpt lat="36.277633" lon="126.885671">
        <ele>15.3</ele>
      </trkpt>
      <trkpt lat="36.278103" lon="126.885541">
        <ele>15.3</ele>
      </trkpt>
      <trkpt lat="36.278355" lon="126.885487">
        <ele>15.3</ele>
      </trkpt>
      <trkpt lat="36.278412" lon="126.885476">
        <ele>15.2</ele>
      </trkpt>
      <trkpt lat="36.27841418077212" lon="126.88548624515535">
        <ele>15.1</ele>
      </trkpt>
      <trkpt lat="36.278412" lon="126.885476">
        <ele>15.0</ele>
      </trkpt>
      <trkpt lat="36.278629" lon="126.885435">
        <ele>14.9</ele>
      </trkpt>
      <trkpt lat="36.278993" lon="126.885397">
        <ele>14.8</ele>
      </trkpt>
      <trkpt lat="36.279172" lon="126.885395">
        <ele>14.6</ele>
      </trkpt>
      <trkpt lat="36.279402" lon="126.885403">
        <ele>14.4</ele>
      </trkpt>
      <trkpt lat="36.279578" lon="126.885403">
        <ele>14.2</ele>
      </trkpt>
      <trkpt lat="36.27999" lon="126.88544">
        <ele>13.9</ele>
      </trkpt>
      <trkpt lat="36.280536" lon="126.88554">
        <ele>13.7</ele>
      </trkpt>
      <trkpt lat="36.280591" lon="126.885549">
        <ele>13.4</ele>
      </trkpt>
      <trkpt lat="36.280641" lon="126.885563">
        <ele>13.2</ele>
      </trkpt>
      <trkpt lat="36.28121" lon="126.88574">
        <ele>12.9</ele>
      </trkpt>
      <trkpt lat="36.281469" lon="126.885851">
        <ele>12.7</ele>
      </trkpt>
      <trkpt lat="36.28146724091448" lon="126.88586175441743">
        <ele>12.5</ele>
      </trkpt>
      <trkpt lat="36.281469" lon="126.885851">
        <ele>12.3</ele>
      </trkpt>
      <trkpt lat="36.281587" lon="126.885903">
        <ele>12.0</ele>
      </trkpt>
      <trkpt lat="36.281829" lon="126.886025">
        <ele>11.8</ele>
      </trkpt>
      <trkpt lat="36.282413" lon="126.886386">
        <ele>11.6</ele>
      </trkpt>
      <trkpt lat="36.282698" lon="126.886579">
        <ele>11.4</ele>
      </trkpt>
      <trkpt lat="36.282953" lon="126.886777">
        <ele>11.3</ele>
      </trkpt>
      <trkpt lat="36.283249" lon="126.887026">
        <ele>11.1</ele>
      </trkpt>
      <trkpt lat="36.28403" lon="126.887727">
        <ele>10.9</ele>
      </trkpt>
      <trkpt lat="36.284112" lon="126.8878">
        <ele>10.7</ele>
      </trkpt>
      <trkpt lat="36.285011" lon="126.888588">
        <ele>10.6</ele>
      </trkpt>
      <trkpt lat="36.28501313820544" lon="126.88858687877656">
        <ele>10.4</ele>
      </trkpt>
      <trkpt lat="36.285011" lon="126.888588">
        <ele>10.3</ele>
      </trkpt>
      <trkpt lat="36.285018" lon="126.888595">
        <ele>10.1</ele>
      </trkpt>
      <trkpt lat="36.286697" lon="126.890086">
        <ele>10.0</ele>
      </trkpt>
      <trkpt lat="36.287591" lon="126.890884">
        <ele>9.9</ele>
      </trkpt>
      <trkpt lat="36.287892" lon="126.891145">
        <ele>9.8</ele>
      </trkpt>
      <trkpt lat="36.2878929801273" lon="126.89114570617677">
        <ele>9.7</ele>
      </trkpt>
      <trkpt lat="36.287892" lon="126.891145">
        <ele>9.6</ele>
      </trkpt>
      <trkpt lat="36.288509" lon="126.891682">
        <ele>9.5</ele>
      </trkpt>
      <trkpt lat="36.289096" lon="126.892139">
        <ele>9.4</ele>
      </trkpt>
      <trkpt lat="36.290179" lon="126.892934">
        <ele>9.4</ele>
      </trkpt>
      <trkpt lat="36.291604" lon="126.893977">
        <ele>9.3</ele>
      </trkpt>
      <trkpt lat="36.291794" lon="126.894099">
        <ele>9.3</ele>
      </trkpt>
      <trkpt lat="36.291968" lon="126.894194">
        <ele>9.3</ele>
      </trkpt>
      <trkpt lat="36.292136" lon="126.894249">
        <ele>9.4</ele>
      </trkpt>
      <trkpt lat="36.292296" lon="126.894288">
        <ele>9.4</ele>
      </trkpt>
      <trkpt lat="36.292397" lon="126.894285">
        <ele>9.5</ele>
      </trkpt>
      <trkpt lat="36.29262" lon="126.894299">
        <ele>9.6</ele>
      </trkpt>
      <trkpt lat="36.292931" lon="126.894281">
        <ele>9.7</ele>
      </trkpt>
      <trkpt lat="36.293042" lon="126.894273">
        <ele>9.8</ele>
      </trkpt>
      <trkpt lat="36.29304270274233" lon="126.89427852630617">
        <ele>10.0</ele>
      </trkpt>
      <trkpt lat="36.293042" lon="126.894273">
        <ele>10.1</ele>
      </trkpt>
      <trkpt lat="36.293345" lon="126.894253">
        <ele>10.3</ele>
      </trkpt>
      <trkpt lat="36.293784" lon="126.894156">
        <ele>10.5</ele>
      </trkpt>
      <trkpt lat="36.293925" lon="126.894126">
        <ele>10.8</ele>
      </trkpt>
      <trkpt lat="36.295008" lon="126.893887">
        <ele>11.0</ele>
      </trkpt>
      <trkpt lat="36.29548" lon="126.893804">
        <ele>11.3</ele>
      </trkpt>
      <trkpt lat="36.295833" lon="126.893758">
        <ele>11.6</ele>
      </trkpt>
      <trkpt lat="36.296214" lon="126.893739">
        <ele>11.9</ele>
      </trkpt>
      <trkpt lat="36.296373" lon="126.893741">
        <ele>12.2</ele>
      </trkpt>
      <trkpt lat="36.29661" lon="126.893744">
        <ele>12.5</ele>
      </trkpt>
      <trkpt lat="36.296693" lon="126.893745">
        <ele>12.9</ele>
      </trkpt>
      <trkpt lat="36.297008" lon="126.893782">
        <ele>13.2</ele>
      </trkpt>
      <trkpt lat="36.297573" lon="126.893866">
        <ele>13.6</ele>
      </trkpt>
      <trkpt lat="36.297978" lon="126.893954">
        <ele>14.0</ele>
      </trkpt>
      <trkpt lat="36.298598" lon="126.894143">
        <ele>14.4</ele>
      </trkpt>
      <trkpt lat="36.298637" lon="126.894154">
        <ele>14.8</ele>
      </trkpt>
      <trkpt lat="36.29863739814513" lon="126.89416050910951">
        <ele>15.2</ele>
      </trkpt>
      <trkpt lat="36.298637" lon="126.894154">
        <ele>15.6</ele>
      </trkpt>
      <trkpt lat="36.299096" lon="126.894282">
        <ele>16.0</ele>
      </trkpt>
      <trkpt lat="36.299603" lon="126.894385">
        <ele>16.4</ele>
      </trkpt>
      <trkpt lat="36.300841" lon="126.894591">
        <ele>16.9</ele>
      </trkpt>
      <trkpt lat="36.302003" lon="126.894741">
        <ele>17.3</ele>
      </trkpt>
      <trkpt lat="36.302599" lon="126.894827">
        <ele>17.7</ele>
      </trkpt>
      <trkpt lat="36.303118" lon="126.89497">
        <ele>18.1</ele>
      </trkpt>
      <trkpt lat="36.303512" lon="126.89511">
        <ele>18.5</ele>
      </trkpt>
      <trkpt lat="36.304067" lon="126.895449">
        <ele>18.9</ele>
      </trkpt>
      <trkpt lat="36.30449" lon="126.895839">
        <ele>19.2</ele>
      </trkpt>
      <trkpt lat="36.304781" lon="126.896129">
        <ele>19.6</ele>
      </trkpt>
      <trkpt lat="36.305038" lon="126.896414">
        <ele>19.9</ele>
      </trkpt>
      <trkpt lat="36.305222" lon="126.896658">
        <ele>20.2</ele>
      </trkpt>
      <trkpt lat="36.305415" lon="126.896967">
        <ele>20.5</ele>
      </trkpt>
      <trkpt lat="36.30539027493386" lon="126.89699292182924">
        <ele>20.7</ele>
      </trkpt>
      <trkpt lat="36.305415" lon="126.896967">
        <ele>20.9</ele>
      </trkpt>
      <trkpt lat="36.305444" lon="126.897014">
        <ele>21.1</ele>
      </trkpt>
      <trkpt lat="36.305525" lon="126.897234">
        <ele>21.3</ele>
      </trkpt>
      <trkpt lat="36.305572" lon="126.89746">
        <ele>21.4</ele>
      </trkpt>
      <trkpt lat="36.305573" lon="126.897514">
        <ele>21.5</ele>
      </trkpt>
      <trkpt lat="36.305577" lon="126.89784">
        <ele>21.6</ele>
      </trkpt>
      <trkpt lat="36.305572" lon="126.897972">
        <ele>21.7</ele>
      </trkpt>
      <trkpt lat="36.305562" lon="126.898218">
        <ele>21.8</ele>
      </trkpt>
      <trkpt lat="36.305523" lon="126.899018">
        <ele>21.9</ele>
      </trkpt>
      <trkpt lat="36.305421" lon="126.899605">
        <ele>21.9</ele>
      </trkpt>
      <trkpt lat="36.305365" lon="126.899738">
        <ele>22.0</ele>
      </trkpt>
      <trkpt lat="36.305293" lon="126.899877">
        <ele>22.0</ele>
      </trkpt>
      <trkpt lat="36.304929" lon="126.900546">
        <ele>22.0</ele>
      </trkpt>
      <trkpt lat="36.304717" lon="126.900875">
        <ele>22.1</ele>
      </trkpt>
      <trkpt lat="36.304484" lon="126.901296">
        <ele>22.1</ele>
      </trkpt>
      <trkpt lat="36.304437" lon="126.901434">
        <ele>22.0</ele>
      </trkpt>
      <trkpt lat="36.304403" lon="126.901595">
        <ele>22.0</ele>
      </trkpt>
      <trkpt lat="36.304337" lon="126.90173">
        <ele>22.0</ele>
      </trkpt>
      <trkpt lat="36.304251" lon="126.902111">
        <ele>22.0</ele>
      </trkpt>
      <trkpt lat="36.304161" lon="126.902432">
        <ele>21.9</ele>
      </trkpt>
      <trkpt lat="36.304136" lon="126.90244">
        <ele>21.9</ele>
      </trkpt>
      <trkpt lat="36.30409" lon="126.902472">
        <ele>21.8</ele>
      </trkpt>
      <trkpt lat="36.304067" lon="126.902502">
        <ele>21.8</ele>
      </trkpt>
      <trkpt lat="36.304041" lon="126.902576">
        <ele>21.8</ele>
      </trkpt>
      <trkpt lat="36.304032" lon="126.90256">
        <ele>21.8</ele>
      </trkpt>
      <trkpt lat="36.30403282937131" lon="126.90256118774415">
        <ele>21.8</ele>
      </trkpt>
      <trkpt lat="36.304032" lon="126.90256">
        <ele>21.8</ele>
      </trkpt>
      <trkpt lat="36.304041" lon="126.902576">
        <ele>21.9</ele>
      </trkpt>
      <trkpt lat="36.304038" lon="126.90262">
        <ele>21.9</ele>
      </trkpt>
      <trkpt lat="36.304044" lon="126.902663">
        <ele>22.0</ele>
      </trkpt>
      <trkpt lat="36.304058" lon="126.902703">
        <ele>22.1</ele>
      </trkpt>
      <trkpt lat="36.30408" lon="126.902738">
        <ele>22.2</ele>
      </trkpt>
      <trkpt lat="36.304107" lon="126.902765">
        <ele>22.3</ele>
      </trkpt>
      <trkpt lat="36.304082" lon="126.902931">
        <ele>22.5</ele>
      </trkpt>
      <trkpt lat="36.304043" lon="126.90313">
        <ele>22.6</ele>
      </trkpt>
      <trkpt lat="36.304026" lon="126.903275">
        <ele>22.7</ele>
      </trkpt>
      <trkpt lat="36.304024" lon="126.90358">
        <ele>22.8</ele>
      </trkpt>
      <trkpt lat="36.304017" lon="126.903824">
        <ele>22.9</ele>
      </trkpt>
      <trkpt lat="36.304036" lon="126.904051">
        <ele>23.0</ele>
      </trkpt>
      <trkpt lat="36.304084" lon="126.904265">
        <ele>23.1</ele>
      </trkpt>
      <trkpt lat="36.304333" lon="126.9052">
        <ele>23.1</ele>
      </trkpt>
      <trkpt lat="36.304363" lon="126.905552">
        <ele>23.1</ele>
      </trkpt>
      <trkpt lat="36.304335" lon="126.90659">
        <ele>23.1</ele>
      </trkpt>
      <trkpt lat="36.304354" lon="126.908203">
        <ele>23.1</ele>
      </trkpt>
      <trkpt lat="36.304359" lon="126.908499">
        <ele>23.1</ele>
      </trkpt>
      <trkpt lat="36.30439" lon="126.908667">
        <ele>23.1</ele>
      </trkpt>
      <trkpt lat="36.304361385241705" lon="126.90867662429811">
        <ele>23.1</ele>
      </trkpt>
      <trkpt lat="36.30439" lon="126.908667">
        <ele>23.1</ele>
      </trkpt>
      <trkpt lat="36.304409" lon="126.908768">
        <ele>23.1</ele>
      </trkpt>
      <trkpt lat="36.304515" lon="126.909002">
        <ele>23.1</ele>
      </trkpt>
      <trkpt lat="36.305293" lon="126.91045">
        <ele>23.1</ele>
      </trkpt>
      <trkpt lat="36.305694" lon="126.911233">
        <ele>23.0</ele>
      </trkpt>
      <trkpt lat="36.305777" lon="126.911479">
        <ele>22.9</ele>
      </trkpt>
      <trkpt lat="36.305863" lon="126.911905">
        <ele>22.9</ele>
      </trkpt>
      <trkpt lat="36.305908" lon="126.912175">
        <ele>22.7</ele>
      </trkpt>
      <trkpt lat="36.306179" lon="126.913615">
        <ele>22.6</ele>
      </trkpt>
      <trkpt lat="36.306482" lon="126.915153">
        <ele>22.4</ele>
      </trkpt>
      <trkpt lat="36.306479" lon="126.915185">
        <ele>22.1</ele>
      </trkpt>
      <trkpt lat="36.30646670382098" lon="126.91518366336824">
        <ele>21.9</ele>
      </trkpt>
      <trkpt lat="36.306479" lon="126.915185">
        <ele>21.6</ele>
      </trkpt>
      <trkpt lat="36.306461" lon="126.915478">
        <ele>21.2</ele>
      </trkpt>
      <trkpt lat="36.306429" lon="126.915751">
        <ele>20.9</ele>
      </trkpt>
      <trkpt lat="36.306342" lon="126.91606">
        <ele>20.5</ele>
      </trkpt>
      <trkpt lat="36.305914" lon="126.91707">
        <ele>20.1</ele>
      </trkpt>
      <trkpt lat="36.305542" lon="126.917948">
        <ele>19.8</ele>
      </trkpt>
      <trkpt lat="36.305375" lon="126.918373">
        <ele>19.4</ele>
      </trkpt>
      <trkpt lat="36.305092" lon="126.919053">
        <ele>19.1</ele>
      </trkpt>
      <trkpt lat="36.305058" lon="126.919137">
        <ele>18.8</ele>
      </trkpt>
      <trkpt lat="36.305048754230214" lon="126.91913187503816">
        <ele>18.5</ele>
      </trkpt>
      <trkpt lat="36.305058" lon="126.919137">
        <ele>18.2</ele>
      </trkpt>
      <trkpt lat="36.302168" lon="126.926332">
        <ele>18.0</ele>
      </trkpt>
      <trkpt lat="36.302113" lon="126.926407">
        <ele>17.8</ele>
      </trkpt>
      <trkpt lat="36.302027" lon="126.926668">
        <ele>17.6</ele>
      </trkpt>
      <trkpt lat="36.301975" lon="126.92663">
        <ele>17.4</ele>
      </trkpt>
      <trkpt lat="36.301983647047194" lon="126.92661523818971">
        <ele>17.3</ele>
      </trkpt>
      <trkpt lat="36.301975" lon="126.92663">
        <ele>17.2</ele>
      </trkpt>
      <trkpt lat="36.300966" lon="126.92589">
        <ele>17.1</ele>
      </trkpt>
      <trkpt lat="36.299032" lon="126.924579">
        <ele>17.0</ele>
      </trkpt>
      <trkpt lat="36.297471" lon="126.923699">
        <ele>16.9</ele>
      </trkpt>
      <trkpt lat="36.296316" lon="126.922997">
        <ele>16.8</ele>
      </trkpt>
      <trkpt lat="36.295165" lon="126.922271">
        <ele>16.8</ele>
      </trkpt>
      <trkpt lat="36.294333" lon="126.921677">
        <ele>16.7</ele>
      </trkpt>
      <trkpt lat="36.293861" lon="126.921387">
        <ele>16.7</ele>
      </trkpt>
      <trkpt lat="36.292884" lon="126.920854">
        <ele>16.6</ele>
      </trkpt>
      <trkpt lat="36.292532" lon="126.920645">
        <ele>16.6</ele>
      </trkpt>
      <trkpt lat="36.292445" lon="126.920576">
        <ele>16.6</ele>
      </trkpt>
      <trkpt lat="36.292424" lon="126.920604">
        <ele>16.7</ele>
      </trkpt>
      <trkpt lat="36.292437379341095" lon="126.92061781883241">
        <ele>16.7</ele>
      </trkpt>
      <trkpt lat="36.292424" lon="126.920604">
        <ele>16.8</ele>
      </trkpt>
      <trkpt lat="36.292119" lon="126.921034">
        <ele>16.8</ele>
      </trkpt>
      <trkpt lat="36.291277" lon="126.922155">
        <ele>16.9</ele>
      </trkpt>
      <trkpt lat="36.290914" lon="126.922555">
        <ele>17.0</ele>
      </trkpt>
      <trkpt lat="36.290749" lon="126.922713">
        <ele>17.0</ele>
      </trkpt>
      <trkpt lat="36.290506" lon="126.92292">
        <ele>17.1</ele>
      </trkpt>
      <trkpt lat="36.289936" lon="126.923325">
        <ele>17.1</ele>
      </trkpt>
      <trkpt lat="36.28992956093324" lon="126.92331075668336">
        <ele>17.1</ele>
      </trkpt>
      <trkpt lat="36.289936" lon="126.923325">
        <ele>17.1</ele>
      </trkpt>
      <trkpt lat="36.289582" lon="126.923576">
        <ele>17.1</ele>
      </trkpt>
      <trkpt lat="36.28958364862022" lon="126.92357897758484">
        <ele>17.1</ele>
      </trkpt>
      <trkpt lat="36.289583" lon="126.923577">
        <ele>17.1</ele>
      </trkpt>
      <trkpt lat="36.290506" lon="126.92292">
        <ele>17.0</ele>
      </trkpt>
      <trkpt lat="36.290749" lon="126.922713">
        <ele>16.9</ele>
      </trkpt>
      <trkpt lat="36.290914" lon="126.922555">
        <ele>16.8</ele>
      </trkpt>
      <trkpt lat="36.291277" lon="126.922155">
        <ele>16.7</ele>
      </trkpt>
      <trkpt lat="36.292119" lon="126.921034">
        <ele>16.5</ele>
      </trkpt>
      <trkpt lat="36.292274" lon="126.920815">
        <ele>16.4</ele>
      </trkpt>
      <trkpt lat="36.29229037152059" lon="126.9208323955536">
        <ele>16.2</ele>
      </trkpt>
      <trkpt lat="36.292274" lon="126.920815">
        <ele>16.1</ele>
      </trkpt>
      <trkpt lat="36.292445" lon="126.920576">
        <ele>16.0</ele>
      </trkpt>
      <trkpt lat="36.292532" lon="126.920645">
        <ele>15.9</ele>
      </trkpt>
      <trkpt lat="36.292884" lon="126.920854">
        <ele>15.8</ele>
      </trkpt>
      <trkpt lat="36.293861" lon="126.921387">
        <ele>15.7</ele>
      </trkpt>
      <trkpt lat="36.294333" lon="126.921677">
        <ele>15.7</ele>
      </trkpt>
      <trkpt lat="36.295165" lon="126.922271">
        <ele>15.7</ele>
      </trkpt>
      <trkpt lat="36.295518" lon="126.922494">
        <ele>15.7</ele>
      </trkpt>
      <trkpt lat="36.29553312675333" lon="126.92246317863466">
        <ele>15.7</ele>
      </trkpt>
      <trkpt lat="36.295518" lon="126.922494">
        <ele>15.7</ele>
      </trkpt>
      <trkpt lat="36.296316" lon="126.922997">
        <ele>15.8</ele>
      </trkpt>
      <trkpt lat="36.297471" lon="126.923699">
        <ele>15.8</ele>
      </trkpt>
      <trkpt lat="36.299032" lon="126.924579">
        <ele>15.9</ele>
      </trkpt>
      <trkpt lat="36.300966" lon="126.92589">
        <ele>16.0</ele>
      </trkpt>
      <trkpt lat="36.301638" lon="126.926382">
        <ele>16.1</ele>
      </trkpt>
      <trkpt lat="36.3016464346703" lon="126.92636847496033">
        <ele>16.3</ele>
      </trkpt>
      <trkpt lat="36.301638" lon="126.926382">
        <ele>16.4</ele>
      </trkpt>
      <trkpt lat="36.302027" lon="126.926668">
        <ele>16.6</ele>
      </trkpt>
      <trkpt lat="36.302113" lon="126.926407">
        <ele>16.8</ele>
      </trkpt>
      <trkpt lat="36.302168" lon="126.926332">
        <ele>17.1</ele>
      </trkpt>
      <trkpt lat="36.303344" lon="126.923404">
        <ele>17.4</ele>
      </trkpt>
      <trkpt lat="36.303332481975026" lon="126.92339658737184">
        <ele>17.6</ele>
      </trkpt>
      <trkpt lat="36.303344" lon="126.923404">
        <ele>18.0</ele>
      </trkpt>
      <trkpt lat="36.305092" lon="126.919053">
        <ele>18.3</ele>
      </trkpt>
      <trkpt lat="36.305375" lon="126.918373">
        <ele>18.6</ele>
      </trkpt>
      <trkpt lat="36.305542" lon="126.917948">
        <ele>19.0</ele>
      </trkpt>
      <trkpt lat="36.305914" lon="126.91707">
        <ele>19.4</ele>
      </trkpt>
      <trkpt lat="36.306342" lon="126.91606">
        <ele>19.8</ele>
      </trkpt>
      <trkpt lat="36.306349983334584" lon="126.9160580635071">
        <ele>20.2</ele>
      </trkpt>
      <trkpt lat="36.306343" lon="126.916055">
        <ele>20.6</ele>
      </trkpt>
      <trkpt lat="36.306429" lon="126.915751">
        <ele>20.9</ele>
      </trkpt>
      <trkpt lat="36.306461" lon="126.915478">
        <ele>21.2</ele>
      </trkpt>
      <trkpt lat="36.306482" lon="126.915153">
        <ele>21.5</ele>
      </trkpt>
      <trkpt lat="36.306179" lon="126.913615">
        <ele>21.8</ele>
      </trkpt>
      <trkpt lat="36.305908" lon="126.912175">
        <ele>21.9</ele>
      </trkpt>
      <trkpt lat="36.305863" lon="126.911905">
        <ele>22.1</ele>
      </trkpt>
      <trkpt lat="36.305777" lon="126.911479">
        <ele>22.2</ele>
      </trkpt>
      <trkpt lat="36.305694" lon="126.911233">
        <ele>22.3</ele>
      </trkpt>
      <trkpt lat="36.305293" lon="126.91045">
        <ele>22.4</ele>
      </trkpt>
      <trkpt lat="36.304707" lon="126.909359">
        <ele>22.4</ele>
      </trkpt>
      <trkpt lat="36.30471587818102" lon="126.90935254096986">
        <ele>22.5</ele>
      </trkpt>
      <trkpt lat="36.304707" lon="126.909359">
        <ele>22.5</ele>
      </trkpt>
      <trkpt lat="36.304515" lon="126.909002">
        <ele>22.6</ele>
      </trkpt>
      <trkpt lat="36.304409" lon="126.908768">
        <ele>22.6</ele>
      </trkpt>
      <trkpt lat="36.304359" lon="126.908499">
        <ele>22.6</ele>
      </trkpt>
      <trkpt lat="36.304354" lon="126.908203">
        <ele>22.6</ele>
      </trkpt>
      <trkpt lat="36.304335" lon="126.90659">
        <ele>22.6</ele>
      </trkpt>
      <trkpt lat="36.304363" lon="126.905552">
        <ele>22.6</ele>
      </trkpt>
      <trkpt lat="36.304333" lon="126.9052">
        <ele>22.6</ele>
      </trkpt>
      <trkpt lat="36.304084" lon="126.904265">
        <ele>22.6</ele>
      </trkpt>
      <trkpt lat="36.304036" lon="126.904051">
        <ele>22.5</ele>
      </trkpt>
      <trkpt lat="36.304017" lon="126.903824">
        <ele>22.5</ele>
      </trkpt>
      <trkpt lat="36.304024" lon="126.90358">
        <ele>22.4</ele>
      </trkpt>
      <trkpt lat="36.304047" lon="126.903486">
        <ele>22.3</ele>
      </trkpt>
      <trkpt lat="36.30404147559616" lon="126.90348386764528">
        <ele>22.2</ele>
      </trkpt>
      <trkpt lat="36.304047" lon="126.903486">
        <ele>22.1</ele>
      </trkpt>
      <trkpt lat="36.304074" lon="126.903384">
        <ele>22.1</ele>
      </trkpt>
      <trkpt lat="36.304169" lon="126.902931">
        <ele>21.9</ele>
      </trkpt>
      <trkpt lat="36.304217" lon="126.902787">
        <ele>21.9</ele>
      </trkpt>
      <trkpt lat="36.304248" lon="126.902774">
        <ele>21.8</ele>
      </trkpt>
      <trkpt lat="36.304298" lon="126.902723">
        <ele>21.7</ele>
      </trkpt>
      <trkpt lat="36.304316" lon="126.902688">
        <ele>21.6</ele>
      </trkpt>
      <trkpt lat="36.304329" lon="126.902606">
        <ele>21.6</ele>
      </trkpt>
      <trkpt lat="36.304325" lon="126.902565">
        <ele>21.6</ele>
      </trkpt>
      <trkpt lat="36.304293" lon="126.902492">
        <ele>21.5</ele>
      </trkpt>
      <trkpt lat="36.304255" lon="126.902453">
        <ele>21.5</ele>
      </trkpt>
      <trkpt lat="36.304406" lon="126.90173">
        <ele>21.6</ele>
      </trkpt>
      <trkpt lat="36.304403" lon="126.901595">
        <ele>21.6</ele>
      </trkpt>
      <trkpt lat="36.304437" lon="126.901434">
        <ele>21.6</ele>
      </trkpt>
      <trkpt lat="36.304484" lon="126.901296">
        <ele>21.7</ele>
      </trkpt>
      <trkpt lat="36.304717" lon="126.900875">
        <ele>21.7</ele>
      </trkpt>
      <trkpt lat="36.304929" lon="126.900546">
        <ele>21.7</ele>
      </trkpt>
      <trkpt lat="36.305293" lon="126.899877">
        <ele>21.8</ele>
      </trkpt>
      <trkpt lat="36.305365" lon="126.899738">
        <ele>21.8</ele>
      </trkpt>
      <trkpt lat="36.305421" lon="126.899605">
        <ele>21.8</ele>
      </trkpt>
      <trkpt lat="36.305523" lon="126.899018">
        <ele>21.7</ele>
      </trkpt>
      <trkpt lat="36.305538" lon="126.898709">
        <ele>21.7</ele>
      </trkpt>
      <trkpt lat="36.305545904125516" lon="126.89870953559877">
        <ele>21.6</ele>
      </trkpt>
      <trkpt lat="36.305538" lon="126.898709">
        <ele>21.6</ele>
      </trkpt>
      <trkpt lat="36.305562" lon="126.898218">
        <ele>21.5</ele>
      </trkpt>
      <trkpt lat="36.305572" lon="126.897972">
        <ele>21.4</ele>
      </trkpt>
      <trkpt lat="36.305577" lon="126.89784">
        <ele>21.3</ele>
      </trkpt>
      <trkpt lat="36.305573" lon="126.897514">
        <ele>21.1</ele>
      </trkpt>
      <trkpt lat="36.305572" lon="126.89746">
        <ele>21.0</ele>
      </trkpt>
      <trkpt lat="36.305525" lon="126.897234">
        <ele>20.8</ele>
      </trkpt>
      <trkpt lat="36.305444" lon="126.897014">
        <ele>20.6</ele>
      </trkpt>
      <trkpt lat="36.305222" lon="126.896658">
        <ele>20.4</ele>
      </trkpt>
      <trkpt lat="36.305038" lon="126.896414">
        <ele>20.2</ele>
      </trkpt>
      <trkpt lat="36.304781" lon="126.896129">
        <ele>19.9</ele>
      </trkpt>
      <trkpt lat="36.30449" lon="126.895839">
        <ele>19.6</ele>
      </trkpt>
      <trkpt lat="36.304067" lon="126.895449">
        <ele>19.3</ele>
      </trkpt>
      <trkpt lat="36.303512" lon="126.89511">
        <ele>19.0</ele>
      </trkpt>
      <trkpt lat="36.303118" lon="126.89497">
        <ele>18.7</ele>
      </trkpt>
      <trkpt lat="36.303035" lon="126.894947">
        <ele>18.3</ele>
      </trkpt>
      <trkpt lat="36.30303850711986" lon="126.8949329853058">
        <ele>17.9</ele>
      </trkpt>
      <trkpt lat="36.303035" lon="126.894947">
        <ele>17.6</ele>
      </trkpt>
      <trkpt lat="36.302599" lon="126.894827">
        <ele>17.2</ele>
      </trkpt>
      <trkpt lat="36.302003" lon="126.894741">
        <ele>16.8</ele>
      </trkpt>
      <trkpt lat="36.300841" lon="126.894591">
        <ele>16.3</ele>
      </trkpt>
      <trkpt lat="36.299603" lon="126.894385">
        <ele>15.9</ele>
      </trkpt>
      <trkpt lat="36.299096" lon="126.894282">
        <ele>15.5</ele>
      </trkpt>
      <trkpt lat="36.298598" lon="126.894143">
        <ele>15.1</ele>
      </trkpt>
      <trkpt lat="36.29803" lon="126.89397">
        <ele>14.7</ele>
      </trkpt>
      <trkpt lat="36.298032118154055" lon="126.89396739006044">
        <ele>14.3</ele>
      </trkpt>
      <trkpt lat="36.29803" lon="126.89397">
        <ele>13.9</ele>
      </trkpt>
      <trkpt lat="36.297978" lon="126.893954">
        <ele>13.5</ele>
      </trkpt>
      <trkpt lat="36.297573" lon="126.893866">
        <ele>13.2</ele>
      </trkpt>
      <trkpt lat="36.297008" lon="126.893782">
        <ele>12.8</ele>
      </trkpt>
      <trkpt lat="36.296693" lon="126.893745">
        <ele>12.5</ele>
      </trkpt>
      <trkpt lat="36.29661" lon="126.893744">
        <ele>12.2</ele>
      </trkpt>
      <trkpt lat="36.296373" lon="126.893741">
        <ele>11.8</ele>
      </trkpt>
      <trkpt lat="36.296214" lon="126.893739">
        <ele>11.5</ele>
      </trkpt>
      <trkpt lat="36.295833" lon="126.893758">
        <ele>11.3</ele>
      </trkpt>
      <trkpt lat="36.29548" lon="126.893804">
        <ele>11.0</ele>
      </trkpt>
      <trkpt lat="36.295008" lon="126.893887">
        <ele>10.7</ele>
      </trkpt>
      <trkpt lat="36.293925" lon="126.894126">
        <ele>10.5</ele>
      </trkpt>
      <trkpt lat="36.293784" lon="126.894156">
        <ele>10.3</ele>
      </trkpt>
      <trkpt lat="36.293345" lon="126.894253">
        <ele>10.1</ele>
      </trkpt>
      <trkpt lat="36.292931" lon="126.894281">
        <ele>9.9</ele>
      </trkpt>
      <trkpt lat="36.29262" lon="126.894299">
        <ele>9.7</ele>
      </trkpt>
      <trkpt lat="36.292574" lon="126.894296">
        <ele>9.6</ele>
      </trkpt>
      <trkpt lat="36.29257573938972" lon="126.89428925514223">
        <ele>9.5</ele>
      </trkpt>
      <trkpt lat="36.292574" lon="126.894296">
        <ele>9.4</ele>
      </trkpt>
      <trkpt lat="36.292397" lon="126.894285">
        <ele>9.3</ele>
      </trkpt>
      <trkpt lat="36.292296" lon="126.894288">
        <ele>9.3</ele>
      </trkpt>
      <trkpt lat="36.292136" lon="126.894249">
        <ele>9.2</ele>
      </trkpt>
      <trkpt lat="36.291968" lon="126.894194">
        <ele>9.2</ele>
      </trkpt>
      <trkpt lat="36.291794" lon="126.894099">
        <ele>9.3</ele>
      </trkpt>
      <trkpt lat="36.291604" lon="126.893977">
        <ele>9.3</ele>
      </trkpt>
      <trkpt lat="36.290179" lon="126.892934">
        <ele>9.4</ele>
      </trkpt>
      <trkpt lat="36.289096" lon="126.892139">
        <ele>9.5</ele>
      </trkpt>
      <trkpt lat="36.288509" lon="126.891682">
        <ele>9.6</ele>
      </trkpt>
      <trkpt lat="36.287591" lon="126.890884">
        <ele>9.7</ele>
      </trkpt>
      <trkpt lat="36.287289" lon="126.890615">
        <ele>9.8</ele>
      </trkpt>
      <trkpt lat="36.28727464465036" lon="126.89064145088197">
        <ele>10.0</ele>
      </trkpt>
      <trkpt lat="36.287289" lon="126.890615">
        <ele>10.1</ele>
      </trkpt>
      <trkpt lat="36.286697" lon="126.890086">
        <ele>10.3</ele>
      </trkpt>
      <trkpt lat="36.285018" lon="126.888595">
        <ele>10.4</ele>
      </trkpt>
      <trkpt lat="36.284112" lon="126.8878">
        <ele>10.5</ele>
      </trkpt>
      <trkpt lat="36.28403" lon="126.887727">
        <ele>10.7</ele>
      </trkpt>
      <trkpt lat="36.283432" lon="126.887191">
        <ele>10.8</ele>
      </trkpt>
      <trkpt lat="36.28344344988746" lon="126.88717603683473">
        <ele>11.0</ele>
      </trkpt>
      <trkpt lat="36.283432" lon="126.887191">
        <ele>11.2</ele>
      </trkpt>
      <trkpt lat="36.283249" lon="126.887026">
        <ele>11.4</ele>
      </trkpt>
      <trkpt lat="36.282953" lon="126.886777">
        <ele>11.5</ele>
      </trkpt>
      <trkpt lat="36.282698" lon="126.886579">
        <ele>11.7</ele>
      </trkpt>
      <trkpt lat="36.282413" lon="126.886386">
        <ele>11.9</ele>
      </trkpt>
      <trkpt lat="36.281829" lon="126.886025">
        <ele>12.1</ele>
      </trkpt>
      <trkpt lat="36.281587" lon="126.885903">
        <ele>12.3</ele>
      </trkpt>
      <trkpt lat="36.28121" lon="126.88574">
        <ele>12.5</ele>
      </trkpt>
      <trkpt lat="36.280641" lon="126.885563">
        <ele>12.8</ele>
      </trkpt>
      <trkpt lat="36.280591" lon="126.885549">
        <ele>13.0</ele>
      </trkpt>
      <trkpt lat="36.280536" lon="126.88554">
        <ele>13.2</ele>
      </trkpt>
      <trkpt lat="36.27999" lon="126.88544">
        <ele>13.4</ele>
      </trkpt>
      <trkpt lat="36.279578" lon="126.885403">
        <ele>13.6</ele>
      </trkpt>
      <trkpt lat="36.279402" lon="126.885403">
        <ele>13.8</ele>
      </trkpt>
      <trkpt lat="36.279172" lon="126.885395">
        <ele>14.0</ele>
      </trkpt>
      <trkpt lat="36.278993" lon="126.885397">
        <ele>14.1</ele>
      </trkpt>
      <trkpt lat="36.278629" lon="126.885435">
        <ele>14.2</ele>
      </trkpt>
      <trkpt lat="36.278355" lon="126.885487">
        <ele>14.3</ele>
      </trkpt>
      <trkpt lat="36.278103" lon="126.885541">
        <ele>14.3</ele>
      </trkpt>
      <trkpt lat="36.277633" lon="126.885671">
        <ele>14.4</ele>
      </trkpt>
      <trkpt lat="36.27762278733753" lon="126.88566327095033">
        <ele>14.4</ele>
      </trkpt>
      <trkpt lat="36.277625" lon="126.885673">
        <ele>14.4</ele>
      </trkpt>
      <trkpt lat="36.276922" lon="126.885883">
        <ele>14.4</ele>
      </trkpt>
      <trkpt lat="36.276296" lon="126.886094">
        <ele>14.4</ele>
      </trkpt>
      <trkpt lat="36.275888" lon="126.886196">
        <ele>14.4</ele>
      </trkpt>
      <trkpt lat="36.275798" lon="126.886232">
        <ele>14.3</ele>
      </trkpt>
      <trkpt lat="36.2758" lon="126.886252">
        <ele>14.3</ele>
      </trkpt>
      <trkpt lat="36.27577184677717" lon="126.88625872135164">
        <ele>14.3</ele>
      </trkpt>
      <trkpt lat="36.2758" lon="126.886252">
        <ele>14.2</ele>
      </trkpt>
      <trkpt lat="36.275855" lon="126.886673">
        <ele>14.2</ele>
      </trkpt>
      <trkpt lat="36.275875" lon="126.887215">
        <ele>14.1</ele>
      </trkpt>
      <trkpt lat="36.275875" lon="126.887532">
        <ele>14.0</ele>
      </trkpt>
      <trkpt lat="36.275897" lon="126.888183">
        <ele>14.0</ele>
      </trkpt>
      <trkpt lat="36.275891" lon="126.888532">
        <ele>13.9</ele>
      </trkpt>
      <trkpt lat="36.275892" lon="126.888821">
        <ele>13.8</ele>
      </trkpt>
      <trkpt lat="36.27587563899807" lon="126.88882291316988">
        <ele>13.7</ele>
      </trkpt>
      <trkpt lat="36.275892" lon="126.888821">
        <ele>13.6</ele>
      </trkpt>
      <trkpt lat="36.275896" lon="126.889753">
        <ele>13.5</ele>
      </trkpt>
      <trkpt lat="36.275946" lon="126.890198">
        <ele>13.3</ele>
      </trkpt>
      <trkpt lat="36.27601" lon="126.893595">
        <ele>13.2</ele>
      </trkpt>
      <trkpt lat="36.276005379080175" lon="126.89359724521638">
        <ele>13.1</ele>
      </trkpt>
      <trkpt lat="36.27601" lon="126.893595">
        <ele>12.9</ele>
      </trkpt>
      <trkpt lat="36.276101" lon="126.898381">
        <ele>12.8</ele>
      </trkpt>
      <trkpt lat="36.2761" lon="126.898398">
        <ele>12.7</ele>
      </trkpt>
      <trkpt lat="36.27608322302593" lon="126.89839839935304">
        <ele>12.6</ele>
      </trkpt>
      <trkpt lat="36.2761" lon="126.898398">
        <ele>12.4</ele>
      </trkpt>
      <trkpt lat="36.276098" lon="126.89947">
        <ele>12.3</ele>
      </trkpt>
      <trkpt lat="36.276081" lon="126.899694">
        <ele>12.2</ele>
      </trkpt>
      <trkpt lat="36.276064" lon="126.8998">
        <ele>12.2</ele>
      </trkpt>
      <trkpt lat="36.275955" lon="126.899806">
        <ele>12.1</ele>
      </trkpt>
      <trkpt lat="36.275845" lon="126.899837">
        <ele>12.0</ele>
      </trkpt>
      <trkpt lat="36.27557" lon="126.899883">
        <ele>11.9</ele>
      </trkpt>
      <trkpt lat="36.275416" lon="126.899729">
        <ele>11.9</ele>
      </trkpt>
      <trkpt lat="36.275184" lon="126.899722">
        <ele>11.8</ele>
      </trkpt>
      <trkpt lat="36.27457" lon="126.899722">
        <ele>11.8</ele>
      </trkpt>
      <trkpt lat="36.274569576828256" lon="126.89971804618837">
        <ele>11.7</ele>
      </trkpt>
      <trkpt lat="36.27457" lon="126.899722">
        <ele>11.7</ele>
      </trkpt>
      <trkpt lat="36.273943" lon="126.899724">
        <ele>11.6</ele>
      </trkpt>
      <trkpt lat="36.272934" lon="126.899805">
        <ele>11.5</ele>
      </trkpt>
      <trkpt lat="36.270853" lon="126.900367">
        <ele>11.5</ele>
      </trkpt>
      <trkpt lat="36.270669" lon="126.900438">
        <ele>11.4</ele>
      </trkpt>
      <trkpt lat="36.269929" lon="126.900795">
        <ele>11.3</ele>
      </trkpt>
      <trkpt lat="36.269381" lon="126.901117">
        <ele>11.3</ele>
      </trkpt>
      <trkpt lat="36.26937970992644" lon="126.90111279487611">
        <ele>11.2</ele>
      </trkpt>
      <trkpt lat="36.269381" lon="126.901117">
        <ele>11.1</ele>
      </trkpt>
      <trkpt lat="36.268603" lon="126.901575">
        <ele>11.1</ele>
      </trkpt>
      <trkpt lat="36.268567" lon="126.901596">
        <ele>11.0</ele>
      </trkpt>
      <trkpt lat="36.267787" lon="126.9021">
        <ele>11.0</ele>
      </trkpt>
      <trkpt lat="36.267493" lon="126.902289">
        <ele>10.9</ele>
      </trkpt>
      <trkpt lat="36.267425" lon="126.902429">
        <ele>10.8</ele>
      </trkpt>
      <trkpt lat="36.267257" lon="126.902536">
        <ele>10.8</ele>
      </trkpt>
      <trkpt lat="36.266734" lon="126.903015">
        <ele>10.7</ele>
      </trkpt>
      <trkpt lat="36.266245" lon="126.903277">
        <ele>10.7</ele>
      </trkpt>
      <trkpt lat="36.26555" lon="126.903567">
        <ele>10.6</ele>
      </trkpt>
      <trkpt lat="36.265398" lon="126.903602">
        <ele>10.5</ele>
      </trkpt>
      <trkpt lat="36.265239" lon="126.903743">
        <ele>10.5</ele>
      </trkpt>
      <trkpt lat="36.265125" lon="126.903882">
        <ele>10.4</ele>
      </trkpt>
      <trkpt lat="36.265115111120345" lon="126.90387010574342">
        <ele>10.4</ele>
      </trkpt>
      <trkpt lat="36.265125" lon="126.903882">
        <ele>10.3</ele>
      </trkpt>
      <trkpt lat="36.264154" lon="126.90508">
        <ele>10.3</ele>
      </trkpt>
      <trkpt lat="36.263329" lon="126.906133">
        <ele>10.2</ele>
      </trkpt>
      <trkpt lat="36.262585" lon="126.907202">
        <ele>10.2</ele>
      </trkpt>
      <trkpt lat="36.262463" lon="126.907375">
        <ele>10.1</ele>
      </trkpt>
      <trkpt lat="36.262" lon="126.908163">
        <ele>10.1</ele>
      </trkpt>
      <trkpt lat="36.260286" lon="126.910718">
        <ele>10.0</ele>
      </trkpt>
      <trkpt lat="36.259566" lon="126.911802">
        <ele>9.9</ele>
      </trkpt>
      <trkpt lat="36.259192" lon="126.912364">
        <ele>9.9</ele>
      </trkpt>
      <trkpt lat="36.25916331418675" lon="126.91233515739442">
        <ele>9.9</ele>
      </trkpt>
      <trkpt lat="36.259192" lon="126.912364">
        <ele>9.8</ele>
      </trkpt>
      <trkpt lat="36.258814" lon="126.912934">
        <ele>9.8</ele>
      </trkpt>
      <trkpt lat="36.258592" lon="126.913268">
        <ele>9.8</ele>
      </trkpt>
      <trkpt lat="36.25835" lon="126.91365">
        <ele>9.7</ele>
      </trkpt>
      <trkpt lat="36.258147" lon="126.913969">
        <ele>9.7</ele>
      </trkpt>
      <trkpt lat="36.257839" lon="126.914595">
        <ele>9.7</ele>
      </trkpt>
      <trkpt lat="36.257605" lon="126.915248">
        <ele>9.7</ele>
      </trkpt>
      <trkpt lat="36.257076" lon="126.917253">
        <ele>9.7</ele>
      </trkpt>
      <trkpt lat="36.256818" lon="126.918231">
        <ele>9.7</ele>
      </trkpt>
      <trkpt lat="36.256784" lon="126.918359">
        <ele>9.7</ele>
      </trkpt>
      <trkpt lat="36.256679" lon="126.918854">
        <ele>9.8</ele>
      </trkpt>
      <trkpt lat="36.25656" lon="126.919686">
        <ele>9.8</ele>
      </trkpt>
      <trkpt lat="36.256551" lon="126.919774">
        <ele>9.8</ele>
      </trkpt>
      <trkpt lat="36.256476" lon="126.9205">
        <ele>9.9</ele>
      </trkpt>
      <trkpt lat="36.25647274551289" lon="126.92049980163576">
        <ele>9.9</ele>
      </trkpt>
      <trkpt lat="36.256476" lon="126.9205">
        <ele>9.9</ele>
      </trkpt>
      <trkpt lat="36.25646" lon="126.920656">
        <ele>9.9</ele>
      </trkpt>
      <trkpt lat="36.256457" lon="126.921054">
        <ele>10.0</ele>
      </trkpt>
      <trkpt lat="36.256445" lon="126.922347">
        <ele>10.0</ele>
      </trkpt>
      <trkpt lat="36.256516" lon="126.925613">
        <ele>10.0</ele>
      </trkpt>
      <trkpt lat="36.256508" lon="126.927034">
        <ele>10.1</ele>
      </trkpt>
      <trkpt lat="36.25649" lon="126.927568">
        <ele>10.1</ele>
      </trkpt>
      <trkpt lat="36.256516" lon="126.928748">
        <ele>10.1</ele>
      </trkpt>
      <trkpt lat="36.25649004850137" lon="126.92875027656557">
        <ele>10.1</ele>
      </trkpt>
      <trkpt lat="36.256516" lon="126.928748">
        <ele>10.1</ele>
      </trkpt>
      <trkpt lat="36.256554" lon="126.930425">
        <ele>10.2</ele>
      </trkpt>
      <trkpt lat="36.25656" lon="126.931762">
        <ele>10.2</ele>
      </trkpt>
      <trkpt lat="36.256551" lon="126.933527">
        <ele>10.2</ele>
      </trkpt>
      <trkpt lat="36.256569" lon="126.936311">
        <ele>10.2</ele>
      </trkpt>
      <trkpt lat="36.256577" lon="126.937632">
        <ele>10.3</ele>
      </trkpt>
      <trkpt lat="36.25655060893089" lon="126.93763375282289">
        <ele>10.3</ele>
      </trkpt>
      <trkpt lat="36.256581" lon="126.938234">
        <ele>10.3</ele>
      </trkpt>
      <trkpt lat="36.256622" lon="126.939782">
        <ele>10.3</ele>
      </trkpt>
      <trkpt lat="36.256629" lon="126.940059">
        <ele>10.3</ele>
      </trkpt>
      <trkpt lat="36.256392" lon="126.940297">
        <ele>10.3</ele>
      </trkpt>
      <trkpt lat="36.256064" lon="126.940537">
        <ele>10.3</ele>
      </trkpt>
      <trkpt lat="36.255835" lon="126.940623">
        <ele>10.3</ele>
      </trkpt>
      <trkpt lat="36.255572" lon="126.940703">
        <ele>10.3</ele>
      </trkpt>
      <trkpt lat="36.255353" lon="126.940826">
        <ele>10.3</ele>
      </trkpt>
      <trkpt lat="36.255234" lon="126.94103">
        <ele>10.2</ele>
      </trkpt>
      <trkpt lat="36.25513" lon="126.941264">
        <ele>10.1</ele>
      </trkpt>
      <trkpt lat="36.254896" lon="126.941461">
        <ele>10.1</ele>
      </trkpt>
      <trkpt lat="36.254519" lon="126.941917">
        <ele>10.0</ele>
      </trkpt>
      <trkpt lat="36.254305" lon="126.942404">
        <ele>9.9</ele>
      </trkpt>
      <trkpt lat="36.254201" lon="126.942878">
        <ele>9.8</ele>
      </trkpt>
      <trkpt lat="36.254151" lon="126.943304">
        <ele>9.7</ele>
      </trkpt>
      <trkpt lat="36.254305" lon="126.943612">
        <ele>9.6</ele>
      </trkpt>
      <trkpt lat="36.254085" lon="126.943869">
        <ele>9.4</ele>
      </trkpt>
      <trkpt lat="36.253722" lon="126.9449">
        <ele>9.3</ele>
      </trkpt>
      <trkpt lat="36.253706" lon="126.944949">
        <ele>9.2</ele>
      </trkpt>
      <trkpt lat="36.253686914389554" lon="126.94494009017946">
        <ele>9.1</ele>
      </trkpt>
      <trkpt lat="36.253706" lon="126.944949">
        <ele>9.0</ele>
      </trkpt>
      <trkpt lat="36.253042" lon="126.947043">
        <ele>8.9</ele>
      </trkpt>
      <trkpt lat="36.252644" lon="126.948299">
        <ele>8.8</ele>
      </trkpt>
      <trkpt lat="36.252323" lon="126.949247">
        <ele>8.7</ele>
      </trkpt>
      <trkpt lat="36.252068" lon="126.95">
        <ele>8.6</ele>
      </trkpt>
      <trkpt lat="36.2520646843552" lon="126.94999873638154">
        <ele>8.6</ele>
      </trkpt>
      <trkpt lat="36.252068" lon="126.95">
        <ele>8.5</ele>
      </trkpt>
      <trkpt lat="36.251274" lon="126.95235">
        <ele>8.4</ele>
      </trkpt>
      <trkpt lat="36.251182" lon="126.952635">
        <ele>8.3</ele>
      </trkpt>
      <trkpt lat="36.251098" lon="126.952895">
        <ele>8.3</ele>
      </trkpt>
      <trkpt lat="36.251087004122034" lon="126.95289015769958">
        <ele>8.3</ele>
      </trkpt>
      <trkpt lat="36.251098" lon="126.952895">
        <ele>8.2</ele>
      </trkpt>
      <trkpt lat="36.250476" lon="126.954834">
        <ele>8.2</ele>
      </trkpt>
      <trkpt lat="36.250126" lon="126.95585">
        <ele>8.2</ele>
      </trkpt>
      <trkpt lat="36.250117963855175" lon="126.95584595203401">
        <ele>8.2</ele>
      </trkpt>
      <trkpt lat="36.250126" lon="126.95585">
        <ele>8.2</ele>
      </trkpt>
      <trkpt lat="36.249855" lon="126.956639">
        <ele>8.2</ele>
      </trkpt>
      <trkpt lat="36.249739" lon="126.957057">
        <ele>8.2</ele>
      </trkpt>
      <trkpt lat="36.249476" lon="126.957792">
        <ele>8.3</ele>
      </trkpt>
      <trkpt lat="36.2493" lon="126.958303">
        <ele>8.3</ele>
      </trkpt>
      <trkpt lat="36.24928734834734" lon="126.95829749107362">
        <ele>8.4</ele>
      </trkpt>
      <trkpt lat="36.2493" lon="126.958303">
        <ele>8.6</ele>
      </trkpt>
      <trkpt lat="36.249248" lon="126.958456">
        <ele>8.7</ele>
      </trkpt>
      <trkpt lat="36.24918" lon="126.958702">
        <ele>8.8</ele>
      </trkpt>
      <trkpt lat="36.249091" lon="126.959021">
        <ele>9.0</ele>
      </trkpt>
      <trkpt lat="36.249016" lon="126.95931">
        <ele>9.2</ele>
      </trkpt>
      <trkpt lat="36.248844" lon="126.960146">
        <ele>9.4</ele>
      </trkpt>
      <trkpt lat="36.248768" lon="126.960676">
        <ele>9.6</ele>
      </trkpt>
      <trkpt lat="36.248773" lon="126.960774">
        <ele>9.8</ele>
      </trkpt>
      <trkpt lat="36.248763882997174" lon="126.96077585220338">
        <ele>9.9</ele>
      </trkpt>
      <trkpt lat="36.248773" lon="126.960774">
        <ele>10.1</ele>
      </trkpt>
      <trkpt lat="36.248768" lon="126.960676">
        <ele>10.3</ele>
      </trkpt>
      <trkpt lat="36.248827" lon="126.961324">
        <ele>10.5</ele>
      </trkpt>
      <trkpt lat="36.248841" lon="126.961623">
        <ele>10.7</ele>
      </trkpt>
      <trkpt lat="36.24858" lon="126.961475">
        <ele>10.9</ele>
      </trkpt>
      <trkpt lat="36.248323" lon="126.961422">
        <ele>11.1</ele>
      </trkpt>
      <trkpt lat="36.248136" lon="126.961445">
        <ele>11.2</ele>
      </trkpt>
      <trkpt lat="36.24792" lon="126.961564">
        <ele>11.4</ele>
      </trkpt>
      <trkpt lat="36.247769" lon="126.961635">
        <ele>11.6</ele>
      </trkpt>
      <trkpt lat="36.24768" lon="126.961691">
        <ele>11.7</ele>
      </trkpt>
      <trkpt lat="36.247499" lon="126.961846">
        <ele>11.9</ele>
      </trkpt>
      <trkpt lat="36.24750062985954" lon="126.96184873580934">
        <ele>12.0</ele>
      </trkpt>
      <trkpt lat="36.247499" lon="126.961846">
        <ele>12.2</ele>
      </trkpt>
      <trkpt lat="36.247468" lon="126.961873">
        <ele>12.3</ele>
      </trkpt>
      <trkpt lat="36.246906" lon="126.96228">
        <ele>12.4</ele>
      </trkpt>
      <trkpt lat="36.246802" lon="126.96239">
        <ele>12.6</ele>
      </trkpt>
      <trkpt lat="36.246476" lon="126.962781">
        <ele>12.7</ele>
      </trkpt>
      <trkpt lat="36.246271" lon="126.962975">
        <ele>12.8</ele>
      </trkpt>
      <trkpt lat="36.246267640495475" lon="126.96296989917757">
        <ele>12.8</ele>
      </trkpt>
      <trkpt lat="36.246271" lon="126.962975">
        <ele>12.9</ele>
      </trkpt>
      <trkpt lat="36.246149" lon="126.963093">
        <ele>12.9</ele>
      </trkpt>
      <trkpt lat="36.245887" lon="126.963278">
        <ele>12.9</ele>
      </trkpt>
      <trkpt lat="36.245386" lon="126.963518">
        <ele>12.9</ele>
      </trkpt>
      <trkpt lat="36.245043" lon="126.963899">
        <ele>12.9</ele>
      </trkpt>
      <trkpt lat="36.24495" lon="126.964072">
        <ele>12.9</ele>
      </trkpt>
      <trkpt lat="36.24495026720638" lon="126.96407228708269">
        <ele>12.8</ele>
      </trkpt>
      <trkpt lat="36.24495" lon="126.964072">
        <ele>12.8</ele>
      </trkpt>
      <trkpt lat="36.244813" lon="126.964327">
        <ele>12.7</ele>
      </trkpt>
      <trkpt lat="36.244604" lon="126.964539">
        <ele>12.7</ele>
      </trkpt>
      <trkpt lat="36.243738" lon="126.96523">
        <ele>12.6</ele>
      </trkpt>
      <trkpt lat="36.24373886987176" lon="126.96523100137713">
        <ele>12.6</ele>
      </trkpt>
      <trkpt lat="36.243738" lon="126.96523">
        <ele>12.6</ele>
      </trkpt>
      <trkpt lat="36.242887" lon="126.965911">
        <ele>12.5</ele>
      </trkpt>
      <trkpt lat="36.242435" lon="126.966106">
        <ele>12.5</ele>
      </trkpt>
      <trkpt lat="36.242436596796175" lon="126.966110765934">
        <ele>12.5</ele>
      </trkpt>
      <trkpt lat="36.242435" lon="126.966106">
        <ele>12.5</ele>
      </trkpt>
      <trkpt lat="36.242306" lon="126.966163">
        <ele>12.5</ele>
      </trkpt>
      <trkpt lat="36.241942" lon="126.96631">
        <ele>12.5</ele>
      </trkpt>
      <trkpt lat="36.241006" lon="126.966444">
        <ele>12.5</ele>
      </trkpt>
      <trkpt lat="36.240828" lon="126.966456">
        <ele>12.5</ele>
      </trkpt>
      <trkpt lat="36.237709" lon="126.967485">
        <ele>12.5</ele>
      </trkpt>
      <trkpt lat="36.235925" lon="126.967608">
        <ele>12.5</ele>
      </trkpt>
      <trkpt lat="36.234744" lon="126.968029">
        <ele>12.5</ele>
      </trkpt>
      <trkpt lat="36.234563" lon="126.968">
        <ele>12.5</ele>
      </trkpt>
      <trkpt lat="36.234383" lon="126.968004">
        <ele>12.5</ele>
      </trkpt>
      <trkpt lat="36.233998" lon="126.968051">
        <ele>12.6</ele>
      </trkpt>
      <trkpt lat="36.233815" lon="126.968213">
        <ele>12.6</ele>
      </trkpt>
      <trkpt lat="36.233741" lon="126.968196">
        <ele>12.7</ele>
      </trkpt>
      <trkpt lat="36.23375061597892" lon="126.96813583374025">
        <ele>12.7</ele>
      </trkpt>
      <trkpt lat="36.233741" lon="126.968196">
        <ele>12.8</ele>
      </trkpt>
      <trkpt lat="36.233815" lon="126.968213">
        <ele>12.9</ele>
      </trkpt>
      <trkpt lat="36.233998" lon="126.968051">
        <ele>12.9</ele>
      </trkpt>
      <trkpt lat="36.234383" lon="126.968004">
        <ele>13.0</ele>
      </trkpt>
      <trkpt lat="36.234563" lon="126.968">
        <ele>13.1</ele>
      </trkpt>
      <trkpt lat="36.234744" lon="126.968029">
        <ele>13.2</ele>
      </trkpt>
      <trkpt lat="36.235925" lon="126.967608">
        <ele>13.3</ele>
      </trkpt>
      <trkpt lat="36.237709" lon="126.967485">
        <ele>13.4</ele>
      </trkpt>
      <trkpt lat="36.240101" lon="126.966695">
        <ele>13.5</ele>
      </trkpt>
      <trkpt lat="36.24010240188726" lon="126.96669816970827">
        <ele>13.6</ele>
      </trkpt>
      <trkpt lat="36.240101" lon="126.966695">
        <ele>13.7</ele>
      </trkpt>
      <trkpt lat="36.240828" lon="126.966456">
        <ele>13.7</ele>
      </trkpt>
      <trkpt lat="36.241006" lon="126.966444">
        <ele>13.8</ele>
      </trkpt>
      <trkpt lat="36.241942" lon="126.96631">
        <ele>13.8</ele>
      </trkpt>
      <trkpt lat="36.242306" lon="126.966163">
        <ele>13.8</ele>
      </trkpt>
      <trkpt lat="36.242887" lon="126.965911">
        <ele>13.8</ele>
      </trkpt>
      <trkpt lat="36.244525" lon="126.964601">
        <ele>13.8</ele>
      </trkpt>
      <trkpt lat="36.244528443479496" lon="126.96460604667665">
        <ele>13.8</ele>
      </trkpt>
      <trkpt lat="36.244525" lon="126.964601">
        <ele>13.7</ele>
      </trkpt>
      <trkpt lat="36.244604" lon="126.964539">
        <ele>13.7</ele>
      </trkpt>
      <trkpt lat="36.244813" lon="126.964327">
        <ele>13.6</ele>
      </trkpt>
      <trkpt lat="36.245043" lon="126.963899">
        <ele>13.6</ele>
      </trkpt>
      <trkpt lat="36.245386" lon="126.963518">
        <ele>13.5</ele>
      </trkpt>
      <trkpt lat="36.245887" lon="126.963278">
        <ele>13.4</ele>
      </trkpt>
      <trkpt lat="36.246149" lon="126.963093">
        <ele>13.3</ele>
      </trkpt>
      <trkpt lat="36.246476" lon="126.962781">
        <ele>13.2</ele>
      </trkpt>
      <trkpt lat="36.246802" lon="126.96239">
        <ele>13.1</ele>
      </trkpt>
      <trkpt lat="36.2469" lon="126.962285">
        <ele>12.9</ele>
      </trkpt>
      <trkpt lat="36.24689927958232" lon="126.96228325366975">
        <ele>12.8</ele>
      </trkpt>
      <trkpt lat="36.2469" lon="126.962285">
        <ele>12.6</ele>
      </trkpt>
      <trkpt lat="36.246906" lon="126.96228">
        <ele>12.4</ele>
      </trkpt>
      <trkpt lat="36.247468" lon="126.961873">
        <ele>12.2</ele>
      </trkpt>
      <trkpt lat="36.24768" lon="126.961691">
        <ele>12.0</ele>
      </trkpt>
      <trkpt lat="36.247769" lon="126.961635">
        <ele>11.8</ele>
      </trkpt>
      <trkpt lat="36.24792" lon="126.961564">
        <ele>11.6</ele>
      </trkpt>
      <trkpt lat="36.248136" lon="126.961445">
        <ele>11.4</ele>
      </trkpt>
      <trkpt lat="36.248323" lon="126.961422">
        <ele>11.2</ele>
      </trkpt>
      <trkpt lat="36.24858" lon="126.961475">
        <ele>10.9</ele>
      </trkpt>
      <trkpt lat="36.248821" lon="126.961612">
        <ele>10.7</ele>
      </trkpt>
      <trkpt lat="36.24881579707284" lon="126.96162879467012">
        <ele>10.5</ele>
      </trkpt>
      <trkpt lat="36.248821" lon="126.961612">
        <ele>10.3</ele>
      </trkpt>
      <trkpt lat="36.248841" lon="126.961623">
        <ele>10.1</ele>
      </trkpt>
      <trkpt lat="36.248827" lon="126.961324">
        <ele>9.9</ele>
      </trkpt>
      <trkpt lat="36.248768" lon="126.960676">
        <ele>9.7</ele>
      </trkpt>
      <trkpt lat="36.248844" lon="126.960146">
        <ele>9.5</ele>
      </trkpt>
      <trkpt lat="36.249016" lon="126.95931">
        <ele>9.3</ele>
      </trkpt>
      <trkpt lat="36.249091" lon="126.959021">
        <ele>9.2</ele>
      </trkpt>
      <trkpt lat="36.24918" lon="126.958702">
        <ele>9.0</ele>
      </trkpt>
      <trkpt lat="36.24942" lon="126.957963">
        <ele>8.9</ele>
      </trkpt>
      <trkpt lat="36.24942362180953" lon="126.95796489715578">
        <ele>8.7</ele>
      </trkpt>
      <trkpt lat="36.24942" lon="126.957963">
        <ele>8.6</ele>
      </trkpt>
      <trkpt lat="36.249476" lon="126.957792">
        <ele>8.5</ele>
      </trkpt>
      <trkpt lat="36.249739" lon="126.957057">
        <ele>8.4</ele>
      </trkpt>
      <trkpt lat="36.249855" lon="126.956639">
        <ele>8.3</ele>
      </trkpt>
      <trkpt lat="36.250222" lon="126.95557">
        <ele>8.2</ele>
      </trkpt>
      <trkpt lat="36.250217464079064" lon="126.95556700229646">
        <ele>8.2</ele>
      </trkpt>
      <trkpt lat="36.250222" lon="126.95557">
        <ele>8.1</ele>
      </trkpt>
      <trkpt lat="36.250476" lon="126.954834">
        <ele>8.1</ele>
      </trkpt>
      <trkpt lat="36.251169" lon="126.952673">
        <ele>8.1</ele>
      </trkpt>
      <trkpt lat="36.25117352499003" lon="126.95267558097841">
        <ele>8.1</ele>
      </trkpt>
      <trkpt lat="36.251169" lon="126.952673">
        <ele>8.1</ele>
      </trkpt>
      <trkpt lat="36.251182" lon="126.952635">
        <ele>8.1</ele>
      </trkpt>
      <trkpt lat="36.251274" lon="126.95235">
        <ele>8.2</ele>
      </trkpt>
      <trkpt lat="36.251841" lon="126.950671">
        <ele>8.3</ele>
      </trkpt>
      <trkpt lat="36.25184838447251" lon="126.9506746530533">
        <ele>8.3</ele>
      </trkpt>
      <trkpt lat="36.251841" lon="126.950671">
        <ele>8.4</ele>
      </trkpt>
      <trkpt lat="36.252323" lon="126.949247">
        <ele>8.6</ele>
      </trkpt>
      <trkpt lat="36.252644" lon="126.948299">
        <ele>8.7</ele>
      </trkpt>
      <trkpt lat="36.252963" lon="126.947292">
        <ele>8.8</ele>
      </trkpt>
      <trkpt lat="36.25296881138249" lon="126.94729506969453">
        <ele>9.0</ele>
      </trkpt>
      <trkpt lat="36.252963" lon="126.947292">
        <ele>9.1</ele>
      </trkpt>
      <trkpt lat="36.253042" lon="126.947043">
        <ele>9.3</ele>
      </trkpt>
      <trkpt lat="36.253722" lon="126.9449">
        <ele>9.5</ele>
      </trkpt>
      <trkpt lat="36.254017" lon="126.944061">
        <ele>9.6</ele>
      </trkpt>
      <trkpt lat="36.25402000812194" lon="126.9440630078316">
        <ele>9.8</ele>
      </trkpt>
      <trkpt lat="36.254017" lon="126.944061">
        <ele>9.9</ele>
      </trkpt>
      <trkpt lat="36.254085" lon="126.943869">
        <ele>10.1</ele>
      </trkpt>
      <trkpt lat="36.254305" lon="126.943612">
        <ele>10.3</ele>
      </trkpt>
      <trkpt lat="36.25431" lon="126.943613">
        <ele>10.4</ele>
      </trkpt>
      <trkpt lat="36.25431200470629" lon="126.9436123967171">
        <ele>10.5</ele>
      </trkpt>
      <trkpt lat="36.25431" lon="126.943613">
        <ele>10.7</ele>
      </trkpt>
      <trkpt lat="36.254305" lon="126.943612">
        <ele>10.8</ele>
      </trkpt>
      <trkpt lat="36.254151" lon="126.943304">
        <ele>10.9</ele>
      </trkpt>
      <trkpt lat="36.254201" lon="126.942878">
        <ele>11.0</ele>
      </trkpt>
      <trkpt lat="36.254305" lon="126.942404">
        <ele>11.1</ele>
      </trkpt>
      <trkpt lat="36.254519" lon="126.941917">
        <ele>11.2</ele>
      </trkpt>
      <trkpt lat="36.254582" lon="126.941839">
        <ele>11.3</ele>
      </trkpt>
      <trkpt lat="36.25458237094098" lon="126.94183945655824">
        <ele>11.3</ele>
      </trkpt>
      <trkpt lat="36.254582" lon="126.941839">
        <ele>11.4</ele>
      </trkpt>
      <trkpt lat="36.254896" lon="126.941461">
        <ele>11.5</ele>
      </trkpt>
      <trkpt lat="36.25513" lon="126.941264">
        <ele>11.5</ele>
      </trkpt>
      <trkpt lat="36.255234" lon="126.94103">
        <ele>11.5</ele>
      </trkpt>
      <trkpt lat="36.255353" lon="126.940826">
        <ele>11.6</ele>
      </trkpt>
      <trkpt lat="36.255572" lon="126.940703">
        <ele>11.6</ele>
      </trkpt>
      <trkpt lat="36.255735" lon="126.940653">
        <ele>11.6</ele>
      </trkpt>
      <trkpt lat="36.25573520206549" lon="126.94065123796464">
        <ele>11.5</ele>
      </trkpt>
      <trkpt lat="36.255735" lon="126.940653">
        <ele>11.5</ele>
      </trkpt>
      <trkpt lat="36.255835" lon="126.940623">
        <ele>11.4</ele>
      </trkpt>
      <trkpt lat="36.256064" lon="126.940537">
        <ele>11.3</ele>
      </trkpt>
      <trkpt lat="36.256392" lon="126.940297">
        <ele>11.3</ele>
      </trkpt>
      <trkpt lat="36.256629" lon="126.940059">
        <ele>11.2</ele>
      </trkpt>
      <trkpt lat="36.256622" lon="126.939782">
        <ele>11.1</ele>
      </trkpt>
      <trkpt lat="36.256619" lon="126.939702">
        <ele>10.9</ele>
      </trkpt>
      <trkpt lat="36.2566068435734" lon="126.93970441818239">
        <ele>10.8</ele>
      </trkpt>
      <trkpt lat="36.256619" lon="126.939702">
        <ele>10.7</ele>
      </trkpt>
      <trkpt lat="36.256581" lon="126.938234">
        <ele>10.6</ele>
      </trkpt>
      <trkpt lat="36.256569" lon="126.936311">
        <ele>10.5</ele>
      </trkpt>
      <trkpt lat="36.256568" lon="126.936296">
        <ele>10.4</ele>
      </trkpt>
      <trkpt lat="36.25656574903095" lon="126.93629801273347">
        <ele>10.3</ele>
      </trkpt>
      <trkpt lat="36.256568" lon="126.936296">
        <ele>10.3</ele>
      </trkpt>
      <trkpt lat="36.256551" lon="126.933527">
        <ele>10.2</ele>
      </trkpt>
      <trkpt lat="36.256558" lon="126.932089">
        <ele>10.1</ele>
      </trkpt>
      <trkpt lat="36.25655926041699" lon="126.93208962678912">
        <ele>10.1</ele>
      </trkpt>
      <trkpt lat="36.256558" lon="126.932089">
        <ele>10.0</ele>
      </trkpt>
      <trkpt lat="36.25656" lon="126.931762">
        <ele>9.9</ele>
      </trkpt>
      <trkpt lat="36.256554" lon="126.930425">
        <ele>9.9</ele>
      </trkpt>
      <trkpt lat="36.25649" lon="126.927568">
        <ele>9.8</ele>
      </trkpt>
      <trkpt lat="36.256508" lon="126.927034">
        <ele>9.8</ele>
      </trkpt>
      <trkpt lat="36.25651" lon="126.926628">
        <ele>9.7</ele>
      </trkpt>
      <trkpt lat="36.256516002976895" lon="126.92662864923479">
        <ele>9.7</ele>
      </trkpt>
      <trkpt lat="36.25651" lon="126.926628">
        <ele>9.7</ele>
      </trkpt>
      <trkpt lat="36.256516" lon="126.925613">
        <ele>9.6</ele>
      </trkpt>
      <trkpt lat="36.256445" lon="126.922347">
        <ele>9.6</ele>
      </trkpt>
      <trkpt lat="36.256457" lon="126.921054">
        <ele>9.6</ele>
      </trkpt>
      <trkpt lat="36.256457" lon="126.920967">
        <ele>9.6</ele>
      </trkpt>
      <trkpt lat="36.25645111677187" lon="126.92096650600435">
        <ele>9.6</ele>
      </trkpt>
      <trkpt lat="36.256457" lon="126.920967">
        <ele>9.6</ele>
      </trkpt>
      <trkpt lat="36.25646" lon="126.920656">
        <ele>9.6</ele>
      </trkpt>
      <trkpt lat="36.256551" lon="126.919774">
        <ele>9.6</ele>
      </trkpt>
      <trkpt lat="36.25656" lon="126.919686">
        <ele>9.6</ele>
      </trkpt>
      <trkpt lat="36.256679" lon="126.918854">
        <ele>9.6</ele>
      </trkpt>
      <trkpt lat="36.256784" lon="126.918359">
        <ele>9.6</ele>
      </trkpt>
      <trkpt lat="36.256818" lon="126.918231">
        <ele>9.6</ele>
      </trkpt>
      <trkpt lat="36.257076" lon="126.917253">
        <ele>9.7</ele>
      </trkpt>
      <trkpt lat="36.257237" lon="126.916641">
        <ele>9.7</ele>
      </trkpt>
      <trkpt lat="36.25724056193881" lon="126.91664278507234">
        <ele>9.7</ele>
      </trkpt>
      <trkpt lat="36.257237" lon="126.916641">
        <ele>9.7</ele>
      </trkpt>
      <trkpt lat="36.257605" lon="126.915248">
        <ele>9.7</ele>
      </trkpt>
      <trkpt lat="36.257839" lon="126.914595">
        <ele>9.8</ele>
      </trkpt>
      <trkpt lat="36.258147" lon="126.913969">
        <ele>9.8</ele>
      </trkpt>
      <trkpt lat="36.25835" lon="126.91365">
        <ele>9.8</ele>
      </trkpt>
      <trkpt lat="36.258592" lon="126.913268">
        <ele>9.8</ele>
      </trkpt>
      <trkpt lat="36.258814" lon="126.912934">
        <ele>9.8</ele>
      </trkpt>
      <trkpt lat="36.258907" lon="126.912793">
        <ele>9.8</ele>
      </trkpt>
      <trkpt lat="36.258908103451475" lon="126.91279381513598">
        <ele>9.8</ele>
      </trkpt>
      <trkpt lat="36.258907" lon="126.912793">
        <ele>9.8</ele>
      </trkpt>
      <trkpt lat="36.259566" lon="126.911802">
        <ele>9.9</ele>
      </trkpt>
      <trkpt lat="36.260286" lon="126.910718">
        <ele>9.9</ele>
      </trkpt>
      <trkpt lat="36.261557" lon="126.908821">
        <ele>9.9</ele>
      </trkpt>
      <trkpt lat="36.261557496329665" lon="126.90882146358491">
        <ele>9.9</ele>
      </trkpt>
      <trkpt lat="36.261557" lon="126.908821">
        <ele>9.9</ele>
      </trkpt>
      <trkpt lat="36.262" lon="126.908163">
        <ele>9.9</ele>
      </trkpt>
      <trkpt lat="36.262463" lon="126.907375">
        <ele>10.0</ele>
      </trkpt>
      <trkpt lat="36.262585" lon="126.907202">
        <ele>10.0</ele>
      </trkpt>
      <trkpt lat="36.263329" lon="126.906133">
        <ele>10.0</ele>
      </trkpt>
      <trkpt lat="36.264154" lon="126.90508">
        <ele>10.0</ele>
      </trkpt>
      <trkpt lat="36.264271" lon="126.904935">
        <ele>10.1</ele>
      </trkpt>
      <trkpt lat="36.264267353792114" lon="126.9049295783043">
        <ele>10.1</ele>
      </trkpt>
      <trkpt lat="36.264271" lon="126.904935">
        <ele>10.1</ele>
      </trkpt>
      <trkpt lat="36.265239" lon="126.903743">
        <ele>10.2</ele>
      </trkpt>
      <trkpt lat="36.265398" lon="126.903602">
        <ele>10.2</ele>
      </trkpt>
      <trkpt lat="36.26555" lon="126.903567">
        <ele>10.3</ele>
      </trkpt>
      <trkpt lat="36.266017" lon="126.903372">
        <ele>10.3</ele>
      </trkpt>
      <trkpt lat="36.26601692450336" lon="126.90336853265764">
        <ele>10.4</ele>
      </trkpt>
      <trkpt lat="36.266017" lon="126.903372">
        <ele>10.4</ele>
      </trkpt>
      <trkpt lat="36.266245" lon="126.903277">
        <ele>10.5</ele>
      </trkpt>
      <trkpt lat="36.266734" lon="126.903015">
        <ele>10.6</ele>
      </trkpt>
      <trkpt lat="36.267257" lon="126.902536">
        <ele>10.6</ele>
      </trkpt>
      <trkpt lat="36.267425" lon="126.902429">
        <ele>10.7</ele>
      </trkpt>
      <trkpt lat="36.267493" lon="126.902289">
        <ele>10.8</ele>
      </trkpt>
      <trkpt lat="36.267787" lon="126.9021">
        <ele>10.8</ele>
      </trkpt>
      <trkpt lat="36.267845" lon="126.902062">
        <ele>10.9</ele>
      </trkpt>
      <trkpt lat="36.267844308180365" lon="126.90205961465838">
        <ele>11.0</ele>
      </trkpt>
      <trkpt lat="36.267845" lon="126.902062">
        <ele>11.0</ele>
      </trkpt>
      <trkpt lat="36.268567" lon="126.901596">
        <ele>11.1</ele>
      </trkpt>
      <trkpt lat="36.268603" lon="126.901575">
        <ele>11.1</ele>
      </trkpt>
      <trkpt lat="36.269929" lon="126.900795">
        <ele>11.2</ele>
      </trkpt>
      <trkpt lat="36.270223" lon="126.900653">
        <ele>11.2</ele>
      </trkpt>
      <trkpt lat="36.27022524926491" lon="126.90065681934358">
        <ele>11.3</ele>
      </trkpt>
      <trkpt lat="36.270223" lon="126.900653">
        <ele>11.3</ele>
      </trkpt>
      <trkpt lat="36.270669" lon="126.900438">
        <ele>11.3</ele>
      </trkpt>
      <trkpt lat="36.270853" lon="126.900367">
        <ele>11.4</ele>
      </trkpt>
      <trkpt lat="36.272934" lon="126.899805">
        <ele>11.4</ele>
      </trkpt>
      <trkpt lat="36.272934" lon="126.899808">
        <ele>11.5</ele>
      </trkpt>
      <trkpt lat="36.27293480597213" lon="126.89980924129488">
        <ele>11.5</ele>
      </trkpt>
      <trkpt lat="36.272934" lon="126.899808">
        <ele>11.5</ele>
      </trkpt>
      <trkpt lat="36.272934" lon="126.899805">
        <ele>11.6</ele>
      </trkpt>
      <trkpt lat="36.273943" lon="126.899724">
        <ele>11.6</ele>
      </trkpt>
      <trkpt lat="36.275184" lon="126.899722">
        <ele>11.6</ele>
      </trkpt>
      <trkpt lat="36.275411" lon="126.899728">
        <ele>11.6</ele>
      </trkpt>
      <trkpt lat="36.27541289761602" lon="126.89972609281541">
        <ele>11.6</ele>
      </trkpt>
      <trkpt lat="36.275411" lon="126.899728">
        <ele>11.6</ele>
      </trkpt>
      <trkpt lat="36.275416" lon="126.899729">
        <ele>11.6</ele>
      </trkpt>
      <trkpt lat="36.27557" lon="126.899883">
        <ele>11.6</ele>
      </trkpt>
      <trkpt lat="36.275845" lon="126.899837">
        <ele>11.6</ele>
      </trkpt>
      <trkpt lat="36.275829" lon="126.89972">
        <ele>11.5</ele>
      </trkpt>
      <trkpt lat="36.275788" lon="126.899155">
        <ele>11.5</ele>
      </trkpt>
      <trkpt lat="36.27578265847328" lon="126.89915746450427">
        <ele>11.5</ele>
      </trkpt>
      <trkpt lat="36.275788" lon="126.899155">
        <ele>11.5</ele>
      </trkpt>
      <trkpt lat="36.275787" lon="126.89913">
        <ele>11.4</ele>
      </trkpt>
      <trkpt lat="36.275868" lon="126.899025">
        <ele>11.4</ele>
      </trkpt>
      <trkpt lat="36.275951" lon="126.89901">
        <ele>11.3</ele>
      </trkpt>
      <trkpt lat="36.276325" lon="126.899018">
        <ele>11.3</ele>
      </trkpt>
      <trkpt lat="36.276834" lon="126.899075">
        <ele>11.3</ele>
      </trkpt>
      <trkpt lat="36.276835710499746" lon="126.8990743160248">
        <ele>11.2</ele>
      </trkpt>
      <trkpt lat="36.276834" lon="126.899075">
        <ele>11.2</ele>
      </trkpt>
      <trkpt lat="36.276989" lon="126.899093">
        <ele>11.2</ele>
      </trkpt>
      <trkpt lat="36.277708" lon="126.899137">
        <ele>11.1</ele>
      </trkpt>
      <trkpt lat="36.277907" lon="126.899172">
        <ele>11.1</ele>
      </trkpt>
      <trkpt lat="36.278122" lon="126.899301">
        <ele>11.1</ele>
      </trkpt>
      <trkpt lat="36.278298" lon="126.899523">
        <ele>11.1</ele>
      </trkpt>
      <trkpt lat="36.278352" lon="126.899626">
        <ele>11.0</ele>
      </trkpt>
      <trkpt lat="36.27834931275966" lon="126.89962953329088">
        <ele>11.0</ele>
      </trkpt>
      <trkpt lat="36.278352" lon="126.899626">
        <ele>11.0</ele>
      </trkpt>
      <trkpt lat="36.278417" lon="126.899747">
        <ele>11.0</ele>
      </trkpt>
      <trkpt lat="36.278544" lon="126.899994">
        <ele>11.0</ele>
      </trkpt>
      <trkpt lat="36.278663" lon="126.900067">
        <ele>11.0</ele>
      </trkpt>
      <trkpt lat="36.278946" lon="126.900214">
        <ele>11.0</ele>
      </trkpt>
      <trkpt lat="36.281026" lon="126.901275">
        <ele>11.0</ele>
      </trkpt>
      <trkpt lat="36.28102831681345" lon="126.901273727417">
        <ele>11.0</ele>
      </trkpt>
      <trkpt lat="36.281026" lon="126.901275">
        <ele>11.0</ele>
      </trkpt>
      <trkpt lat="36.281225" lon="126.901376">
        <ele>11.0</ele>
      </trkpt>
      <trkpt lat="36.281841" lon="126.901692">
        <ele>10.9</ele>
      </trkpt>
      <trkpt lat="36.282519" lon="126.902066">
        <ele>10.9</ele>
      </trkpt>
      <trkpt lat="36.283165" lon="126.902476">
        <ele>10.9</ele>
      </trkpt>
      <trkpt lat="36.28342" lon="126.902649">
        <ele>10.9</ele>
      </trkpt>
      <trkpt lat="36.283741" lon="126.902902">
        <ele>10.9</ele>
      </trkpt>
      <trkpt lat="36.28373966070574" lon="126.90290719270708">
        <ele>10.9</ele>
      </trkpt>
      <trkpt lat="36.283741" lon="126.902902">
        <ele>10.9</ele>
      </trkpt>
      <trkpt lat="36.284149" lon="126.903222">
        <ele>10.8</ele>
      </trkpt>
      <trkpt lat="36.284772" lon="126.903764">
        <ele>10.8</ele>
      </trkpt>
      <trkpt lat="36.285117" lon="126.904088">
        <ele>10.8</ele>
      </trkpt>
      <trkpt lat="36.285547" lon="126.904477">
        <ele>10.8</ele>
      </trkpt>
      <trkpt lat="36.285873" lon="126.904785">
        <ele>10.7</ele>
      </trkpt>
      <trkpt lat="36.286086" lon="126.904963">
        <ele>10.7</ele>
      </trkpt>
      <trkpt lat="36.286162" lon="126.90501">
        <ele>10.7</ele>
      </trkpt>
      <trkpt lat="36.28628" lon="126.905059">
        <ele>10.7</ele>
      </trkpt>
      <trkpt lat="36.28628227082862" lon="126.90505832433703">
        <ele>10.6</ele>
      </trkpt>
      <trkpt lat="36.28628" lon="126.905059">
        <ele>10.6</ele>
      </trkpt>
      <trkpt lat="36.286704" lon="126.905454">
        <ele>10.5</ele>
      </trkpt>
      <trkpt lat="36.286836" lon="126.905593">
        <ele>10.5</ele>
      </trkpt>
      <trkpt lat="36.28783" lon="126.90653">
        <ele>10.4</ele>
      </trkpt>
      <trkpt lat="36.288359" lon="126.907048">
        <ele>10.3</ele>
      </trkpt>
      <trkpt lat="36.288581" lon="126.907252">
        <ele>10.3</ele>
      </trkpt>
      <trkpt lat="36.288586081877106" lon="126.90724628346321">
        <ele>10.2</ele>
      </trkpt>
      <trkpt lat="36.288581" lon="126.907252">
        <ele>10.1</ele>
      </trkpt>
      <trkpt lat="36.289064" lon="126.907697">
        <ele>10.0</ele>
      </trkpt>
      <trkpt lat="36.289234" lon="126.907768">
        <ele>9.9</ele>
      </trkpt>
      <trkpt lat="36.289349" lon="126.907808">
        <ele>9.9</ele>
      </trkpt>
      <trkpt lat="36.289437" lon="126.907783">
        <ele>9.8</ele>
      </trkpt>
      <trkpt lat="36.28966" lon="126.907698">
        <ele>9.8</ele>
      </trkpt>
      <trkpt lat="36.289675" lon="126.907687">
        <ele>9.7</ele>
      </trkpt>
      <trkpt lat="36.28967661264513" lon="126.90768957134476">
        <ele>9.7</ele>
      </trkpt>
      <trkpt lat="36.289675" lon="126.907687">
        <ele>9.6</ele>
      </trkpt>
      <trkpt lat="36.289827" lon="126.907584">
        <ele>9.5</ele>
      </trkpt>
      <trkpt lat="36.289828" lon="126.907582">
        <ele>9.5</ele>
      </trkpt>
      <trkpt lat="36.289832273190314" lon="126.90758764740222">
        <ele>9.4</ele>
      </trkpt>
      <trkpt lat="36.289828" lon="126.907582">
        <ele>9.4</ele>
      </trkpt>
      <trkpt lat="36.289827" lon="126.907584">
        <ele>9.3</ele>
      </trkpt>
      <trkpt lat="36.289581" lon="126.90722">
        <ele>9.3</ele>
      </trkpt>
      <trkpt lat="36.28875" lon="126.9062">
        <ele>9.3</ele>
      </trkpt>
      <trkpt lat="36.2887512907727" lon="126.90620094534151">
        <ele>9.2</ele>
      </trkpt>
    </trkseg>
  </trk>
</gpx>