<?xml version="1.0" encoding="UTF-8"?>
<gpx version="1.1" creator="HTML GPX Creator" xmlns="http://www.topografix.com/GPX/1/1">
  <trk>
    <name>cheongsong_apple_run</name>
    <trkseg>
      <trkpt lat="36.43310903798244" lon="129.06154632568362">
        <ele>195.3</ele>
      </trkpt>
      <trkpt lat="36.433128" lon="129.061536">
        <ele>195.4</ele>
      </trkpt>
      <trkpt lat="36.43323" lon="129.061899">
        <ele>195.6</ele>
      </trkpt>
      <trkpt lat="36.433275" lon="129.062347">
        <ele>195.8</ele>
      </trkpt>
      <trkpt lat="36.433474" lon="129.062963">
        <ele>195.9</ele>
      </trkpt>
      <trkpt lat="36.433549" lon="129.063029">
        <ele>196.1</ele>
      </trkpt>
      <trkpt lat="36.433598" lon="129.063053">
        <ele>196.3</ele>
      </trkpt>
      <trkpt lat="36.433601054328975" lon="129.06304836273196">
        <ele>196.5</ele>
      </trkpt>
      <trkpt lat="36.433598" lon="129.063053">
        <ele>196.7</ele>
      </trkpt>
      <trkpt lat="36.433624" lon="129.063066">
        <ele>196.9</ele>
      </trkpt>
      <trkpt lat="36.43371" lon="129.06303">
        <ele>197.1</ele>
      </trkpt>
      <trkpt lat="36.434159" lon="129.062839">
        <ele>197.3</ele>
      </trkpt>
      <trkpt lat="36.434242" lon="129.062821">
        <ele>197.5</ele>
      </trkpt>
      <trkpt lat="36.434535" lon="129.06267">
        <ele>197.7</ele>
      </trkpt>
      <trkpt lat="36.435197" lon="129.062219">
        <ele>197.9</ele>
      </trkpt>
      <trkpt lat="36.435193" lon="129.062212">
        <ele>198.2</ele>
      </trkpt>
      <trkpt lat="36.43520655966101" lon="129.06220078468326">
        <ele>198.5</ele>
      </trkpt>
      <trkpt lat="36.435193" lon="129.062212">
        <ele>198.9</ele>
      </trkpt>
      <trkpt lat="36.435197" lon="129.062219">
        <ele>199.3</ele>
      </trkpt>
      <trkpt lat="36.435613" lon="129.06296">
        <ele>199.8</ele>
      </trkpt>
      <trkpt lat="36.435691" lon="129.063089">
        <ele>200.2</ele>
      </trkpt>
      <trkpt lat="36.436113" lon="129.063877">
        <ele>200.7</ele>
      </trkpt>
      <trkpt lat="36.436376" lon="129.064368">
        <ele>201.2</ele>
      </trkpt>
      <trkpt lat="36.436487" lon="129.064543">
        <ele>201.7</ele>
      </trkpt>
      <trkpt lat="36.437293" lon="129.065956">
        <ele>202.2</ele>
      </trkpt>
      <trkpt lat="36.437555" lon="129.06646">
        <ele>202.8</ele>
      </trkpt>
      <trkpt lat="36.438063" lon="129.067179">
        <ele>203.3</ele>
      </trkpt>
      <trkpt lat="36.43804632378917" lon="129.06720042228702">
        <ele>203.9</ele>
      </trkpt>
      <trkpt lat="36.438063" lon="129.067179">
        <ele>204.5</ele>
      </trkpt>
      <trkpt lat="36.438102" lon="129.067233">
        <ele>205.1</ele>
      </trkpt>
      <trkpt lat="36.438629" lon="129.067902">
        <ele>205.7</ele>
      </trkpt>
      <trkpt lat="36.439178" lon="129.068653">
        <ele>206.4</ele>
      </trkpt>
      <trkpt lat="36.439501" lon="129.069037">
        <ele>207.0</ele>
      </trkpt>
      <trkpt lat="36.440087" lon="129.069539">
        <ele>207.7</ele>
      </trkpt>
      <trkpt lat="36.440194" lon="129.069655">
        <ele>208.4</ele>
      </trkpt>
      <trkpt lat="36.440698" lon="129.0705">
        <ele>209.1</ele>
      </trkpt>
      <trkpt lat="36.441136" lon="129.071113">
        <ele>209.8</ele>
      </trkpt>
      <trkpt lat="36.441686" lon="129.072081">
        <ele>210.5</ele>
      </trkpt>
      <trkpt lat="36.44163687982509" lon="129.07212495803836">
        <ele>211.2</ele>
      </trkpt>
      <trkpt lat="36.441686" lon="129.072081">
        <ele>212.0</ele>
      </trkpt>
      <trkpt lat="36.441919" lon="129.072492">
        <ele>212.8</ele>
      </trkpt>
      <trkpt lat="36.442127" lon="129.072839">
        <ele>213.5</ele>
      </trkpt>
      <trkpt lat="36.442239" lon="129.073053">
        <ele>214.3</ele>
      </trkpt>
      <trkpt lat="36.442337" lon="129.073301">
        <ele>215.2</ele>
      </trkpt>
      <trkpt lat="36.44252" lon="129.073351">
        <ele>216.0</ele>
      </trkpt>
      <trkpt lat="36.442669" lon="129.073421">
        <ele>216.9</ele>
      </trkpt>
      <trkpt lat="36.443281" lon="129.073814">
        <ele>217.8</ele>
      </trkpt>
      <trkpt lat="36.443329" lon="129.073845">
        <ele>218.6</ele>
      </trkpt>
      <trkpt lat="36.444081" lon="129.074477">
        <ele>219.6</ele>
      </trkpt>
      <trkpt lat="36.444053506690544" lon="129.0745282173157">
        <ele>220.5</ele>
      </trkpt>
      <trkpt lat="36.444081" lon="129.074477">
        <ele>221.4</ele>
      </trkpt>
      <trkpt lat="36.444643" lon="129.074951">
        <ele>222.3</ele>
      </trkpt>
      <trkpt lat="36.445282" lon="129.075554">
        <ele>223.3</ele>
      </trkpt>
      <trkpt lat="36.445678" lon="129.075909">
        <ele>224.2</ele>
      </trkpt>
      <trkpt lat="36.446089" lon="129.076128">
        <ele>225.2</ele>
      </trkpt>
      <trkpt lat="36.44658" lon="129.076177">
        <ele>226.1</ele>
      </trkpt>
      <trkpt lat="36.447057" lon="129.076193">
        <ele>227.1</ele>
      </trkpt>
      <trkpt lat="36.447934" lon="129.076461">
        <ele>228.1</ele>
      </trkpt>
      <trkpt lat="36.448294" lon="129.076583">
        <ele>229.1</ele>
      </trkpt>
      <trkpt lat="36.448604" lon="129.076623">
        <ele>230.1</ele>
      </trkpt>
      <trkpt lat="36.449302" lon="129.076521">
        <ele>231.1</ele>
      </trkpt>
      <trkpt lat="36.449939" lon="129.076443">
        <ele>232.1</ele>
      </trkpt>
      <trkpt lat="36.449939404333065" lon="129.0764379501343">
        <ele>233.1</ele>
      </trkpt>
      <trkpt lat="36.449939" lon="129.076443">
        <ele>234.1</ele>
      </trkpt>
      <trkpt lat="36.450187" lon="129.076414">
        <ele>235.2</ele>
      </trkpt>
      <trkpt lat="36.450932" lon="129.076355">
        <ele>236.2</ele>
      </trkpt>
      <trkpt lat="36.451922" lon="129.076233">
        <ele>237.3</ele>
      </trkpt>
      <trkpt lat="36.45212" lon="129.076165">
        <ele>238.3</ele>
      </trkpt>
      <trkpt lat="36.452447" lon="129.076017">
        <ele>239.4</ele>
      </trkpt>
      <trkpt lat="36.453116" lon="129.07562">
        <ele>240.4</ele>
      </trkpt>
      <trkpt lat="36.45337" lon="129.075456">
        <ele>241.5</ele>
      </trkpt>
      <trkpt lat="36.453466" lon="129.075361">
        <ele>242.5</ele>
      </trkpt>
      <trkpt lat="36.453957" lon="129.074831">
        <ele>243.6</ele>
      </trkpt>
      <trkpt lat="36.454197" lon="129.074609">
        <ele>244.7</ele>
      </trkpt>
      <trkpt lat="36.454378" lon="129.074498">
        <ele>245.7</ele>
      </trkpt>
      <trkpt lat="36.454711" lon="129.074279">
        <ele>246.8</ele>
      </trkpt>
      <trkpt lat="36.45491" lon="129.074184">
        <ele>247.8</ele>
      </trkpt>
      <trkpt lat="36.455255" lon="129.074079">
        <ele>248.9</ele>
      </trkpt>
      <trkpt lat="36.455404" lon="129.073944">
        <ele>250.0</ele>
      </trkpt>
      <trkpt lat="36.455533" lon="129.07378">
        <ele>251.1</ele>
      </trkpt>
      <trkpt lat="36.455652" lon="129.073606">
        <ele>252.1</ele>
      </trkpt>
      <trkpt lat="36.455804" lon="129.07345">
        <ele>253.2</ele>
      </trkpt>
      <trkpt lat="36.45580759667591" lon="129.07345533370975">
        <ele>254.3</ele>
      </trkpt>
      <trkpt lat="36.455804" lon="129.07345">
        <ele>255.5</ele>
      </trkpt>
      <trkpt lat="36.455858" lon="129.073396">
        <ele>256.6</ele>
      </trkpt>
      <trkpt lat="36.456059" lon="129.073257">
        <ele>257.8</ele>
      </trkpt>
      <trkpt lat="36.456309" lon="129.073121">
        <ele>259.0</ele>
      </trkpt>
      <trkpt lat="36.456552" lon="129.072939">
        <ele>260.2</ele>
      </trkpt>
      <trkpt lat="36.457442" lon="129.072232">
        <ele>261.5</ele>
      </trkpt>
      <trkpt lat="36.457543" lon="129.072174">
        <ele>262.8</ele>
      </trkpt>
      <trkpt lat="36.457696" lon="129.072145">
        <ele>264.1</ele>
      </trkpt>
      <trkpt lat="36.458084" lon="129.072091">
        <ele>265.4</ele>
      </trkpt>
      <trkpt lat="36.45844" lon="129.072086">
        <ele>266.8</ele>
      </trkpt>
      <trkpt lat="36.458881" lon="129.072129">
        <ele>268.2</ele>
      </trkpt>
      <trkpt lat="36.45905" lon="129.072129">
        <ele>269.6</ele>
      </trkpt>
      <trkpt lat="36.459273" lon="129.072076">
        <ele>271.0</ele>
      </trkpt>
      <trkpt lat="36.459748" lon="129.07184">
        <ele>272.4</ele>
      </trkpt>
      <trkpt lat="36.460643" lon="129.071578">
        <ele>273.8</ele>
      </trkpt>
      <trkpt lat="36.461072" lon="129.071481">
        <ele>275.2</ele>
      </trkpt>
      <trkpt lat="36.462289" lon="129.071445">
        <ele>276.6</ele>
      </trkpt>
      <trkpt lat="36.462656" lon="129.071558">
        <ele>278.0</ele>
      </trkpt>
      <trkpt lat="36.46265901233928" lon="129.07154560089114">
        <ele>279.4</ele>
      </trkpt>
      <trkpt lat="36.462656" lon="129.071558">
        <ele>280.8</ele>
      </trkpt>
      <trkpt lat="36.462682" lon="129.071567">
        <ele>282.1</ele>
      </trkpt>
      <trkpt lat="36.463264" lon="129.071835">
        <ele>283.4</ele>
      </trkpt>
      <trkpt lat="36.463695" lon="129.071892">
        <ele>284.7</ele>
      </trkpt>
      <trkpt lat="36.464262" lon="129.071997">
        <ele>285.9</ele>
      </trkpt>
      <trkpt lat="36.46469" lon="129.072382">
        <ele>287.0</ele>
      </trkpt>
      <trkpt lat="36.465017" lon="129.072742">
        <ele>288.1</ele>
      </trkpt>
      <trkpt lat="36.465167" lon="129.072921">
        <ele>289.1</ele>
      </trkpt>
      <trkpt lat="36.465309" lon="129.073268">
        <ele>290.0</ele>
      </trkpt>
      <trkpt lat="36.465638" lon="129.074496">
        <ele>290.9</ele>
      </trkpt>
      <trkpt lat="36.465787" lon="129.07477">
        <ele>291.6</ele>
      </trkpt>
      <trkpt lat="36.465932" lon="129.074942">
        <ele>292.3</ele>
      </trkpt>
      <trkpt lat="36.466024" lon="129.075031">
        <ele>292.9</ele>
      </trkpt>
      <trkpt lat="36.46621" lon="129.075154">
        <ele>293.4</ele>
      </trkpt>
      <trkpt lat="36.466614" lon="129.075357">
        <ele>293.8</ele>
      </trkpt>
      <trkpt lat="36.467042" lon="129.075598">
        <ele>294.1</ele>
      </trkpt>
      <trkpt lat="36.467135" lon="129.075681">
        <ele>294.3</ele>
      </trkpt>
      <trkpt lat="36.467327" lon="129.07591">
        <ele>294.4</ele>
      </trkpt>
      <trkpt lat="36.467495" lon="129.076197">
        <ele>294.4</ele>
      </trkpt>
      <trkpt lat="36.46759" lon="129.076373">
        <ele>294.3</ele>
      </trkpt>
      <trkpt lat="36.467741" lon="129.076615">
        <ele>294.1</ele>
      </trkpt>
      <trkpt lat="36.467898" lon="129.076754">
        <ele>293.8</ele>
      </trkpt>
      <trkpt lat="36.468122" lon="129.07678">
        <ele>293.4</ele>
      </trkpt>
      <trkpt lat="36.468315" lon="129.076709">
        <ele>292.9</ele>
      </trkpt>
      <trkpt lat="36.468525" lon="129.076519">
        <ele>292.4</ele>
      </trkpt>
      <trkpt lat="36.468732" lon="129.076265">
        <ele>291.9</ele>
      </trkpt>
      <trkpt lat="36.46875056870767" lon="129.07628774642947">
        <ele>291.3</ele>
      </trkpt>
      <trkpt lat="36.46913" lon="129.075781">
        <ele>290.7</ele>
      </trkpt>
      <trkpt lat="36.469308" lon="129.075551">
        <ele>290.0</ele>
      </trkpt>
      <trkpt lat="36.469503" lon="129.075379">
        <ele>289.3</ele>
      </trkpt>
      <trkpt lat="36.469834" lon="129.075253">
        <ele>288.6</ele>
      </trkpt>
      <trkpt lat="36.470514" lon="129.075171">
        <ele>287.9</ele>
      </trkpt>
      <trkpt lat="36.471564" lon="129.07495">
        <ele>287.2</ele>
      </trkpt>
      <trkpt lat="36.471879" lon="129.074858">
        <ele>286.6</ele>
      </trkpt>
      <trkpt lat="36.47187381566281" lon="129.07482862472537">
        <ele>286.0</ele>
      </trkpt>
      <trkpt lat="36.471879" lon="129.074858">
        <ele>285.4</ele>
      </trkpt>
      <trkpt lat="36.471891" lon="129.074855">
        <ele>284.9</ele>
      </trkpt>
      <trkpt lat="36.472025" lon="129.075327">
        <ele>284.5</ele>
      </trkpt>
      <trkpt lat="36.472133" lon="129.076229">
        <ele>284.1</ele>
      </trkpt>
      <trkpt lat="36.47219" lon="129.076544">
        <ele>283.8</ele>
      </trkpt>
      <trkpt lat="36.472331" lon="129.077125">
        <ele>283.6</ele>
      </trkpt>
      <trkpt lat="36.472435" lon="129.077656">
        <ele>283.5</ele>
      </trkpt>
      <trkpt lat="36.472435" lon="129.077999">
        <ele>283.5</ele>
      </trkpt>
      <trkpt lat="36.472385" lon="129.078671">
        <ele>283.6</ele>
      </trkpt>
      <trkpt lat="36.472374213699325" lon="129.0786695480347">
        <ele>283.7</ele>
      </trkpt>
      <trkpt lat="36.472385" lon="129.078671">
        <ele>283.9</ele>
      </trkpt>
      <trkpt lat="36.47229" lon="129.079987">
        <ele>284.3</ele>
      </trkpt>
      <trkpt lat="36.47221" lon="129.08147">
        <ele>284.7</ele>
      </trkpt>
      <trkpt lat="36.472167" lon="129.081647">
        <ele>285.2</ele>
      </trkpt>
      <trkpt lat="36.472021" lon="129.081937">
        <ele>285.7</ele>
      </trkpt>
      <trkpt lat="36.471956" lon="129.082167">
        <ele>286.4</ele>
      </trkpt>
      <trkpt lat="36.471986" lon="129.082612">
        <ele>287.0</ele>
      </trkpt>
      <trkpt lat="36.471874" lon="129.082988">
        <ele>287.8</ele>
      </trkpt>
      <trkpt lat="36.47171" lon="129.083798">
        <ele>288.6</ele>
      </trkpt>
      <trkpt lat="36.471606" lon="129.084361">
        <ele>289.4</ele>
      </trkpt>
      <trkpt lat="36.471417" lon="129.084903">
        <ele>290.3</ele>
      </trkpt>
      <trkpt lat="36.471248" lon="129.085735">
        <ele>291.2</ele>
      </trkpt>
      <trkpt lat="36.471153" lon="129.086276">
        <ele>292.2</ele>
      </trkpt>
      <trkpt lat="36.471188" lon="129.086582">
        <ele>293.1</ele>
      </trkpt>
      <trkpt lat="36.471175" lon="129.086936">
        <ele>294.1</ele>
      </trkpt>
      <trkpt lat="36.471152" lon="129.086995">
        <ele>295.0</ele>
      </trkpt>
      <trkpt lat="36.4711145848866" lon="129.0869736671448">
        <ele>296.0</ele>
      </trkpt>
      <trkpt lat="36.471152" lon="129.086995">
        <ele>297.0</ele>
      </trkpt>
      <trkpt lat="36.471041" lon="129.087298">
        <ele>297.9</ele>
      </trkpt>
      <trkpt lat="36.470972" lon="129.087574">
        <ele>298.9</ele>
      </trkpt>
      <trkpt lat="36.470942" lon="129.087888">
        <ele>299.9</ele>
      </trkpt>
      <trkpt lat="36.471009" lon="129.088183">
        <ele>300.8</ele>
      </trkpt>
      <trkpt lat="36.47102" lon="129.08843">
        <ele>301.7</ele>
      </trkpt>
      <trkpt lat="36.470981" lon="129.088966">
        <ele>302.6</ele>
      </trkpt>
      <trkpt lat="36.470966" lon="129.089299">
        <ele>303.4</ele>
      </trkpt>
      <trkpt lat="36.470977" lon="129.089495">
        <ele>304.2</ele>
      </trkpt>
      <trkpt lat="36.470908" lon="129.089752">
        <ele>305.0</ele>
      </trkpt>
      <trkpt lat="36.470666" lon="129.090077">
        <ele>305.8</ele>
      </trkpt>
      <trkpt lat="36.470563" lon="129.09024">
        <ele>306.5</ele>
      </trkpt>
      <trkpt lat="36.470579667828794" lon="129.09025669097903">
        <ele>307.2</ele>
      </trkpt>
      <trkpt lat="36.470563" lon="129.09024">
        <ele>307.9</ele>
      </trkpt>
      <trkpt lat="36.47056" lon="129.090246">
        <ele>308.4</ele>
      </trkpt>
      <trkpt lat="36.470534" lon="129.090394">
        <ele>309.0</ele>
      </trkpt>
      <trkpt lat="36.470616" lon="129.091257">
        <ele>309.5</ele>
      </trkpt>
      <trkpt lat="36.470688" lon="129.0917">
        <ele>310.1</ele>
      </trkpt>
      <trkpt lat="36.470713" lon="129.09193">
        <ele>310.6</ele>
      </trkpt>
      <trkpt lat="36.470733" lon="129.092113">
        <ele>311.1</ele>
      </trkpt>
      <trkpt lat="36.470666" lon="129.092373">
        <ele>311.6</ele>
      </trkpt>
      <trkpt lat="36.470621" lon="129.092641">
        <ele>312.1</ele>
      </trkpt>
      <trkpt lat="36.470612" lon="129.092993">
        <ele>312.6</ele>
      </trkpt>
      <trkpt lat="36.470586" lon="129.093137">
        <ele>313.1</ele>
      </trkpt>
      <trkpt lat="36.47034" lon="129.093524">
        <ele>313.6</ele>
      </trkpt>
      <trkpt lat="36.470181" lon="129.093717">
        <ele>314.0</ele>
      </trkpt>
      <trkpt lat="36.469961" lon="129.093891">
        <ele>314.5</ele>
      </trkpt>
      <trkpt lat="36.469769" lon="129.094063">
        <ele>314.9</ele>
      </trkpt>
      <trkpt lat="36.469605" lon="129.094296">
        <ele>315.4</ele>
      </trkpt>
      <trkpt lat="36.469582" lon="129.094336">
        <ele>315.9</ele>
      </trkpt>
      <trkpt lat="36.469578845354775" lon="129.09433364868167">
        <ele>316.4</ele>
      </trkpt>
      <trkpt lat="36.469582" lon="129.094336">
        <ele>316.9</ele>
      </trkpt>
      <trkpt lat="36.469557" lon="129.094382">
        <ele>317.4</ele>
      </trkpt>
      <trkpt lat="36.469484" lon="129.09459">
        <ele>317.9</ele>
      </trkpt>
      <trkpt lat="36.469429" lon="129.094673">
        <ele>318.4</ele>
      </trkpt>
      <trkpt lat="36.469208" lon="129.094943">
        <ele>318.9</ele>
      </trkpt>
      <trkpt lat="36.469021" lon="129.095258">
        <ele>319.4</ele>
      </trkpt>
      <trkpt lat="36.468875" lon="129.09544">
        <ele>319.9</ele>
      </trkpt>
      <trkpt lat="36.468702" lon="129.095656">
        <ele>320.5</ele>
      </trkpt>
      <trkpt lat="36.468569" lon="129.095891">
        <ele>321.1</ele>
      </trkpt>
      <trkpt lat="36.468509" lon="129.096069">
        <ele>321.6</ele>
      </trkpt>
      <trkpt lat="36.468421" lon="129.09643">
        <ele>322.2</ele>
      </trkpt>
      <trkpt lat="36.468362" lon="129.096536">
        <ele>322.9</ele>
      </trkpt>
      <trkpt lat="36.468318" lon="129.096596">
        <ele>323.6</ele>
      </trkpt>
      <trkpt lat="36.468229" lon="129.096717">
        <ele>324.3</ele>
      </trkpt>
      <trkpt lat="36.46805" lon="129.096997">
        <ele>325.1</ele>
      </trkpt>
      <trkpt lat="36.467985" lon="129.097051">
        <ele>325.9</ele>
      </trkpt>
      <trkpt lat="36.467711" lon="129.09717">
        <ele>326.7</ele>
      </trkpt>
      <trkpt lat="36.467584" lon="129.097324">
        <ele>327.6</ele>
      </trkpt>
      <trkpt lat="36.46748" lon="129.097511">
        <ele>328.4</ele>
      </trkpt>
      <trkpt lat="36.467378" lon="129.097743">
        <ele>329.3</ele>
      </trkpt>
      <trkpt lat="36.467177" lon="129.098156">
        <ele>330.1</ele>
      </trkpt>
      <trkpt lat="36.467076" lon="129.098412">
        <ele>331.0</ele>
      </trkpt>
      <trkpt lat="36.466983" lon="129.098595">
        <ele>331.9</ele>
      </trkpt>
      <trkpt lat="36.466938682688074" lon="129.09856081008914">
        <ele>332.9</ele>
      </trkpt>
      <trkpt lat="36.466983" lon="129.098595">
        <ele>333.8</ele>
      </trkpt>
      <trkpt lat="36.466906" lon="129.098751">
        <ele>334.8</ele>
      </trkpt>
      <trkpt lat="36.46687" lon="129.098824">
        <ele>335.7</ele>
      </trkpt>
      <trkpt lat="36.466662" lon="129.099096">
        <ele>336.7</ele>
      </trkpt>
      <trkpt lat="36.466589" lon="129.099253">
        <ele>337.7</ele>
      </trkpt>
      <trkpt lat="36.466447" lon="129.099687">
        <ele>338.8</ele>
      </trkpt>
      <trkpt lat="36.466326" lon="129.099907">
        <ele>339.8</ele>
      </trkpt>
      <trkpt lat="36.466106" lon="129.100031">
        <ele>340.9</ele>
      </trkpt>
      <trkpt lat="36.465912" lon="129.100127">
        <ele>342.0</ele>
      </trkpt>
      <trkpt lat="36.465735" lon="129.100133">
        <ele>343.1</ele>
      </trkpt>
      <trkpt lat="36.465511" lon="129.100235">
        <ele>344.3</ele>
      </trkpt>
      <trkpt lat="36.465273" lon="129.100395">
        <ele>345.4</ele>
      </trkpt>
      <trkpt lat="36.465071" lon="129.100653">
        <ele>346.6</ele>
      </trkpt>
      <trkpt lat="36.464971" lon="129.100873">
        <ele>347.8</ele>
      </trkpt>
      <trkpt lat="36.464868" lon="129.101227">
        <ele>348.9</ele>
      </trkpt>
      <trkpt lat="36.464833" lon="129.101495">
        <ele>350.1</ele>
      </trkpt>
      <trkpt lat="36.464808" lon="129.101806">
        <ele>351.3</ele>
      </trkpt>
      <trkpt lat="36.46476" lon="129.102096">
        <ele>352.5</ele>
      </trkpt>
      <trkpt lat="36.46473" lon="129.102241">
        <ele>353.6</ele>
      </trkpt>
      <trkpt lat="36.464682" lon="129.10228">
        <ele>354.8</ele>
      </trkpt>
      <trkpt lat="36.4646780798023" lon="129.10227298736575">
        <ele>355.9</ele>
      </trkpt>
      <trkpt lat="36.464682" lon="129.10228">
        <ele>357.0</ele>
      </trkpt>
      <trkpt lat="36.464596" lon="129.102353">
        <ele>358.1</ele>
      </trkpt>
      <trkpt lat="36.464449" lon="129.102461">
        <ele>359.2</ele>
      </trkpt>
      <trkpt lat="36.46427" lon="129.10264">
        <ele>360.4</ele>
      </trkpt>
      <trkpt lat="36.464199" lon="129.102742">
        <ele>361.5</ele>
      </trkpt>
      <trkpt lat="36.464096" lon="129.103137">
        <ele>362.7</ele>
      </trkpt>
      <trkpt lat="36.463949" lon="129.103378">
        <ele>363.9</ele>
      </trkpt>
      <trkpt lat="36.463798" lon="129.103593">
        <ele>365.1</ele>
      </trkpt>
      <trkpt lat="36.463492" lon="129.103915">
        <ele>366.4</ele>
      </trkpt>
      <trkpt lat="36.463306" lon="129.104129">
        <ele>367.7</ele>
      </trkpt>
      <trkpt lat="36.463177" lon="129.104333">
        <ele>369.0</ele>
      </trkpt>
      <trkpt lat="36.463103" lon="129.104499">
        <ele>370.3</ele>
      </trkpt>
      <trkpt lat="36.462944" lon="129.105038">
        <ele>371.7</ele>
      </trkpt>
      <trkpt lat="36.462788" lon="129.105374">
        <ele>373.1</ele>
      </trkpt>
      <trkpt lat="36.462713" lon="129.105596">
        <ele>374.5</ele>
      </trkpt>
      <trkpt lat="36.462673" lon="129.105733">
        <ele>376.0</ele>
      </trkpt>
      <trkpt lat="36.462591" lon="129.106058">
        <ele>377.5</ele>
      </trkpt>
      <trkpt lat="36.462625" lon="129.106388">
        <ele>379.0</ele>
      </trkpt>
      <trkpt lat="36.462552" lon="129.106704">
        <ele>380.6</ele>
      </trkpt>
      <trkpt lat="36.462341" lon="129.10746">
        <ele>382.3</ele>
      </trkpt>
      <trkpt lat="36.462325" lon="129.107575">
        <ele>383.9</ele>
      </trkpt>
      <trkpt lat="36.462313867339915" lon="129.10757303237918">
        <ele>385.6</ele>
      </trkpt>
      <trkpt lat="36.462325" lon="129.107575">
        <ele>387.4</ele>
      </trkpt>
      <trkpt lat="36.46228" lon="129.1079">
        <ele>389.2</ele>
      </trkpt>
      <trkpt lat="36.462138" lon="129.108324">
        <ele>391.0</ele>
      </trkpt>
      <trkpt lat="36.462134" lon="129.108828">
        <ele>392.9</ele>
      </trkpt>
      <trkpt lat="36.462112" lon="129.108984">
        <ele>394.8</ele>
      </trkpt>
      <trkpt lat="36.462065" lon="129.109139">
        <ele>396.7</ele>
      </trkpt>
      <trkpt lat="36.461879" lon="129.10951">
        <ele>398.6</ele>
      </trkpt>
      <trkpt lat="36.46184" lon="129.109665">
        <ele>400.6</ele>
      </trkpt>
      <trkpt lat="36.461815" lon="129.109853">
        <ele>402.6</ele>
      </trkpt>
      <trkpt lat="36.461819" lon="129.110223">
        <ele>404.6</ele>
      </trkpt>
      <trkpt lat="36.461866" lon="129.110416">
        <ele>406.6</ele>
      </trkpt>
      <trkpt lat="36.462046" lon="129.110695">
        <ele>408.6</ele>
      </trkpt>
      <trkpt lat="36.462213" lon="129.110852">
        <ele>410.7</ele>
      </trkpt>
      <trkpt lat="36.462312" lon="129.110984">
        <ele>412.7</ele>
      </trkpt>
      <trkpt lat="36.462351" lon="129.111202">
        <ele>414.8</ele>
      </trkpt>
      <trkpt lat="36.462384" lon="129.111435">
        <ele>416.8</ele>
      </trkpt>
      <trkpt lat="36.462395" lon="129.111725">
        <ele>418.8</ele>
      </trkpt>
      <trkpt lat="36.462365" lon="129.112347">
        <ele>420.8</ele>
      </trkpt>
      <trkpt lat="36.46249" lon="129.113388">
        <ele>422.8</ele>
      </trkpt>
      <trkpt lat="36.462516" lon="129.113457">
        <ele>424.7</ele>
      </trkpt>
      <trkpt lat="36.46245192552403" lon="129.11349534988406">
        <ele>426.6</ele>
      </trkpt>
      <trkpt lat="36.462516" lon="129.113457">
        <ele>428.5</ele>
      </trkpt>
      <trkpt lat="36.462579" lon="129.113626">
        <ele>430.3</ele>
      </trkpt>
      <trkpt lat="36.462731" lon="129.113935">
        <ele>432.1</ele>
      </trkpt>
      <trkpt lat="36.462858" lon="129.114168">
        <ele>433.9</ele>
      </trkpt>
      <trkpt lat="36.462969" lon="129.114261">
        <ele>435.6</ele>
      </trkpt>
      <trkpt lat="36.463183" lon="129.11433">
        <ele>437.2</ele>
      </trkpt>
      <trkpt lat="36.463409" lon="129.114361">
        <ele>438.7</ele>
      </trkpt>
      <trkpt lat="36.463469" lon="129.114318">
        <ele>440.2</ele>
      </trkpt>
      <trkpt lat="36.463466" lon="129.114225">
        <ele>441.6</ele>
      </trkpt>
      <trkpt lat="36.463442" lon="129.114194">
        <ele>443.0</ele>
      </trkpt>
      <trkpt lat="36.46341832592986" lon="129.1142249107361">
        <ele>444.3</ele>
      </trkpt>
      <trkpt lat="36.463442" lon="129.114194">
        <ele>445.5</ele>
      </trkpt>
      <trkpt lat="36.46338" lon="129.114115">
        <ele>446.7</ele>
      </trkpt>
      <trkpt lat="36.463221" lon="129.113995">
        <ele>447.8</ele>
      </trkpt>
      <trkpt lat="36.46315" lon="129.113881">
        <ele>448.9</ele>
      </trkpt>
      <trkpt lat="36.463133" lon="129.113779">
        <ele>450.0</ele>
      </trkpt>
      <trkpt lat="36.463133" lon="129.113634">
        <ele>451.1</ele>
      </trkpt>
      <trkpt lat="36.463158" lon="129.113538">
        <ele>452.2</ele>
      </trkpt>
      <trkpt lat="36.463258" lon="129.113472">
        <ele>453.3</ele>
      </trkpt>
      <trkpt lat="36.463333" lon="129.113455">
        <ele>454.4</ele>
      </trkpt>
      <trkpt lat="36.463536" lon="129.113469">
        <ele>455.5</ele>
      </trkpt>
      <trkpt lat="36.463584" lon="129.113454">
        <ele>456.6</ele>
      </trkpt>
      <trkpt lat="36.463631" lon="129.113396">
        <ele>457.8</ele>
      </trkpt>
      <trkpt lat="36.463633" lon="129.113237">
        <ele>458.9</ele>
      </trkpt>
      <trkpt lat="36.463572" lon="129.11285">
        <ele>460.0</ele>
      </trkpt>
      <trkpt lat="36.463577" lon="129.112775">
        <ele>461.1</ele>
      </trkpt>
      <trkpt lat="36.463612" lon="129.112732">
        <ele>462.2</ele>
      </trkpt>
      <trkpt lat="36.463638" lon="129.112728">
        <ele>463.4</ele>
      </trkpt>
      <trkpt lat="36.46364266715854" lon="129.11278724670413">
        <ele>464.5</ele>
      </trkpt>
      <trkpt lat="36.463638" lon="129.112728">
        <ele>465.7</ele>
      </trkpt>
      <trkpt lat="36.46367" lon="129.112725">
        <ele>466.8</ele>
      </trkpt>
      <trkpt lat="36.46373" lon="129.112761">
        <ele>468.0</ele>
      </trkpt>
      <trkpt lat="36.463812" lon="129.112945">
        <ele>469.2</ele>
      </trkpt>
      <trkpt lat="36.46387" lon="129.1131">
        <ele>470.3</ele>
      </trkpt>
      <trkpt lat="36.463939" lon="129.113178">
        <ele>471.5</ele>
      </trkpt>
      <trkpt lat="36.464021" lon="129.113245">
        <ele>472.7</ele>
      </trkpt>
      <trkpt lat="36.464235" lon="129.113178">
        <ele>473.9</ele>
      </trkpt>
      <trkpt lat="36.464273" lon="129.113181">
        <ele>475.2</ele>
      </trkpt>
      <trkpt lat="36.4643" lon="129.113222">
        <ele>476.4</ele>
      </trkpt>
      <trkpt lat="36.464312" lon="129.113291">
        <ele>477.8</ele>
      </trkpt>
      <trkpt lat="36.464261" lon="129.113554">
        <ele>479.1</ele>
      </trkpt>
      <trkpt lat="36.464179" lon="129.113776">
        <ele>480.5</ele>
      </trkpt>
      <trkpt lat="36.464159" lon="129.114067">
        <ele>482.0</ele>
      </trkpt>
      <trkpt lat="36.464162" lon="129.114138">
        <ele>483.4</ele>
      </trkpt>
      <trkpt lat="36.464169" lon="129.114311">
        <ele>485.0</ele>
      </trkpt>
      <trkpt lat="36.464208" lon="129.114478">
        <ele>486.5</ele>
      </trkpt>
      <trkpt lat="36.464612" lon="129.115227">
        <ele>488.1</ele>
      </trkpt>
      <trkpt lat="36.464625" lon="129.11534">
        <ele>489.6</ele>
      </trkpt>
      <trkpt lat="36.4646" lon="129.115436">
        <ele>491.1</ele>
      </trkpt>
      <trkpt lat="36.46457453916017" lon="129.11542654037478">
        <ele>492.6</ele>
      </trkpt>
      <trkpt lat="36.4646" lon="129.115436">
        <ele>494.0</ele>
      </trkpt>
      <trkpt lat="36.464595" lon="129.115458">
        <ele>495.4</ele>
      </trkpt>
      <trkpt lat="36.464547" lon="129.115533">
        <ele>496.6</ele>
      </trkpt>
      <trkpt lat="36.46447" lon="129.115598">
        <ele>497.9</ele>
      </trkpt>
      <trkpt lat="36.464194" lon="129.115673">
        <ele>499.1</ele>
      </trkpt>
      <trkpt lat="36.463969" lon="129.115673">
        <ele>500.2</ele>
      </trkpt>
      <trkpt lat="36.463797" lon="129.115651">
        <ele>501.3</ele>
      </trkpt>
      <trkpt lat="36.463676" lon="129.115592">
        <ele>502.4</ele>
      </trkpt>
      <trkpt lat="36.463415" lon="129.11548">
        <ele>503.5</ele>
      </trkpt>
      <trkpt lat="36.463359" lon="129.115498">
        <ele>504.6</ele>
      </trkpt>
      <trkpt lat="36.463299" lon="129.115531">
        <ele>505.8</ele>
      </trkpt>
      <trkpt lat="36.463283" lon="129.115565">
        <ele>506.9</ele>
      </trkpt>
      <trkpt lat="36.463236" lon="129.115635">
        <ele>508.0</ele>
      </trkpt>
      <trkpt lat="36.463219" lon="129.115753">
        <ele>509.2</ele>
      </trkpt>
      <trkpt lat="36.463229" lon="129.115789">
        <ele>510.3</ele>
      </trkpt>
      <trkpt lat="36.46322849822932" lon="129.1157913208008">
        <ele>511.5</ele>
      </trkpt>
      <trkpt lat="36.463229" lon="129.115789">
        <ele>512.6</ele>
      </trkpt>
      <trkpt lat="36.463249" lon="129.11586">
        <ele>513.8</ele>
      </trkpt>
      <trkpt lat="36.463568" lon="129.11622">
        <ele>514.9</ele>
      </trkpt>
      <trkpt lat="36.463633" lon="129.116418">
        <ele>516.0</ele>
      </trkpt>
      <trkpt lat="36.463624" lon="129.116963">
        <ele>517.0</ele>
      </trkpt>
      <trkpt lat="36.463818" lon="129.117657">
        <ele>517.9</ele>
      </trkpt>
      <trkpt lat="36.463836" lon="129.117775">
        <ele>518.7</ele>
      </trkpt>
      <trkpt lat="36.463823" lon="129.117904">
        <ele>519.5</ele>
      </trkpt>
      <trkpt lat="36.463784" lon="129.118059">
        <ele>520.0</ele>
      </trkpt>
      <trkpt lat="36.463728" lon="129.118135">
        <ele>520.5</ele>
      </trkpt>
      <trkpt lat="36.463667" lon="129.118145">
        <ele>520.9</ele>
      </trkpt>
      <trkpt lat="36.463633" lon="129.118124">
        <ele>521.1</ele>
      </trkpt>
      <trkpt lat="36.463504" lon="129.117963">
        <ele>521.3</ele>
      </trkpt>
      <trkpt lat="36.463335" lon="129.117877">
        <ele>521.5</ele>
      </trkpt>
      <trkpt lat="36.463135" lon="129.117668">
        <ele>521.6</ele>
      </trkpt>
      <trkpt lat="36.462989" lon="129.117553">
        <ele>521.7</ele>
      </trkpt>
      <trkpt lat="36.46296964152511" lon="129.11759376525882">
        <ele>521.8</ele>
      </trkpt>
      <trkpt lat="36.462989" lon="129.117553">
        <ele>521.9</ele>
      </trkpt>
      <trkpt lat="36.463135" lon="129.117668">
        <ele>522.0</ele>
      </trkpt>
      <trkpt lat="36.463335" lon="129.117877">
        <ele>522.1</ele>
      </trkpt>
      <trkpt lat="36.463504" lon="129.117963">
        <ele>522.2</ele>
      </trkpt>
      <trkpt lat="36.463633" lon="129.118124">
        <ele>522.2</ele>
      </trkpt>
      <trkpt lat="36.463667" lon="129.118145">
        <ele>522.1</ele>
      </trkpt>
      <trkpt lat="36.463728" lon="129.118135">
        <ele>522.0</ele>
      </trkpt>
      <trkpt lat="36.463784" lon="129.118059">
        <ele>521.7</ele>
      </trkpt>
      <trkpt lat="36.463823" lon="129.117904">
        <ele>521.3</ele>
      </trkpt>
      <trkpt lat="36.463836" lon="129.117775">
        <ele>520.8</ele>
      </trkpt>
      <trkpt lat="36.463833" lon="129.117755">
        <ele>520.2</ele>
      </trkpt>
      <trkpt lat="36.46379797993661" lon="129.11776542663577">
        <ele>519.5</ele>
      </trkpt>
      <trkpt lat="36.463833" lon="129.117755">
        <ele>518.6</ele>
      </trkpt>
      <trkpt lat="36.463818" lon="129.117657">
        <ele>517.7</ele>
      </trkpt>
      <trkpt lat="36.463624" lon="129.116963">
        <ele>516.6</ele>
      </trkpt>
      <trkpt lat="36.463633" lon="129.116418">
        <ele>515.5</ele>
      </trkpt>
      <trkpt lat="36.463568" lon="129.11622">
        <ele>514.3</ele>
      </trkpt>
      <trkpt lat="36.463249" lon="129.11586">
        <ele>513.1</ele>
      </trkpt>
      <trkpt lat="36.463219" lon="129.115753">
        <ele>511.9</ele>
      </trkpt>
      <trkpt lat="36.463236" lon="129.115635">
        <ele>510.6</ele>
      </trkpt>
      <trkpt lat="36.463283" lon="129.115565">
        <ele>509.4</ele>
      </trkpt>
      <trkpt lat="36.463299" lon="129.115531">
        <ele>508.2</ele>
      </trkpt>
      <trkpt lat="36.463359" lon="129.115498">
        <ele>507.0</ele>
      </trkpt>
      <trkpt lat="36.463415" lon="129.11548">
        <ele>505.8</ele>
      </trkpt>
      <trkpt lat="36.463676" lon="129.115592">
        <ele>504.7</ele>
      </trkpt>
      <trkpt lat="36.463797" lon="129.115651">
        <ele>503.5</ele>
      </trkpt>
      <trkpt lat="36.463969" lon="129.115673">
        <ele>502.3</ele>
      </trkpt>
      <trkpt lat="36.46404" lon="129.115673">
        <ele>501.1</ele>
      </trkpt>
      <trkpt lat="36.464039576972986" lon="129.11564111709598">
        <ele>499.8</ele>
      </trkpt>
      <trkpt lat="36.46404" lon="129.115673">
        <ele>498.5</ele>
      </trkpt>
      <trkpt lat="36.464194" lon="129.115673">
        <ele>497.2</ele>
      </trkpt>
      <trkpt lat="36.46447" lon="129.115598">
        <ele>495.8</ele>
      </trkpt>
      <trkpt lat="36.464547" lon="129.115533">
        <ele>494.3</ele>
      </trkpt>
      <trkpt lat="36.464595" lon="129.115458">
        <ele>492.8</ele>
      </trkpt>
      <trkpt lat="36.464625" lon="129.11534">
        <ele>491.2</ele>
      </trkpt>
      <trkpt lat="36.464612" lon="129.115227">
        <ele>489.6</ele>
      </trkpt>
      <trkpt lat="36.464208" lon="129.114478">
        <ele>487.9</ele>
      </trkpt>
      <trkpt lat="36.464169" lon="129.114311">
        <ele>486.3</ele>
      </trkpt>
      <trkpt lat="36.464162" lon="129.114138">
        <ele>484.7</ele>
      </trkpt>
      <trkpt lat="36.464159" lon="129.114067">
        <ele>483.2</ele>
      </trkpt>
      <trkpt lat="36.464179" lon="129.113776">
        <ele>481.7</ele>
      </trkpt>
      <trkpt lat="36.464261" lon="129.113554">
        <ele>480.2</ele>
      </trkpt>
      <trkpt lat="36.464312" lon="129.113291">
        <ele>478.8</ele>
      </trkpt>
      <trkpt lat="36.464303" lon="129.11324">
        <ele>477.5</ele>
      </trkpt>
      <trkpt lat="36.464315686949874" lon="129.11323785781863">
        <ele>476.2</ele>
      </trkpt>
      <trkpt lat="36.464303" lon="129.11324">
        <ele>474.9</ele>
      </trkpt>
      <trkpt lat="36.4643" lon="129.113222">
        <ele>473.7</ele>
      </trkpt>
      <trkpt lat="36.464273" lon="129.113181">
        <ele>472.5</ele>
      </trkpt>
      <trkpt lat="36.464235" lon="129.113178">
        <ele>471.3</ele>
      </trkpt>
      <trkpt lat="36.464021" lon="129.113245">
        <ele>470.0</ele>
      </trkpt>
      <trkpt lat="36.463939" lon="129.113178">
        <ele>468.8</ele>
      </trkpt>
      <trkpt lat="36.46387" lon="129.1131">
        <ele>467.5</ele>
      </trkpt>
      <trkpt lat="36.463812" lon="129.112945">
        <ele>466.2</ele>
      </trkpt>
      <trkpt lat="36.46373" lon="129.112761">
        <ele>464.8</ele>
      </trkpt>
      <trkpt lat="36.46367" lon="129.112725">
        <ele>463.5</ele>
      </trkpt>
      <trkpt lat="36.463612" lon="129.112732">
        <ele>462.1</ele>
      </trkpt>
      <trkpt lat="36.463577" lon="129.112775">
        <ele>460.8</ele>
      </trkpt>
      <trkpt lat="36.463572" lon="129.11285">
        <ele>459.4</ele>
      </trkpt>
      <trkpt lat="36.463633" lon="129.113237">
        <ele>458.1</ele>
      </trkpt>
      <trkpt lat="36.463631" lon="129.113396">
        <ele>456.7</ele>
      </trkpt>
      <trkpt lat="36.463584" lon="129.113454">
        <ele>455.3</ele>
      </trkpt>
      <trkpt lat="36.463536" lon="129.113469">
        <ele>454.0</ele>
      </trkpt>
      <trkpt lat="36.463333" lon="129.113455">
        <ele>452.6</ele>
      </trkpt>
      <trkpt lat="36.463258" lon="129.113472">
        <ele>451.2</ele>
      </trkpt>
      <trkpt lat="36.463158" lon="129.113538">
        <ele>449.8</ele>
      </trkpt>
      <trkpt lat="36.463133" lon="129.113634">
        <ele>448.4</ele>
      </trkpt>
      <trkpt lat="36.463133" lon="129.113779">
        <ele>447.1</ele>
      </trkpt>
      <trkpt lat="36.46315" lon="129.113881">
        <ele>445.7</ele>
      </trkpt>
      <trkpt lat="36.463221" lon="129.113995">
        <ele>444.2</ele>
      </trkpt>
      <trkpt lat="36.46338" lon="129.114115">
        <ele>442.8</ele>
      </trkpt>
      <trkpt lat="36.463466" lon="129.114225">
        <ele>441.3</ele>
      </trkpt>
      <trkpt lat="36.463469" lon="129.114318">
        <ele>439.7</ele>
      </trkpt>
      <trkpt lat="36.463409" lon="129.114361">
        <ele>438.0</ele>
      </trkpt>
      <trkpt lat="36.463183" lon="129.11433">
        <ele>436.2</ele>
      </trkpt>
      <trkpt lat="36.462969" lon="129.114261">
        <ele>434.4</ele>
      </trkpt>
      <trkpt lat="36.462858" lon="129.114168">
        <ele>432.5</ele>
      </trkpt>
      <trkpt lat="36.462731" lon="129.113935">
        <ele>430.5</ele>
      </trkpt>
      <trkpt lat="36.462579" lon="129.113626">
        <ele>428.6</ele>
      </trkpt>
      <trkpt lat="36.46249" lon="129.113388">
        <ele>426.5</ele>
      </trkpt>
      <trkpt lat="36.462365" lon="129.112347">
        <ele>424.5</ele>
      </trkpt>
      <trkpt lat="36.462395" lon="129.111725">
        <ele>422.4</ele>
      </trkpt>
      <trkpt lat="36.462384" lon="129.111435">
        <ele>420.4</ele>
      </trkpt>
      <trkpt lat="36.462351" lon="129.111202">
        <ele>418.3</ele>
      </trkpt>
      <trkpt lat="36.462315" lon="129.111002">
        <ele>416.3</ele>
      </trkpt>
      <trkpt lat="36.46238289646269" lon="129.11098480224612">
        <ele>414.2</ele>
      </trkpt>
      <trkpt lat="36.462315" lon="129.111002">
        <ele>412.2</ele>
      </trkpt>
      <trkpt lat="36.462312" lon="129.110984">
        <ele>410.1</ele>
      </trkpt>
      <trkpt lat="36.462213" lon="129.110852">
        <ele>408.1</ele>
      </trkpt>
      <trkpt lat="36.462046" lon="129.110695">
        <ele>406.0</ele>
      </trkpt>
      <trkpt lat="36.461866" lon="129.110416">
        <ele>404.0</ele>
      </trkpt>
      <trkpt lat="36.461819" lon="129.110223">
        <ele>401.9</ele>
      </trkpt>
      <trkpt lat="36.461815" lon="129.109853">
        <ele>399.9</ele>
      </trkpt>
      <trkpt lat="36.46184" lon="129.109665">
        <ele>397.9</ele>
      </trkpt>
      <trkpt lat="36.461879" lon="129.10951">
        <ele>395.9</ele>
      </trkpt>
      <trkpt lat="36.462065" lon="129.109139">
        <ele>394.0</ele>
      </trkpt>
      <trkpt lat="36.462112" lon="129.108984">
        <ele>392.1</ele>
      </trkpt>
      <trkpt lat="36.462134" lon="129.108828">
        <ele>390.1</ele>
      </trkpt>
      <trkpt lat="36.462138" lon="129.108324">
        <ele>388.3</ele>
      </trkpt>
      <trkpt lat="36.46228" lon="129.1079">
        <ele>386.4</ele>
      </trkpt>
      <trkpt lat="36.462341" lon="129.10746">
        <ele>384.6</ele>
      </trkpt>
      <trkpt lat="36.462552" lon="129.106704">
        <ele>382.8</ele>
      </trkpt>
      <trkpt lat="36.462625" lon="129.106388">
        <ele>381.0</ele>
      </trkpt>
      <trkpt lat="36.462591" lon="129.106058">
        <ele>379.3</ele>
      </trkpt>
      <trkpt lat="36.462673" lon="129.105733">
        <ele>377.7</ele>
      </trkpt>
      <trkpt lat="36.462713" lon="129.105596">
        <ele>376.1</ele>
      </trkpt>
      <trkpt lat="36.462788" lon="129.105374">
        <ele>374.6</ele>
      </trkpt>
      <trkpt lat="36.462878" lon="129.105178">
        <ele>373.1</ele>
      </trkpt>
      <trkpt lat="36.46286609860145" lon="129.10516977310184">
        <ele>371.6</ele>
      </trkpt>
      <trkpt lat="36.462878" lon="129.105178">
        <ele>370.2</ele>
      </trkpt>
      <trkpt lat="36.462944" lon="129.105038">
        <ele>368.8</ele>
      </trkpt>
      <trkpt lat="36.463103" lon="129.104499">
        <ele>367.5</ele>
      </trkpt>
      <trkpt lat="36.463177" lon="129.104333">
        <ele>366.1</ele>
      </trkpt>
      <trkpt lat="36.463306" lon="129.104129">
        <ele>364.8</ele>
      </trkpt>
      <trkpt lat="36.463492" lon="129.103915">
        <ele>363.6</ele>
      </trkpt>
      <trkpt lat="36.463798" lon="129.103593">
        <ele>362.3</ele>
      </trkpt>
      <trkpt lat="36.463949" lon="129.103378">
        <ele>361.0</ele>
      </trkpt>
      <trkpt lat="36.464096" lon="129.103137">
        <ele>359.7</ele>
      </trkpt>
      <trkpt lat="36.464199" lon="129.102742">
        <ele>358.5</ele>
      </trkpt>
      <trkpt lat="36.46427" lon="129.10264">
        <ele>357.3</ele>
      </trkpt>
      <trkpt lat="36.464449" lon="129.102461">
        <ele>356.0</ele>
      </trkpt>
      <trkpt lat="36.464596" lon="129.102353">
        <ele>354.8</ele>
      </trkpt>
      <trkpt lat="36.46473" lon="129.102241">
        <ele>353.6</ele>
      </trkpt>
      <trkpt lat="36.46476" lon="129.102096">
        <ele>352.4</ele>
      </trkpt>
      <trkpt lat="36.464808" lon="129.101806">
        <ele>351.1</ele>
      </trkpt>
      <trkpt lat="36.464833" lon="129.101495">
        <ele>349.9</ele>
      </trkpt>
      <trkpt lat="36.464868" lon="129.101227">
        <ele>348.7</ele>
      </trkpt>
      <trkpt lat="36.464971" lon="129.100873">
        <ele>347.5</ele>
      </trkpt>
      <trkpt lat="36.465071" lon="129.100653">
        <ele>346.3</ele>
      </trkpt>
      <trkpt lat="36.465273" lon="129.100395">
        <ele>345.1</ele>
      </trkpt>
      <trkpt lat="36.465511" lon="129.100235">
        <ele>343.9</ele>
      </trkpt>
      <trkpt lat="36.465735" lon="129.100133">
        <ele>342.8</ele>
      </trkpt>
      <trkpt lat="36.465912" lon="129.100127">
        <ele>341.6</ele>
      </trkpt>
      <trkpt lat="36.466106" lon="129.100031">
        <ele>340.5</ele>
      </trkpt>
      <trkpt lat="36.466326" lon="129.099907">
        <ele>339.3</ele>
      </trkpt>
      <trkpt lat="36.466447" lon="129.099687">
        <ele>338.2</ele>
      </trkpt>
      <trkpt lat="36.466589" lon="129.099253">
        <ele>337.2</ele>
      </trkpt>
      <trkpt lat="36.466662" lon="129.099096">
        <ele>336.1</ele>
      </trkpt>
      <trkpt lat="36.46687" lon="129.098824">
        <ele>335.1</ele>
      </trkpt>
      <trkpt lat="36.466906" lon="129.098751">
        <ele>334.1</ele>
      </trkpt>
      <trkpt lat="36.467076" lon="129.098412">
        <ele>333.1</ele>
      </trkpt>
      <trkpt lat="36.467177" lon="129.098156">
        <ele>332.1</ele>
      </trkpt>
      <trkpt lat="36.467378" lon="129.097743">
        <ele>331.2</ele>
      </trkpt>
      <trkpt lat="36.46748" lon="129.097511">
        <ele>330.3</ele>
      </trkpt>
      <trkpt lat="36.467584" lon="129.097324">
        <ele>329.3</ele>
      </trkpt>
      <trkpt lat="36.467711" lon="129.09717">
        <ele>328.4</ele>
      </trkpt>
      <trkpt lat="36.467985" lon="129.097051">
        <ele>327.6</ele>
      </trkpt>
      <trkpt lat="36.468046" lon="129.097">
        <ele>326.7</ele>
      </trkpt>
      <trkpt lat="36.46804307539675" lon="129.09699440002444">
        <ele>325.9</ele>
      </trkpt>
      <trkpt lat="36.468046" lon="129.097">
        <ele>325.1</ele>
      </trkpt>
      <trkpt lat="36.46805" lon="129.096997">
        <ele>324.3</ele>
      </trkpt>
      <trkpt lat="36.468229" lon="129.096717">
        <ele>323.5</ele>
      </trkpt>
      <trkpt lat="36.468318" lon="129.096596">
        <ele>322.8</ele>
      </trkpt>
      <trkpt lat="36.468362" lon="129.096536">
        <ele>322.0</ele>
      </trkpt>
      <trkpt lat="36.468421" lon="129.09643">
        <ele>321.4</ele>
      </trkpt>
      <trkpt lat="36.468509" lon="129.096069">
        <ele>320.7</ele>
      </trkpt>
      <trkpt lat="36.468569" lon="129.095891">
        <ele>320.1</ele>
      </trkpt>
      <trkpt lat="36.468702" lon="129.095656">
        <ele>319.5</ele>
      </trkpt>
      <trkpt lat="36.468875" lon="129.09544">
        <ele>318.9</ele>
      </trkpt>
      <trkpt lat="36.469021" lon="129.095258">
        <ele>318.3</ele>
      </trkpt>
      <trkpt lat="36.469208" lon="129.094943">
        <ele>317.7</ele>
      </trkpt>
      <trkpt lat="36.469429" lon="129.094673">
        <ele>317.1</ele>
      </trkpt>
      <trkpt lat="36.469484" lon="129.09459">
        <ele>316.6</ele>
      </trkpt>
      <trkpt lat="36.469557" lon="129.094382">
        <ele>316.0</ele>
      </trkpt>
      <trkpt lat="36.469605" lon="129.094296">
        <ele>315.5</ele>
      </trkpt>
      <trkpt lat="36.469769" lon="129.094063">
        <ele>315.0</ele>
      </trkpt>
      <trkpt lat="36.469961" lon="129.093891">
        <ele>314.4</ele>
      </trkpt>
      <trkpt lat="36.470181" lon="129.093717">
        <ele>313.9</ele>
      </trkpt>
      <trkpt lat="36.47034" lon="129.093524">
        <ele>313.3</ele>
      </trkpt>
      <trkpt lat="36.470586" lon="129.093137">
        <ele>312.8</ele>
      </trkpt>
      <trkpt lat="36.470612" lon="129.092993">
        <ele>312.2</ele>
      </trkpt>
      <trkpt lat="36.470621" lon="129.092641">
        <ele>311.6</ele>
      </trkpt>
      <trkpt lat="36.470666" lon="129.092373">
        <ele>311.0</ele>
      </trkpt>
      <trkpt lat="36.470733" lon="129.092113">
        <ele>310.3</ele>
      </trkpt>
      <trkpt lat="36.470713" lon="129.09193">
        <ele>309.7</ele>
      </trkpt>
      <trkpt lat="36.470688" lon="129.0917">
        <ele>309.0</ele>
      </trkpt>
      <trkpt lat="36.470616" lon="129.091257">
        <ele>308.3</ele>
      </trkpt>
      <trkpt lat="36.470534" lon="129.090394">
        <ele>307.6</ele>
      </trkpt>
      <trkpt lat="36.47056" lon="129.090246">
        <ele>306.9</ele>
      </trkpt>
      <trkpt lat="36.470666" lon="129.090077">
        <ele>306.1</ele>
      </trkpt>
      <trkpt lat="36.470908" lon="129.089752">
        <ele>305.2</ele>
      </trkpt>
      <trkpt lat="36.470977" lon="129.089495">
        <ele>304.4</ele>
      </trkpt>
      <trkpt lat="36.470966" lon="129.089299">
        <ele>303.5</ele>
      </trkpt>
      <trkpt lat="36.470981" lon="129.088966">
        <ele>302.6</ele>
      </trkpt>
      <trkpt lat="36.47102" lon="129.08843">
        <ele>301.6</ele>
      </trkpt>
      <trkpt lat="36.471009" lon="129.088183">
        <ele>300.6</ele>
      </trkpt>
      <trkpt lat="36.470942" lon="129.087888">
        <ele>299.7</ele>
      </trkpt>
      <trkpt lat="36.470972" lon="129.087574">
        <ele>298.7</ele>
      </trkpt>
      <trkpt lat="36.471041" lon="129.087298">
        <ele>297.7</ele>
      </trkpt>
      <trkpt lat="36.471175" lon="129.086936">
        <ele>296.8</ele>
      </trkpt>
      <trkpt lat="36.471188" lon="129.086582">
        <ele>295.9</ele>
      </trkpt>
      <trkpt lat="36.471153" lon="129.086276">
        <ele>294.9</ele>
      </trkpt>
      <trkpt lat="36.471221" lon="129.085888">
        <ele>294.1</ele>
      </trkpt>
      <trkpt lat="36.47118360617356" lon="129.08587932586673">
        <ele>293.2</ele>
      </trkpt>
      <trkpt lat="36.471221" lon="129.085888">
        <ele>292.4</ele>
      </trkpt>
      <trkpt lat="36.471248" lon="129.085735">
        <ele>291.5</ele>
      </trkpt>
      <trkpt lat="36.471417" lon="129.084903">
        <ele>290.8</ele>
      </trkpt>
      <trkpt lat="36.471606" lon="129.084361">
        <ele>290.0</ele>
      </trkpt>
      <trkpt lat="36.47171" lon="129.083798">
        <ele>289.3</ele>
      </trkpt>
      <trkpt lat="36.471874" lon="129.082988">
        <ele>288.7</ele>
      </trkpt>
      <trkpt lat="36.471986" lon="129.082612">
        <ele>288.1</ele>
      </trkpt>
      <trkpt lat="36.471956" lon="129.082167">
        <ele>287.6</ele>
      </trkpt>
      <trkpt lat="36.472021" lon="129.081937">
        <ele>287.2</ele>
      </trkpt>
      <trkpt lat="36.472167" lon="129.081647">
        <ele>286.8</ele>
      </trkpt>
      <trkpt lat="36.47221" lon="129.08147">
        <ele>286.5</ele>
      </trkpt>
      <trkpt lat="36.47229" lon="129.079987">
        <ele>286.3</ele>
      </trkpt>
      <trkpt lat="36.472435" lon="129.077999">
        <ele>286.2</ele>
      </trkpt>
      <trkpt lat="36.472435" lon="129.077656">
        <ele>286.1</ele>
      </trkpt>
      <trkpt lat="36.472331" lon="129.077125">
        <ele>286.2</ele>
      </trkpt>
      <trkpt lat="36.472236" lon="129.076736">
        <ele>286.3</ele>
      </trkpt>
      <trkpt lat="36.47223617318434" lon="129.07673835754397">
        <ele>286.5</ele>
      </trkpt>
      <trkpt lat="36.472236" lon="129.076736">
        <ele>286.8</ele>
      </trkpt>
      <trkpt lat="36.47219" lon="129.076544">
        <ele>287.2</ele>
      </trkpt>
      <trkpt lat="36.472133" lon="129.076229">
        <ele>287.7</ele>
      </trkpt>
      <trkpt lat="36.472025" lon="129.075327">
        <ele>288.2</ele>
      </trkpt>
      <trkpt lat="36.471891" lon="129.074855">
        <ele>288.8</ele>
      </trkpt>
      <trkpt lat="36.471564" lon="129.07495">
        <ele>289.4</ele>
      </trkpt>
      <trkpt lat="36.470514" lon="129.075171">
        <ele>290.1</ele>
      </trkpt>
      <trkpt lat="36.469834" lon="129.075253">
        <ele>290.8</ele>
      </trkpt>
      <trkpt lat="36.469503" lon="129.075379">
        <ele>291.5</ele>
      </trkpt>
      <trkpt lat="36.469308" lon="129.075551">
        <ele>292.2</ele>
      </trkpt>
      <trkpt lat="36.46913" lon="129.075781">
        <ele>292.8</ele>
      </trkpt>
      <trkpt lat="36.468525" lon="129.076519">
        <ele>293.4</ele>
      </trkpt>
      <trkpt lat="36.468315" lon="129.076709">
        <ele>293.9</ele>
      </trkpt>
      <trkpt lat="36.468122" lon="129.07678">
        <ele>294.5</ele>
      </trkpt>
      <trkpt lat="36.467898" lon="129.076754">
        <ele>294.9</ele>
      </trkpt>
      <trkpt lat="36.467741" lon="129.076615">
        <ele>295.3</ele>
      </trkpt>
      <trkpt lat="36.46759" lon="129.076373">
        <ele>295.6</ele>
      </trkpt>
      <trkpt lat="36.467495" lon="129.076197">
        <ele>295.9</ele>
      </trkpt>
      <trkpt lat="36.467404" lon="129.076041">
        <ele>296.1</ele>
      </trkpt>
      <trkpt lat="36.46737008796244" lon="129.07607316970828">
        <ele>296.1</ele>
      </trkpt>
      <trkpt lat="36.467404" lon="129.076041">
        <ele>296.1</ele>
      </trkpt>
      <trkpt lat="36.467327" lon="129.07591">
        <ele>296.0</ele>
      </trkpt>
      <trkpt lat="36.467135" lon="129.075681">
        <ele>295.8</ele>
      </trkpt>
      <trkpt lat="36.467042" lon="129.075598">
        <ele>295.4</ele>
      </trkpt>
      <trkpt lat="36.466614" lon="129.075357">
        <ele>295.0</ele>
      </trkpt>
      <trkpt lat="36.46621" lon="129.075154">
        <ele>294.5</ele>
      </trkpt>
      <trkpt lat="36.466024" lon="129.075031">
        <ele>293.9</ele>
      </trkpt>
      <trkpt lat="36.465932" lon="129.074942">
        <ele>293.2</ele>
      </trkpt>
      <trkpt lat="36.465787" lon="129.07477">
        <ele>292.4</ele>
      </trkpt>
      <trkpt lat="36.465638" lon="129.074496">
        <ele>291.6</ele>
      </trkpt>
      <trkpt lat="36.465309" lon="129.073268">
        <ele>290.6</ele>
      </trkpt>
      <trkpt lat="36.465167" lon="129.072921">
        <ele>289.6</ele>
      </trkpt>
      <trkpt lat="36.465017" lon="129.072742">
        <ele>288.4</ele>
      </trkpt>
      <trkpt lat="36.46469" lon="129.072382">
        <ele>287.2</ele>
      </trkpt>
      <trkpt lat="36.464262" lon="129.071997">
        <ele>286.0</ele>
      </trkpt>
      <trkpt lat="36.463695" lon="129.071892">
        <ele>284.6</ele>
      </trkpt>
      <trkpt lat="36.463264" lon="129.071835">
        <ele>283.3</ele>
      </trkpt>
      <trkpt lat="36.462682" lon="129.071567">
        <ele>281.8</ele>
      </trkpt>
      <trkpt lat="36.462289" lon="129.071445">
        <ele>280.3</ele>
      </trkpt>
      <trkpt lat="36.461072" lon="129.071481">
        <ele>278.9</ele>
      </trkpt>
      <trkpt lat="36.460643" lon="129.071578">
        <ele>277.4</ele>
      </trkpt>
      <trkpt lat="36.460189" lon="129.07171">
        <ele>275.9</ele>
      </trkpt>
      <trkpt lat="36.4601911918152" lon="129.0717172622681">
        <ele>274.4</ele>
      </trkpt>
      <trkpt lat="36.460189" lon="129.07171">
        <ele>272.9</ele>
      </trkpt>
      <trkpt lat="36.459748" lon="129.07184">
        <ele>271.5</ele>
      </trkpt>
      <trkpt lat="36.459273" lon="129.072076">
        <ele>270.0</ele>
      </trkpt>
      <trkpt lat="36.45905" lon="129.072129">
        <ele>268.6</ele>
      </trkpt>
      <trkpt lat="36.458881" lon="129.072129">
        <ele>267.1</ele>
      </trkpt>
      <trkpt lat="36.45844" lon="129.072086">
        <ele>265.7</ele>
      </trkpt>
      <trkpt lat="36.458084" lon="129.072091">
        <ele>264.3</ele>
      </trkpt>
      <trkpt lat="36.457696" lon="129.072145">
        <ele>262.9</ele>
      </trkpt>
      <trkpt lat="36.457543" lon="129.072174">
        <ele>261.5</ele>
      </trkpt>
      <trkpt lat="36.457442" lon="129.072232">
        <ele>260.2</ele>
      </trkpt>
      <trkpt lat="36.456552" lon="129.072939">
        <ele>258.9</ele>
      </trkpt>
      <trkpt lat="36.456309" lon="129.073121">
        <ele>257.6</ele>
      </trkpt>
      <trkpt lat="36.456059" lon="129.073257">
        <ele>256.4</ele>
      </trkpt>
      <trkpt lat="36.455858" lon="129.073396">
        <ele>255.2</ele>
      </trkpt>
      <trkpt lat="36.455652" lon="129.073606">
        <ele>253.9</ele>
      </trkpt>
      <trkpt lat="36.455533" lon="129.07378">
        <ele>252.8</ele>
      </trkpt>
      <trkpt lat="36.455404" lon="129.073944">
        <ele>251.6</ele>
      </trkpt>
      <trkpt lat="36.455255" lon="129.074079">
        <ele>250.4</ele>
      </trkpt>
      <trkpt lat="36.45491" lon="129.074184">
        <ele>249.2</ele>
      </trkpt>
      <trkpt lat="36.454711" lon="129.074279">
        <ele>248.1</ele>
      </trkpt>
      <trkpt lat="36.454378" lon="129.074498">
        <ele>246.9</ele>
      </trkpt>
      <trkpt lat="36.454197" lon="129.074609">
        <ele>245.8</ele>
      </trkpt>
      <trkpt lat="36.453957" lon="129.074831">
        <ele>244.6</ele>
      </trkpt>
      <trkpt lat="36.453466" lon="129.075361">
        <ele>243.5</ele>
      </trkpt>
      <trkpt lat="36.45337" lon="129.075456">
        <ele>242.4</ele>
      </trkpt>
      <trkpt lat="36.453116" lon="129.07562">
        <ele>241.3</ele>
      </trkpt>
      <trkpt lat="36.452447" lon="129.076017">
        <ele>240.2</ele>
      </trkpt>
      <trkpt lat="36.45212" lon="129.076165">
        <ele>239.1</ele>
      </trkpt>
      <trkpt lat="36.451922" lon="129.076233">
        <ele>238.0</ele>
      </trkpt>
      <trkpt lat="36.451824" lon="129.076245">
        <ele>236.9</ele>
      </trkpt>
      <trkpt lat="36.451820726110626" lon="129.076201915741">
        <ele>235.8</ele>
      </trkpt>
      <trkpt lat="36.451824" lon="129.076245">
        <ele>234.7</ele>
      </trkpt>
      <trkpt lat="36.450932" lon="129.076355">
        <ele>233.6</ele>
      </trkpt>
      <trkpt lat="36.450187" lon="129.076414">
        <ele>232.5</ele>
      </trkpt>
      <trkpt lat="36.449302" lon="129.076521">
        <ele>231.4</ele>
      </trkpt>
      <trkpt lat="36.448604" lon="129.076623">
        <ele>230.3</ele>
      </trkpt>
      <trkpt lat="36.448294" lon="129.076583">
        <ele>229.3</ele>
      </trkpt>
      <trkpt lat="36.447934" lon="129.076461">
        <ele>228.2</ele>
      </trkpt>
      <trkpt lat="36.447057" lon="129.076193">
        <ele>227.2</ele>
      </trkpt>
      <trkpt lat="36.44658" lon="129.076177">
        <ele>226.2</ele>
      </trkpt>
      <trkpt lat="36.446089" lon="129.076128">
        <ele>225.1</ele>
      </trkpt>
      <trkpt lat="36.445678" lon="129.075909">
        <ele>224.1</ele>
      </trkpt>
      <trkpt lat="36.445434" lon="129.075691">
        <ele>223.1</ele>
      </trkpt>
      <trkpt lat="36.445399880438146" lon="129.0757513046265">
        <ele>222.1</ele>
      </trkpt>
      <trkpt lat="36.445434" lon="129.075691">
        <ele>221.1</ele>
      </trkpt>
      <trkpt lat="36.445282" lon="129.075554">
        <ele>220.1</ele>
      </trkpt>
      <trkpt lat="36.444643" lon="129.074951">
        <ele>219.2</ele>
      </trkpt>
      <trkpt lat="36.443329" lon="129.073845">
        <ele>218.2</ele>
      </trkpt>
      <trkpt lat="36.443281" lon="129.073814">
        <ele>217.3</ele>
      </trkpt>
      <trkpt lat="36.442669" lon="129.073421">
        <ele>216.3</ele>
      </trkpt>
      <trkpt lat="36.44252" lon="129.073351">
        <ele>215.4</ele>
      </trkpt>
      <trkpt lat="36.442337" lon="129.073301">
        <ele>214.5</ele>
      </trkpt>
      <trkpt lat="36.442239" lon="129.073053">
        <ele>213.7</ele>
      </trkpt>
      <trkpt lat="36.442127" lon="129.072839">
        <ele>212.8</ele>
      </trkpt>
      <trkpt lat="36.441919" lon="129.072492">
        <ele>212.0</ele>
      </trkpt>
      <trkpt lat="36.441136" lon="129.071113">
        <ele>211.2</ele>
      </trkpt>
      <trkpt lat="36.440698" lon="129.0705">
        <ele>210.4</ele>
      </trkpt>
      <trkpt lat="36.440635" lon="129.070396">
        <ele>209.6</ele>
      </trkpt>
      <trkpt lat="36.44067020800459" lon="129.0703654289246">
        <ele>208.8</ele>
      </trkpt>
      <trkpt lat="36.440635" lon="129.070396">
        <ele>208.1</ele>
      </trkpt>
      <trkpt lat="36.440194" lon="129.069655">
        <ele>207.3</ele>
      </trkpt>
      <trkpt lat="36.440087" lon="129.069539">
        <ele>206.6</ele>
      </trkpt>
      <trkpt lat="36.439501" lon="129.069037">
        <ele>205.9</ele>
      </trkpt>
      <trkpt lat="36.439178" lon="129.068653">
        <ele>205.3</ele>
      </trkpt>
      <trkpt lat="36.438629" lon="129.067902">
        <ele>204.6</ele>
      </trkpt>
      <trkpt lat="36.438102" lon="129.067233">
        <ele>203.9</ele>
      </trkpt>
      <trkpt lat="36.437555" lon="129.06646">
        <ele>203.3</ele>
      </trkpt>
      <trkpt lat="36.437293" lon="129.065956">
        <ele>202.7</ele>
      </trkpt>
      <trkpt lat="36.436487" lon="129.064543">
        <ele>202.1</ele>
      </trkpt>
      <trkpt lat="36.436376" lon="129.064368">
        <ele>201.5</ele>
      </trkpt>
      <trkpt lat="36.436113" lon="129.063877">
        <ele>201.0</ele>
      </trkpt>
      <trkpt lat="36.435691" lon="129.063089">
        <ele>200.4</ele>
      </trkpt>
      <trkpt lat="36.435613" lon="129.06296">
        <ele>199.9</ele>
      </trkpt>
      <trkpt lat="36.435713" lon="129.062822">
        <ele>199.4</ele>
      </trkpt>
      <trkpt lat="36.435667" lon="129.062735">
        <ele>199.0</ele>
      </trkpt>
      <trkpt lat="36.435655" lon="129.062712">
        <ele>198.5</ele>
      </trkpt>
      <trkpt lat="36.435560456906884" lon="129.06279087066653">
        <ele>198.1</ele>
      </trkpt>
      <trkpt lat="36.435531" lon="129.062814">
        <ele>197.9</ele>
      </trkpt>
      <trkpt lat="36.435197" lon="129.062219">
        <ele>197.6</ele>
      </trkpt>
      <trkpt lat="36.434535" lon="129.06267">
        <ele>197.4</ele>
      </trkpt>
      <trkpt lat="36.434242" lon="129.062821">
        <ele>197.2</ele>
      </trkpt>
      <trkpt lat="36.434159" lon="129.062839">
        <ele>196.9</ele>
      </trkpt>
      <trkpt lat="36.43371" lon="129.06303">
        <ele>196.7</ele>
      </trkpt>
      <trkpt lat="36.433624" lon="129.063066">
        <ele>196.5</ele>
      </trkpt>
      <trkpt lat="36.433549" lon="129.063029">
        <ele>196.3</ele>
      </trkpt>
      <trkpt lat="36.433474" lon="129.062963">
        <ele>196.1</ele>
      </trkpt>
      <trkpt lat="36.433305" lon="129.062439">
        <ele>195.9</ele>
      </trkpt>
      <trkpt lat="36.43324714814895" lon="129.06246900558475">
        <ele>195.7</ele>
      </trkpt>
      <trkpt lat="36.433275" lon="129.062347">
        <ele>195.5</ele>
      </trkpt>
      <trkpt lat="36.43323" lon="129.061899">
        <ele>195.3</ele>
      </trkpt>
      <trkpt lat="36.433076" lon="129.061351">
        <ele>195.1</ele>
      </trkpt>
      <trkpt lat="36.433074510402406" lon="129.06135320663455">
        <ele>195.0</ele>
      </trkpt>
    </trkseg>
  </trk>
</gpx>