<?xml version="1.0" encoding="UTF-8"?>
<gpx version="1.1" creator="HTML GPX Creator" xmlns="http://www.topografix.com/GPX/1/1">
  <trk>
    <name>사이버영토수호마라톤</name>
    <trkseg>
      <trkpt lat="37.53019114759784" lon="126.92827820777894">
        <ele>10.0</ele>
      </trkpt>
      <trkpt lat="37.530191" lon="126.928275">
        <ele>9.9</ele>
      </trkpt>
      <trkpt lat="37.530203" lon="126.928286">
        <ele>9.9</ele>
      </trkpt>
      <trkpt lat="37.530328" lon="126.928032">
        <ele>9.8</ele>
      </trkpt>
      <trkpt lat="37.530545" lon="126.927571">
        <ele>9.8</ele>
      </trkpt>
      <trkpt lat="37.530728" lon="126.92729">
        <ele>9.7</ele>
      </trkpt>
      <trkpt lat="37.530881" lon="126.926981">
        <ele>9.7</ele>
      </trkpt>
      <trkpt lat="37.53088031794293" lon="126.92698001861574">
        <ele>9.6</ele>
      </trkpt>
      <trkpt lat="37.530881" lon="126.926981">
        <ele>9.5</ele>
      </trkpt>
      <trkpt lat="37.531019" lon="126.926706">
        <ele>9.4</ele>
      </trkpt>
      <trkpt lat="37.531163" lon="126.926409">
        <ele>9.3</ele>
      </trkpt>
      <trkpt lat="37.531392" lon="126.925916">
        <ele>9.3</ele>
      </trkpt>
      <trkpt lat="37.531556" lon="126.925645">
        <ele>9.2</ele>
      </trkpt>
      <trkpt lat="37.53179" lon="126.925392">
        <ele>9.1</ele>
      </trkpt>
      <trkpt lat="37.532076" lon="126.92514">
        <ele>9.0</ele>
      </trkpt>
      <trkpt lat="37.532422" lon="126.924841">
        <ele>8.9</ele>
      </trkpt>
      <trkpt lat="37.53249" lon="126.924762">
        <ele>8.7</ele>
      </trkpt>
      <trkpt lat="37.53248835731763" lon="126.9247591495514">
        <ele>8.5</ele>
      </trkpt>
      <trkpt lat="37.53249" lon="126.924762">
        <ele>8.4</ele>
      </trkpt>
      <trkpt lat="37.532638" lon="126.924594">
        <ele>8.2</ele>
      </trkpt>
      <trkpt lat="37.532798" lon="126.924354">
        <ele>8.0</ele>
      </trkpt>
      <trkpt lat="37.532935" lon="126.924">
        <ele>7.9</ele>
      </trkpt>
      <trkpt lat="37.533089" lon="126.923362">
        <ele>7.7</ele>
      </trkpt>
      <trkpt lat="37.533181" lon="126.923057">
        <ele>7.5</ele>
      </trkpt>
      <trkpt lat="37.533194" lon="126.923029">
        <ele>7.4</ele>
      </trkpt>
      <trkpt lat="37.533304" lon="126.922788">
        <ele>7.2</ele>
      </trkpt>
      <trkpt lat="37.533433" lon="126.922489">
        <ele>7.1</ele>
      </trkpt>
      <trkpt lat="37.533494" lon="126.92232">
        <ele>6.9</ele>
      </trkpt>
      <trkpt lat="37.533606" lon="126.921974">
        <ele>6.8</ele>
      </trkpt>
      <trkpt lat="37.533666" lon="126.921753">
        <ele>6.7</ele>
      </trkpt>
      <trkpt lat="37.533689" lon="126.921654">
        <ele>6.5</ele>
      </trkpt>
      <trkpt lat="37.533670967325214" lon="126.92164778709413">
        <ele>6.4</ele>
      </trkpt>
      <trkpt lat="37.533689" lon="126.921654">
        <ele>6.3</ele>
      </trkpt>
      <trkpt lat="37.533768" lon="126.921321">
        <ele>6.2</ele>
      </trkpt>
      <trkpt lat="37.533977" lon="126.920713">
        <ele>6.0</ele>
      </trkpt>
      <trkpt lat="37.534044" lon="126.920406">
        <ele>5.9</ele>
      </trkpt>
      <trkpt lat="37.534068" lon="126.920076">
        <ele>5.8</ele>
      </trkpt>
      <trkpt lat="37.534119" lon="126.919521">
        <ele>5.7</ele>
      </trkpt>
      <trkpt lat="37.534186" lon="126.919046">
        <ele>5.7</ele>
      </trkpt>
      <trkpt lat="37.534272" lon="126.91869">
        <ele>5.6</ele>
      </trkpt>
      <trkpt lat="37.534386" lon="126.918313">
        <ele>5.5</ele>
      </trkpt>
      <trkpt lat="37.5345" lon="126.917762">
        <ele>5.5</ele>
      </trkpt>
      <trkpt lat="37.534503" lon="126.91766">
        <ele>5.4</ele>
      </trkpt>
      <trkpt lat="37.534511" lon="126.917271">
        <ele>5.4</ele>
      </trkpt>
      <trkpt lat="37.53447070734897" lon="126.91727042198183">
        <ele>5.4</ele>
      </trkpt>
      <trkpt lat="37.534511" lon="126.917271">
        <ele>5.3</ele>
      </trkpt>
      <trkpt lat="37.534513" lon="126.917226">
        <ele>5.3</ele>
      </trkpt>
      <trkpt lat="37.534604" lon="126.916783">
        <ele>5.3</ele>
      </trkpt>
      <trkpt lat="37.534614" lon="126.916734">
        <ele>5.3</ele>
      </trkpt>
      <trkpt lat="37.534724" lon="126.916418">
        <ele>5.3</ele>
      </trkpt>
      <trkpt lat="37.534871" lon="126.91608">
        <ele>5.2</ele>
      </trkpt>
      <trkpt lat="37.534922" lon="126.91586">
        <ele>5.2</ele>
      </trkpt>
      <trkpt lat="37.534956" lon="126.915524">
        <ele>5.2</ele>
      </trkpt>
      <trkpt lat="37.534929" lon="126.915181">
        <ele>5.2</ele>
      </trkpt>
      <trkpt lat="37.534907" lon="126.914732">
        <ele>5.1</ele>
      </trkpt>
      <trkpt lat="37.534861" lon="126.914406">
        <ele>5.1</ele>
      </trkpt>
      <trkpt lat="37.534794" lon="126.914122">
        <ele>5.1</ele>
      </trkpt>
      <trkpt lat="37.53478549628268" lon="126.91412687301637">
        <ele>5.0</ele>
      </trkpt>
      <trkpt lat="37.534794" lon="126.914122">
        <ele>5.0</ele>
      </trkpt>
      <trkpt lat="37.534774" lon="126.914036">
        <ele>5.0</ele>
      </trkpt>
      <trkpt lat="37.534584" lon="126.913475">
        <ele>4.9</ele>
      </trkpt>
      <trkpt lat="37.534252" lon="126.912749">
        <ele>4.9</ele>
      </trkpt>
      <trkpt lat="37.534133" lon="126.912177">
        <ele>4.9</ele>
      </trkpt>
      <trkpt lat="37.534055" lon="126.911906">
        <ele>4.9</ele>
      </trkpt>
      <trkpt lat="37.533998" lon="126.911784">
        <ele>5.0</ele>
      </trkpt>
      <trkpt lat="37.533941" lon="126.911659">
        <ele>5.0</ele>
      </trkpt>
      <trkpt lat="37.533735" lon="126.911357">
        <ele>5.0</ele>
      </trkpt>
      <trkpt lat="37.533498" lon="126.911118">
        <ele>5.1</ele>
      </trkpt>
      <trkpt lat="37.533373" lon="126.910971">
        <ele>5.1</ele>
      </trkpt>
      <trkpt lat="37.533323" lon="126.910843">
        <ele>5.1</ele>
      </trkpt>
      <trkpt lat="37.533294" lon="126.910722">
        <ele>5.2</ele>
      </trkpt>
      <trkpt lat="37.533288110023" lon="126.91072583198549">
        <ele>5.2</ele>
      </trkpt>
      <trkpt lat="37.533294" lon="126.910722">
        <ele>5.3</ele>
      </trkpt>
      <trkpt lat="37.53329" lon="126.910705">
        <ele>5.4</ele>
      </trkpt>
      <trkpt lat="37.533289" lon="126.910517">
        <ele>5.4</ele>
      </trkpt>
      <trkpt lat="37.533331" lon="126.910248">
        <ele>5.5</ele>
      </trkpt>
      <trkpt lat="37.533429" lon="126.9095">
        <ele>5.6</ele>
      </trkpt>
      <trkpt lat="37.533536" lon="126.909205">
        <ele>5.7</ele>
      </trkpt>
      <trkpt lat="37.533584" lon="126.909129">
        <ele>5.8</ele>
      </trkpt>
      <trkpt lat="37.533629" lon="126.909103">
        <ele>6.0</ele>
      </trkpt>
      <trkpt lat="37.533674" lon="126.909108">
        <ele>6.2</ele>
      </trkpt>
      <trkpt lat="37.533715" lon="126.909145">
        <ele>6.3</ele>
      </trkpt>
      <trkpt lat="37.534081" lon="126.908737">
        <ele>6.5</ele>
      </trkpt>
      <trkpt lat="37.534586" lon="126.908259">
        <ele>6.8</ele>
      </trkpt>
      <trkpt lat="37.534572801202785" lon="126.90823674201967">
        <ele>7.0</ele>
      </trkpt>
      <trkpt lat="37.534586" lon="126.908259">
        <ele>7.3</ele>
      </trkpt>
      <trkpt lat="37.534724" lon="126.908129">
        <ele>7.5</ele>
      </trkpt>
      <trkpt lat="37.535249" lon="126.907389">
        <ele>7.8</ele>
      </trkpt>
      <trkpt lat="37.5355" lon="126.907052">
        <ele>8.1</ele>
      </trkpt>
      <trkpt lat="37.535981" lon="126.906457">
        <ele>8.4</ele>
      </trkpt>
      <trkpt lat="37.536303" lon="126.905925">
        <ele>8.8</ele>
      </trkpt>
      <trkpt lat="37.536559" lon="126.905427">
        <ele>9.1</ele>
      </trkpt>
      <trkpt lat="37.536751" lon="126.905142">
        <ele>9.3</ele>
      </trkpt>
      <trkpt lat="37.537054" lon="126.904671">
        <ele>9.6</ele>
      </trkpt>
      <trkpt lat="37.537261" lon="126.904397">
        <ele>9.8</ele>
      </trkpt>
      <trkpt lat="37.537275" lon="126.904371">
        <ele>10.0</ele>
      </trkpt>
      <trkpt lat="37.53727823740177" lon="126.90437436103822">
        <ele>10.1</ele>
      </trkpt>
      <trkpt lat="37.537275" lon="126.904371">
        <ele>10.3</ele>
      </trkpt>
      <trkpt lat="37.537394" lon="126.90417">
        <ele>10.4</ele>
      </trkpt>
      <trkpt lat="37.537587" lon="126.903834">
        <ele>10.6</ele>
      </trkpt>
      <trkpt lat="37.538288" lon="126.902673">
        <ele>10.7</ele>
      </trkpt>
      <trkpt lat="37.538634" lon="126.902164">
        <ele>10.8</ele>
      </trkpt>
      <trkpt lat="37.538817" lon="126.901937">
        <ele>10.9</ele>
      </trkpt>
      <trkpt lat="37.53893" lon="126.901713">
        <ele>11.0</ele>
      </trkpt>
      <trkpt lat="37.538959" lon="126.901616">
        <ele>11.1</ele>
      </trkpt>
      <trkpt lat="37.539027" lon="126.901245">
        <ele>11.2</ele>
      </trkpt>
      <trkpt lat="37.539063" lon="126.901127">
        <ele>11.3</ele>
      </trkpt>
      <trkpt lat="37.5390562850983" lon="126.90112352371217">
        <ele>11.4</ele>
      </trkpt>
      <trkpt lat="37.539063" lon="126.901127">
        <ele>11.5</ele>
      </trkpt>
      <trkpt lat="37.539074" lon="126.901093">
        <ele>11.5</ele>
      </trkpt>
      <trkpt lat="37.53916" lon="126.900926">
        <ele>11.6</ele>
      </trkpt>
      <trkpt lat="37.539269" lon="126.90074">
        <ele>11.6</ele>
      </trkpt>
      <trkpt lat="37.539472" lon="126.900349">
        <ele>11.5</ele>
      </trkpt>
      <trkpt lat="37.539555" lon="126.90018">
        <ele>11.5</ele>
      </trkpt>
      <trkpt lat="37.539939" lon="126.899481">
        <ele>11.4</ele>
      </trkpt>
      <trkpt lat="37.540432" lon="126.898686">
        <ele>11.4</ele>
      </trkpt>
      <trkpt lat="37.540573" lon="126.898457">
        <ele>11.3</ele>
      </trkpt>
      <trkpt lat="37.54057907693129" lon="126.8984627723694">
        <ele>11.2</ele>
      </trkpt>
      <trkpt lat="37.540573" lon="126.898457">
        <ele>11.0</ele>
      </trkpt>
      <trkpt lat="37.541408" lon="126.897115">
        <ele>10.9</ele>
      </trkpt>
      <trkpt lat="37.542102" lon="126.896012">
        <ele>10.8</ele>
      </trkpt>
      <trkpt lat="37.542164" lon="126.89595">
        <ele>10.7</ele>
      </trkpt>
      <trkpt lat="37.542357" lon="126.895729">
        <ele>10.6</ele>
      </trkpt>
      <trkpt lat="37.543138" lon="126.895441">
        <ele>10.5</ele>
      </trkpt>
      <trkpt lat="37.54326" lon="126.895319">
        <ele>10.4</ele>
      </trkpt>
      <trkpt lat="37.543616" lon="126.894704">
        <ele>10.3</ele>
      </trkpt>
      <trkpt lat="37.543944" lon="126.894228">
        <ele>10.3</ele>
      </trkpt>
      <trkpt lat="37.54411" lon="126.894058">
        <ele>10.3</ele>
      </trkpt>
      <trkpt lat="37.544229" lon="126.893919">
        <ele>10.2</ele>
      </trkpt>
      <trkpt lat="37.544405" lon="126.893648">
        <ele>10.2</ele>
      </trkpt>
      <trkpt lat="37.544564" lon="126.893381">
        <ele>10.2</ele>
      </trkpt>
      <trkpt lat="37.544560307506174" lon="126.89337730407716">
        <ele>10.2</ele>
      </trkpt>
      <trkpt lat="37.544564" lon="126.893381">
        <ele>10.2</ele>
      </trkpt>
      <trkpt lat="37.544598" lon="126.893325">
        <ele>10.2</ele>
      </trkpt>
      <trkpt lat="37.544761" lon="126.893071">
        <ele>10.2</ele>
      </trkpt>
      <trkpt lat="37.544836" lon="126.893024">
        <ele>10.2</ele>
      </trkpt>
      <trkpt lat="37.545139" lon="126.893023">
        <ele>10.2</ele>
      </trkpt>
      <trkpt lat="37.545282" lon="126.892921">
        <ele>10.1</ele>
      </trkpt>
      <trkpt lat="37.545423" lon="126.892673">
        <ele>10.1</ele>
      </trkpt>
      <trkpt lat="37.545665" lon="126.892296">
        <ele>10.1</ele>
      </trkpt>
      <trkpt lat="37.545972" lon="126.891875">
        <ele>10.0</ele>
      </trkpt>
      <trkpt lat="37.546044" lon="126.891696">
        <ele>10.0</ele>
      </trkpt>
      <trkpt lat="37.546201" lon="126.891073">
        <ele>10.0</ele>
      </trkpt>
      <trkpt lat="37.54634" lon="126.890755">
        <ele>10.0</ele>
      </trkpt>
      <trkpt lat="37.54652" lon="126.890424">
        <ele>9.9</ele>
      </trkpt>
      <trkpt lat="37.546621" lon="126.890281">
        <ele>9.9</ele>
      </trkpt>
      <trkpt lat="37.547087" lon="126.889985">
        <ele>9.9</ele>
      </trkpt>
      <trkpt lat="37.547469" lon="126.889498">
        <ele>9.9</ele>
      </trkpt>
      <trkpt lat="37.547862" lon="126.889019">
        <ele>9.9</ele>
      </trkpt>
      <trkpt lat="37.548392" lon="126.888161">
        <ele>9.9</ele>
      </trkpt>
      <trkpt lat="37.54840522581" lon="126.88817381858827">
        <ele>9.9</ele>
      </trkpt>
      <trkpt lat="37.548392" lon="126.888161">
        <ele>9.9</ele>
      </trkpt>
      <trkpt lat="37.5486" lon="126.887827">
        <ele>9.9</ele>
      </trkpt>
      <trkpt lat="37.549826" lon="126.88601">
        <ele>9.8</ele>
      </trkpt>
      <trkpt lat="37.550686" lon="126.884764">
        <ele>9.8</ele>
      </trkpt>
      <trkpt lat="37.551196" lon="126.883934">
        <ele>9.8</ele>
      </trkpt>
      <trkpt lat="37.551536" lon="126.883336">
        <ele>9.8</ele>
      </trkpt>
      <trkpt lat="37.551543" lon="126.883319">
        <ele>9.8</ele>
      </trkpt>
      <trkpt lat="37.55153545531286" lon="126.88331365585329">
        <ele>9.8</ele>
      </trkpt>
      <trkpt lat="37.551543" lon="126.883319">
        <ele>9.8</ele>
      </trkpt>
      <trkpt lat="37.551615" lon="126.883153">
        <ele>9.8</ele>
      </trkpt>
      <trkpt lat="37.551785" lon="126.88276">
        <ele>9.8</ele>
      </trkpt>
      <trkpt lat="37.55209" lon="126.882056">
        <ele>9.7</ele>
      </trkpt>
      <trkpt lat="37.552332" lon="126.881293">
        <ele>9.7</ele>
      </trkpt>
      <trkpt lat="37.552425" lon="126.88109">
        <ele>9.7</ele>
      </trkpt>
      <trkpt lat="37.553328" lon="126.879304">
        <ele>9.7</ele>
      </trkpt>
      <trkpt lat="37.553427" lon="126.879119">
        <ele>9.6</ele>
      </trkpt>
      <trkpt lat="37.553694" lon="126.878412">
        <ele>9.6</ele>
      </trkpt>
      <trkpt lat="37.553727" lon="126.878245">
        <ele>9.6</ele>
      </trkpt>
      <trkpt lat="37.553729" lon="126.878142">
        <ele>9.7</ele>
      </trkpt>
      <trkpt lat="37.553756" lon="126.878057">
        <ele>9.7</ele>
      </trkpt>
      <trkpt lat="37.553771" lon="126.878038">
        <ele>9.7</ele>
      </trkpt>
      <trkpt lat="37.553782" lon="126.877988">
        <ele>9.7</ele>
      </trkpt>
      <trkpt lat="37.553778" lon="126.877962">
        <ele>9.7</ele>
      </trkpt>
      <trkpt lat="37.553753" lon="126.877921">
        <ele>9.8</ele>
      </trkpt>
      <trkpt lat="37.553758" lon="126.877794">
        <ele>9.8</ele>
      </trkpt>
      <trkpt lat="37.553766" lon="126.877751">
        <ele>9.8</ele>
      </trkpt>
      <trkpt lat="37.553898" lon="126.877275">
        <ele>9.9</ele>
      </trkpt>
      <trkpt lat="37.55389154677958" lon="126.87727332115175">
        <ele>10.0</ele>
      </trkpt>
      <trkpt lat="37.553898" lon="126.877275">
        <ele>10.0</ele>
      </trkpt>
      <trkpt lat="37.554299" lon="126.875842">
        <ele>10.1</ele>
      </trkpt>
      <trkpt lat="37.554324" lon="126.875843">
        <ele>10.2</ele>
      </trkpt>
      <trkpt lat="37.554348" lon="126.875834">
        <ele>10.2</ele>
      </trkpt>
      <trkpt lat="37.554368" lon="126.875816">
        <ele>10.3</ele>
      </trkpt>
      <trkpt lat="37.554382" lon="126.87579">
        <ele>10.3</ele>
      </trkpt>
      <trkpt lat="37.554388" lon="126.87576">
        <ele>10.4</ele>
      </trkpt>
      <trkpt lat="37.55438" lon="126.875713">
        <ele>10.4</ele>
      </trkpt>
      <trkpt lat="37.554475" lon="126.875649">
        <ele>10.4</ele>
      </trkpt>
      <trkpt lat="37.554541" lon="126.875561">
        <ele>10.4</ele>
      </trkpt>
      <trkpt lat="37.555698" lon="126.874394">
        <ele>10.4</ele>
      </trkpt>
      <trkpt lat="37.555861" lon="126.87421">
        <ele>10.4</ele>
      </trkpt>
      <trkpt lat="37.556057" lon="126.873951">
        <ele>10.4</ele>
      </trkpt>
      <trkpt lat="37.556484" lon="126.873311">
        <ele>10.4</ele>
      </trkpt>
      <trkpt lat="37.556878" lon="126.872801">
        <ele>10.5</ele>
      </trkpt>
      <trkpt lat="37.556885461681" lon="126.87281012535097">
        <ele>10.5</ele>
      </trkpt>
      <trkpt lat="37.556878" lon="126.872801">
        <ele>10.6</ele>
      </trkpt>
      <trkpt lat="37.557156" lon="126.872442">
        <ele>10.6</ele>
      </trkpt>
      <trkpt lat="37.558598" lon="126.870724">
        <ele>10.7</ele>
      </trkpt>
      <trkpt lat="37.558929" lon="126.870315">
        <ele>10.7</ele>
      </trkpt>
      <trkpt lat="37.559712" lon="126.869314">
        <ele>10.8</ele>
      </trkpt>
      <trkpt lat="37.56019" lon="126.868671">
        <ele>10.8</ele>
      </trkpt>
      <trkpt lat="37.560859" lon="126.867663">
        <ele>10.9</ele>
      </trkpt>
      <trkpt lat="37.561322" lon="126.866861">
        <ele>10.9</ele>
      </trkpt>
      <trkpt lat="37.56131657517743" lon="126.8668556213379">
        <ele>11.0</ele>
      </trkpt>
      <trkpt lat="37.561322" lon="126.866861">
        <ele>11.0</ele>
      </trkpt>
      <trkpt lat="37.562336" lon="126.865109">
        <ele>11.1</ele>
      </trkpt>
      <trkpt lat="37.56415" lon="126.861997">
        <ele>11.1</ele>
      </trkpt>
      <trkpt lat="37.565476" lon="126.859707">
        <ele>11.2</ele>
      </trkpt>
      <trkpt lat="37.56546678412079" lon="126.85969948768617">
        <ele>11.2</ele>
      </trkpt>
      <trkpt lat="37.565476" lon="126.859707">
        <ele>11.2</ele>
      </trkpt>
      <trkpt lat="37.566024" lon="126.858763">
        <ele>11.3</ele>
      </trkpt>
      <trkpt lat="37.566714" lon="126.857556">
        <ele>11.3</ele>
      </trkpt>
      <trkpt lat="37.56784" lon="126.855657">
        <ele>11.3</ele>
      </trkpt>
      <trkpt lat="37.56882" lon="126.853963">
        <ele>11.3</ele>
      </trkpt>
      <trkpt lat="37.56881739887884" lon="126.8539595603943">
        <ele>11.3</ele>
      </trkpt>
      <trkpt lat="37.56882" lon="126.853963">
        <ele>11.3</ele>
      </trkpt>
      <trkpt lat="37.569016" lon="126.853626">
        <ele>11.4</ele>
      </trkpt>
      <trkpt lat="37.569706" lon="126.852437">
        <ele>11.4</ele>
      </trkpt>
      <trkpt lat="37.571533" lon="126.849266">
        <ele>11.4</ele>
      </trkpt>
      <trkpt lat="37.57153859944202" lon="126.84927105903627">
        <ele>11.5</ele>
      </trkpt>
      <trkpt lat="37.571533" lon="126.849266">
        <ele>11.5</ele>
      </trkpt>
      <trkpt lat="37.571786" lon="126.848828">
        <ele>11.6</ele>
      </trkpt>
      <trkpt lat="37.572623" lon="126.847353">
        <ele>11.6</ele>
      </trkpt>
      <trkpt lat="37.573453" lon="126.846028">
        <ele>11.6</ele>
      </trkpt>
      <trkpt lat="37.574348" lon="126.844449">
        <ele>11.7</ele>
      </trkpt>
      <trkpt lat="37.57435323666664" lon="126.84445381164552">
        <ele>11.7</ele>
      </trkpt>
      <trkpt lat="37.574348" lon="126.844449">
        <ele>11.7</ele>
      </trkpt>
      <trkpt lat="37.574582" lon="126.844038">
        <ele>11.8</ele>
      </trkpt>
      <trkpt lat="37.574727" lon="126.843784">
        <ele>11.8</ele>
      </trkpt>
      <trkpt lat="37.574826" lon="126.843609">
        <ele>11.8</ele>
      </trkpt>
      <trkpt lat="37.576251" lon="126.841113">
        <ele>11.8</ele>
      </trkpt>
      <trkpt lat="37.576798" lon="126.839979">
        <ele>11.9</ele>
      </trkpt>
      <trkpt lat="37.577062" lon="126.839465">
        <ele>11.9</ele>
      </trkpt>
      <trkpt lat="37.577286" lon="126.838945">
        <ele>11.9</ele>
      </trkpt>
      <trkpt lat="37.577303814647045" lon="126.83894991874696">
        <ele>11.9</ele>
      </trkpt>
      <trkpt lat="37.577288" lon="126.838939">
        <ele>11.9</ele>
      </trkpt>
      <trkpt lat="37.577498" lon="126.838419">
        <ele>11.9</ele>
      </trkpt>
      <trkpt lat="37.577627" lon="126.838096">
        <ele>11.9</ele>
      </trkpt>
      <trkpt lat="37.577746" lon="126.837695">
        <ele>12.0</ele>
      </trkpt>
      <trkpt lat="37.578061" lon="126.836841">
        <ele>12.0</ele>
      </trkpt>
      <trkpt lat="37.57805206944101" lon="126.83683633804323">
        <ele>12.0</ele>
      </trkpt>
      <trkpt lat="37.578061" lon="126.836841">
        <ele>12.0</ele>
      </trkpt>
      <trkpt lat="37.577746" lon="126.837695">
        <ele>12.0</ele>
      </trkpt>
      <trkpt lat="37.577627" lon="126.838096">
        <ele>12.1</ele>
      </trkpt>
      <trkpt lat="37.577498" lon="126.838419">
        <ele>12.1</ele>
      </trkpt>
      <trkpt lat="37.577286" lon="126.838945">
        <ele>12.1</ele>
      </trkpt>
      <trkpt lat="37.577062" lon="126.839465">
        <ele>12.1</ele>
      </trkpt>
      <trkpt lat="37.576798" lon="126.839979">
        <ele>12.1</ele>
      </trkpt>
      <trkpt lat="37.576251" lon="126.841113">
        <ele>12.1</ele>
      </trkpt>
      <trkpt lat="37.574826" lon="126.843609">
        <ele>12.1</ele>
      </trkpt>
      <trkpt lat="37.574727" lon="126.843784">
        <ele>12.1</ele>
      </trkpt>
      <trkpt lat="37.574582" lon="126.844038">
        <ele>12.1</ele>
      </trkpt>
      <trkpt lat="37.573453" lon="126.846028">
        <ele>12.1</ele>
      </trkpt>
      <trkpt lat="37.572853" lon="126.846984">
        <ele>12.0</ele>
      </trkpt>
      <trkpt lat="37.57289916244028" lon="126.84702873229982">
        <ele>12.0</ele>
      </trkpt>
      <trkpt lat="37.572853" lon="126.846984">
        <ele>12.0</ele>
      </trkpt>
      <trkpt lat="37.572623" lon="126.847353">
        <ele>12.0</ele>
      </trkpt>
      <trkpt lat="37.571786" lon="126.848828">
        <ele>11.9</ele>
      </trkpt>
      <trkpt lat="37.569706" lon="126.852437">
        <ele>11.9</ele>
      </trkpt>
      <trkpt lat="37.569016" lon="126.853626">
        <ele>11.9</ele>
      </trkpt>
      <trkpt lat="37.568025" lon="126.855336">
        <ele>11.9</ele>
      </trkpt>
      <trkpt lat="37.56806905129426" lon="126.85537576675416">
        <ele>11.8</ele>
      </trkpt>
      <trkpt lat="37.568025" lon="126.855336">
        <ele>11.8</ele>
      </trkpt>
      <trkpt lat="37.56784" lon="126.855657">
        <ele>11.8</ele>
      </trkpt>
      <trkpt lat="37.566714" lon="126.857556">
        <ele>11.9</ele>
      </trkpt>
      <trkpt lat="37.566024" lon="126.858763">
        <ele>11.8</ele>
      </trkpt>
      <trkpt lat="37.56415" lon="126.861997">
        <ele>11.8</ele>
      </trkpt>
      <trkpt lat="37.562336" lon="126.865109">
        <ele>11.8</ele>
      </trkpt>
      <trkpt lat="37.561538" lon="126.866487">
        <ele>11.8</ele>
      </trkpt>
      <trkpt lat="37.56158872710948" lon="126.86653375625612">
        <ele>11.7</ele>
      </trkpt>
      <trkpt lat="37.561538" lon="126.866487">
        <ele>11.7</ele>
      </trkpt>
      <trkpt lat="37.560859" lon="126.867663">
        <ele>11.7</ele>
      </trkpt>
      <trkpt lat="37.56019" lon="126.868671">
        <ele>11.6</ele>
      </trkpt>
      <trkpt lat="37.559712" lon="126.869314">
        <ele>11.6</ele>
      </trkpt>
      <trkpt lat="37.558929" lon="126.870315">
        <ele>11.6</ele>
      </trkpt>
      <trkpt lat="37.558598" lon="126.870724">
        <ele>11.5</ele>
      </trkpt>
      <trkpt lat="37.557156" lon="126.872442">
        <ele>11.5</ele>
      </trkpt>
      <trkpt lat="37.556484" lon="126.873311">
        <ele>11.5</ele>
      </trkpt>
      <trkpt lat="37.556057" lon="126.873951">
        <ele>11.5</ele>
      </trkpt>
      <trkpt lat="37.555861" lon="126.87421">
        <ele>11.4</ele>
      </trkpt>
      <trkpt lat="37.555698" lon="126.874394">
        <ele>11.4</ele>
      </trkpt>
      <trkpt lat="37.554743" lon="126.875357">
        <ele>11.4</ele>
      </trkpt>
      <trkpt lat="37.554767619554625" lon="126.87539577484132">
        <ele>11.3</ele>
      </trkpt>
      <trkpt lat="37.554541" lon="126.875561">
        <ele>11.3</ele>
      </trkpt>
      <trkpt lat="37.554475" lon="126.875649">
        <ele>11.2</ele>
      </trkpt>
      <trkpt lat="37.55438" lon="126.875713">
        <ele>11.1</ele>
      </trkpt>
      <trkpt lat="37.554361" lon="126.87568">
        <ele>11.1</ele>
      </trkpt>
      <trkpt lat="37.55434" lon="126.875665">
        <ele>11.0</ele>
      </trkpt>
      <trkpt lat="37.554294" lon="126.875664">
        <ele>10.9</ele>
      </trkpt>
      <trkpt lat="37.554273" lon="126.875676">
        <ele>10.9</ele>
      </trkpt>
      <trkpt lat="37.554256" lon="126.875697">
        <ele>10.8</ele>
      </trkpt>
      <trkpt lat="37.554242" lon="126.875752">
        <ele>10.8</ele>
      </trkpt>
      <trkpt lat="37.554246" lon="126.875781">
        <ele>10.7</ele>
      </trkpt>
      <trkpt lat="37.554258" lon="126.875809">
        <ele>10.6</ele>
      </trkpt>
      <trkpt lat="37.554276" lon="126.87583">
        <ele>10.5</ele>
      </trkpt>
      <trkpt lat="37.554299" lon="126.875842">
        <ele>10.3</ele>
      </trkpt>
      <trkpt lat="37.553766" lon="126.877751">
        <ele>10.2</ele>
      </trkpt>
      <trkpt lat="37.553758" lon="126.877794">
        <ele>10.1</ele>
      </trkpt>
      <trkpt lat="37.553713" lon="126.877906">
        <ele>10.0</ele>
      </trkpt>
      <trkpt lat="37.553693" lon="126.87791">
        <ele>9.9</ele>
      </trkpt>
      <trkpt lat="37.55366" lon="126.877941">
        <ele>9.9</ele>
      </trkpt>
      <trkpt lat="37.553648" lon="126.877991">
        <ele>9.8</ele>
      </trkpt>
      <trkpt lat="37.553656" lon="126.87803">
        <ele>9.8</ele>
      </trkpt>
      <trkpt lat="37.55367" lon="126.878053">
        <ele>9.7</ele>
      </trkpt>
      <trkpt lat="37.553711" lon="126.878075">
        <ele>9.7</ele>
      </trkpt>
      <trkpt lat="37.553698" lon="126.878185">
        <ele>9.7</ele>
      </trkpt>
      <trkpt lat="37.553698" lon="126.878256">
        <ele>9.7</ele>
      </trkpt>
      <trkpt lat="37.553682" lon="126.87833">
        <ele>9.7</ele>
      </trkpt>
      <trkpt lat="37.553644" lon="126.878412">
        <ele>9.7</ele>
      </trkpt>
      <trkpt lat="37.553589" lon="126.878572">
        <ele>9.7</ele>
      </trkpt>
      <trkpt lat="37.553348" lon="126.87919">
        <ele>9.7</ele>
      </trkpt>
      <trkpt lat="37.552896" lon="126.880005">
        <ele>9.7</ele>
      </trkpt>
      <trkpt lat="37.552521" lon="126.880754">
        <ele>9.7</ele>
      </trkpt>
      <trkpt lat="37.552454" lon="126.880938">
        <ele>9.7</ele>
      </trkpt>
      <trkpt lat="37.552425" lon="126.88109">
        <ele>9.8</ele>
      </trkpt>
      <trkpt lat="37.552332" lon="126.881293">
        <ele>9.8</ele>
      </trkpt>
      <trkpt lat="37.55209" lon="126.882056">
        <ele>9.9</ele>
      </trkpt>
      <trkpt lat="37.552018" lon="126.882221">
        <ele>9.9</ele>
      </trkpt>
      <trkpt lat="37.5520458063545" lon="126.88224077224733">
        <ele>10.0</ele>
      </trkpt>
      <trkpt lat="37.552018" lon="126.882221">
        <ele>10.0</ele>
      </trkpt>
      <trkpt lat="37.551785" lon="126.88276">
        <ele>10.0</ele>
      </trkpt>
      <trkpt lat="37.551615" lon="126.883153">
        <ele>10.0</ele>
      </trkpt>
      <trkpt lat="37.551536" lon="126.883336">
        <ele>10.1</ele>
      </trkpt>
      <trkpt lat="37.551196" lon="126.883934">
        <ele>10.1</ele>
      </trkpt>
      <trkpt lat="37.550686" lon="126.884764">
        <ele>10.1</ele>
      </trkpt>
      <trkpt lat="37.549826" lon="126.88601">
        <ele>10.1</ele>
      </trkpt>
      <trkpt lat="37.549122" lon="126.887053">
        <ele>10.1</ele>
      </trkpt>
      <trkpt lat="37.54913675860618" lon="126.88706874847414">
        <ele>10.1</ele>
      </trkpt>
      <trkpt lat="37.549122" lon="126.887053">
        <ele>10.1</ele>
      </trkpt>
      <trkpt lat="37.5486" lon="126.887827">
        <ele>10.1</ele>
      </trkpt>
      <trkpt lat="37.547862" lon="126.889019">
        <ele>10.1</ele>
      </trkpt>
      <trkpt lat="37.547469" lon="126.889498">
        <ele>10.1</ele>
      </trkpt>
      <trkpt lat="37.547087" lon="126.889985">
        <ele>10.0</ele>
      </trkpt>
      <trkpt lat="37.546621" lon="126.890281">
        <ele>10.0</ele>
      </trkpt>
      <trkpt lat="37.54652" lon="126.890424">
        <ele>9.9</ele>
      </trkpt>
      <trkpt lat="37.54634" lon="126.890755">
        <ele>9.9</ele>
      </trkpt>
      <trkpt lat="37.546201" lon="126.891073">
        <ele>9.9</ele>
      </trkpt>
      <trkpt lat="37.546044" lon="126.891696">
        <ele>9.8</ele>
      </trkpt>
      <trkpt lat="37.545972" lon="126.891875">
        <ele>9.8</ele>
      </trkpt>
      <trkpt lat="37.54571" lon="126.892233">
        <ele>9.8</ele>
      </trkpt>
      <trkpt lat="37.54572571298153" lon="126.89225077629091">
        <ele>9.8</ele>
      </trkpt>
      <trkpt lat="37.54571" lon="126.892233">
        <ele>9.7</ele>
      </trkpt>
      <trkpt lat="37.545665" lon="126.892296">
        <ele>9.7</ele>
      </trkpt>
      <trkpt lat="37.545423" lon="126.892673">
        <ele>9.7</ele>
      </trkpt>
      <trkpt lat="37.545282" lon="126.892921">
        <ele>9.7</ele>
      </trkpt>
      <trkpt lat="37.545139" lon="126.893023">
        <ele>9.6</ele>
      </trkpt>
      <trkpt lat="37.544836" lon="126.893024">
        <ele>9.6</ele>
      </trkpt>
      <trkpt lat="37.544761" lon="126.893071">
        <ele>9.5</ele>
      </trkpt>
      <trkpt lat="37.544598" lon="126.893325">
        <ele>9.5</ele>
      </trkpt>
      <trkpt lat="37.544405" lon="126.893648">
        <ele>9.5</ele>
      </trkpt>
      <trkpt lat="37.544229" lon="126.893919">
        <ele>9.5</ele>
      </trkpt>
      <trkpt lat="37.54411" lon="126.894058">
        <ele>9.5</ele>
      </trkpt>
      <trkpt lat="37.543944" lon="126.894228">
        <ele>9.5</ele>
      </trkpt>
      <trkpt lat="37.543616" lon="126.894704">
        <ele>9.6</ele>
      </trkpt>
      <trkpt lat="37.54326" lon="126.895319">
        <ele>9.6</ele>
      </trkpt>
      <trkpt lat="37.543138" lon="126.895441">
        <ele>9.7</ele>
      </trkpt>
      <trkpt lat="37.542357" lon="126.895729">
        <ele>9.8</ele>
      </trkpt>
      <trkpt lat="37.542164" lon="126.89595">
        <ele>9.9</ele>
      </trkpt>
      <trkpt lat="37.542102" lon="126.896012">
        <ele>9.9</ele>
      </trkpt>
      <trkpt lat="37.541992" lon="126.896185">
        <ele>10.0</ele>
      </trkpt>
      <trkpt lat="37.54201676805204" lon="126.89620971679689">
        <ele>10.1</ele>
      </trkpt>
      <trkpt lat="37.541992" lon="126.896185">
        <ele>10.2</ele>
      </trkpt>
      <trkpt lat="37.541408" lon="126.897115">
        <ele>10.2</ele>
      </trkpt>
      <trkpt lat="37.540432" lon="126.898686">
        <ele>10.3</ele>
      </trkpt>
      <trkpt lat="37.539939" lon="126.899481">
        <ele>10.3</ele>
      </trkpt>
      <trkpt lat="37.539555" lon="126.90018">
        <ele>10.3</ele>
      </trkpt>
      <trkpt lat="37.539472" lon="126.900349">
        <ele>10.3</ele>
      </trkpt>
      <trkpt lat="37.539269" lon="126.90074">
        <ele>10.3</ele>
      </trkpt>
      <trkpt lat="37.53916" lon="126.900926">
        <ele>10.2</ele>
      </trkpt>
      <trkpt lat="37.539074" lon="126.901093">
        <ele>10.2</ele>
      </trkpt>
      <trkpt lat="37.539027" lon="126.901245">
        <ele>10.1</ele>
      </trkpt>
      <trkpt lat="37.538959" lon="126.901616">
        <ele>9.9</ele>
      </trkpt>
      <trkpt lat="37.53893" lon="126.90171">
        <ele>9.8</ele>
      </trkpt>
      <trkpt lat="37.538937182749734" lon="126.90171360969545">
        <ele>9.7</ele>
      </trkpt>
      <trkpt lat="37.53893" lon="126.90171">
        <ele>9.6</ele>
      </trkpt>
      <trkpt lat="37.53893" lon="126.901713">
        <ele>9.5</ele>
      </trkpt>
      <trkpt lat="37.538817" lon="126.901937">
        <ele>9.4</ele>
      </trkpt>
      <trkpt lat="37.538634" lon="126.902164">
        <ele>9.4</ele>
      </trkpt>
      <trkpt lat="37.538288" lon="126.902673">
        <ele>9.3</ele>
      </trkpt>
      <trkpt lat="37.537587" lon="126.903834">
        <ele>9.2</ele>
      </trkpt>
      <trkpt lat="37.537394" lon="126.90417">
        <ele>9.1</ele>
      </trkpt>
      <trkpt lat="37.537261" lon="126.904397">
        <ele>9.0</ele>
      </trkpt>
      <trkpt lat="37.537054" lon="126.904671">
        <ele>8.8</ele>
      </trkpt>
      <trkpt lat="37.536751" lon="126.905142">
        <ele>8.7</ele>
      </trkpt>
      <trkpt lat="37.536559" lon="126.905427">
        <ele>8.4</ele>
      </trkpt>
      <trkpt lat="37.536303" lon="126.905925">
        <ele>8.2</ele>
      </trkpt>
      <trkpt lat="37.535981" lon="126.906457">
        <ele>8.0</ele>
      </trkpt>
      <trkpt lat="37.53600210048092" lon="126.90648794174196">
        <ele>7.8</ele>
      </trkpt>
      <trkpt lat="37.535979" lon="126.906459">
        <ele>7.6</ele>
      </trkpt>
      <trkpt lat="37.5355" lon="126.907052">
        <ele>7.3</ele>
      </trkpt>
      <trkpt lat="37.535249" lon="126.907389">
        <ele>7.1</ele>
      </trkpt>
      <trkpt lat="37.534724" lon="126.908129">
        <ele>6.9</ele>
      </trkpt>
      <trkpt lat="37.534081" lon="126.908737">
        <ele>6.8</ele>
      </trkpt>
      <trkpt lat="37.533715" lon="126.909145">
        <ele>6.6</ele>
      </trkpt>
      <trkpt lat="37.533674" lon="126.909108">
        <ele>6.4</ele>
      </trkpt>
      <trkpt lat="37.533629" lon="126.909103">
        <ele>6.3</ele>
      </trkpt>
      <trkpt lat="37.533584" lon="126.909129">
        <ele>6.2</ele>
      </trkpt>
      <trkpt lat="37.533536" lon="126.909205">
        <ele>6.1</ele>
      </trkpt>
      <trkpt lat="37.533429" lon="126.9095">
        <ele>6.0</ele>
      </trkpt>
      <trkpt lat="37.533331" lon="126.910248">
        <ele>6.0</ele>
      </trkpt>
      <trkpt lat="37.533289" lon="126.910517">
        <ele>5.9</ele>
      </trkpt>
      <trkpt lat="37.53329" lon="126.910705">
        <ele>5.9</ele>
      </trkpt>
      <trkpt lat="37.533323" lon="126.910843">
        <ele>5.9</ele>
      </trkpt>
      <trkpt lat="37.533373" lon="126.910971">
        <ele>5.9</ele>
      </trkpt>
      <trkpt lat="37.533498" lon="126.911118">
        <ele>5.8</ele>
      </trkpt>
      <trkpt lat="37.533735" lon="126.911357">
        <ele>5.8</ele>
      </trkpt>
      <trkpt lat="37.533889" lon="126.911582">
        <ele>5.8</ele>
      </trkpt>
      <trkpt lat="37.53390918865465" lon="126.91156268119813">
        <ele>5.7</ele>
      </trkpt>
      <trkpt lat="37.533889" lon="126.911582">
        <ele>5.7</ele>
      </trkpt>
      <trkpt lat="37.533941" lon="126.911659">
        <ele>5.6</ele>
      </trkpt>
      <trkpt lat="37.533998" lon="126.911784">
        <ele>5.5</ele>
      </trkpt>
      <trkpt lat="37.534055" lon="126.911906">
        <ele>5.5</ele>
      </trkpt>
      <trkpt lat="37.534133" lon="126.912177">
        <ele>5.4</ele>
      </trkpt>
      <trkpt lat="37.534252" lon="126.912749">
        <ele>5.4</ele>
      </trkpt>
      <trkpt lat="37.534584" lon="126.913475">
        <ele>5.4</ele>
      </trkpt>
      <trkpt lat="37.534774" lon="126.914036">
        <ele>5.4</ele>
      </trkpt>
      <trkpt lat="37.534861" lon="126.914406">
        <ele>5.4</ele>
      </trkpt>
      <trkpt lat="37.534907" lon="126.914732">
        <ele>5.4</ele>
      </trkpt>
      <trkpt lat="37.534929" lon="126.915181">
        <ele>5.4</ele>
      </trkpt>
      <trkpt lat="37.534956" lon="126.915524">
        <ele>5.4</ele>
      </trkpt>
      <trkpt lat="37.534922" lon="126.91586">
        <ele>5.5</ele>
      </trkpt>
      <trkpt lat="37.534889" lon="126.915998">
        <ele>5.5</ele>
      </trkpt>
      <trkpt lat="37.53490460526246" lon="126.9160044193268">
        <ele>5.5</ele>
      </trkpt>
      <trkpt lat="37.534889" lon="126.915998">
        <ele>5.5</ele>
      </trkpt>
      <trkpt lat="37.534871" lon="126.91608">
        <ele>5.5</ele>
      </trkpt>
      <trkpt lat="37.534724" lon="126.916418">
        <ele>5.5</ele>
      </trkpt>
      <trkpt lat="37.534614" lon="126.916734">
        <ele>5.6</ele>
      </trkpt>
      <trkpt lat="37.534604" lon="126.916783">
        <ele>5.6</ele>
      </trkpt>
      <trkpt lat="37.534513" lon="126.917226">
        <ele>5.7</ele>
      </trkpt>
      <trkpt lat="37.534503" lon="126.91766">
        <ele>5.7</ele>
      </trkpt>
      <trkpt lat="37.5345" lon="126.917762">
        <ele>5.8</ele>
      </trkpt>
      <trkpt lat="37.534386" lon="126.918313">
        <ele>5.8</ele>
      </trkpt>
      <trkpt lat="37.534272" lon="126.91869">
        <ele>5.9</ele>
      </trkpt>
      <trkpt lat="37.534186" lon="126.919046">
        <ele>6.0</ele>
      </trkpt>
      <trkpt lat="37.534119" lon="126.919521">
        <ele>6.1</ele>
      </trkpt>
      <trkpt lat="37.534068" lon="126.920076">
        <ele>6.2</ele>
      </trkpt>
      <trkpt lat="37.534044" lon="126.920406">
        <ele>6.3</ele>
      </trkpt>
      <trkpt lat="37.533977" lon="126.920713">
        <ele>6.4</ele>
      </trkpt>
      <trkpt lat="37.533768" lon="126.921321">
        <ele>6.5</ele>
      </trkpt>
      <trkpt lat="37.53375" lon="126.921395">
        <ele>6.7</ele>
      </trkpt>
      <trkpt lat="37.53376455436679" lon="126.92140102386476">
        <ele>6.8</ele>
      </trkpt>
      <trkpt lat="37.53375" lon="126.921395">
        <ele>7.0</ele>
      </trkpt>
      <trkpt lat="37.533666" lon="126.921753">
        <ele>7.2</ele>
      </trkpt>
      <trkpt lat="37.533606" lon="126.921974">
        <ele>7.3</ele>
      </trkpt>
      <trkpt lat="37.533494" lon="126.92232">
        <ele>7.5</ele>
      </trkpt>
      <trkpt lat="37.533433" lon="126.922489">
        <ele>7.7</ele>
      </trkpt>
      <trkpt lat="37.533304" lon="126.922788">
        <ele>7.9</ele>
      </trkpt>
      <trkpt lat="37.533194" lon="126.923029">
        <ele>8.1</ele>
      </trkpt>
      <trkpt lat="37.533181" lon="126.923057">
        <ele>8.3</ele>
      </trkpt>
      <trkpt lat="37.533089" lon="126.923362">
        <ele>8.6</ele>
      </trkpt>
      <trkpt lat="37.532935" lon="126.924">
        <ele>8.8</ele>
      </trkpt>
      <trkpt lat="37.532798" lon="126.924354">
        <ele>9.1</ele>
      </trkpt>
      <trkpt lat="37.532638" lon="126.924594">
        <ele>9.3</ele>
      </trkpt>
      <trkpt lat="37.532422" lon="126.924841">
        <ele>9.5</ele>
      </trkpt>
      <trkpt lat="37.532076" lon="126.92514">
        <ele>9.8</ele>
      </trkpt>
      <trkpt lat="37.53179" lon="126.925392">
        <ele>10.0</ele>
      </trkpt>
      <trkpt lat="37.531556" lon="126.925645">
        <ele>10.2</ele>
      </trkpt>
      <trkpt lat="37.531452" lon="126.925815">
        <ele>10.3</ele>
      </trkpt>
      <trkpt lat="37.531458875784935" lon="126.9258213043213">
        <ele>10.4</ele>
      </trkpt>
      <trkpt lat="37.531452" lon="126.925815">
        <ele>10.5</ele>
      </trkpt>
      <trkpt lat="37.531392" lon="126.925916">
        <ele>10.6</ele>
      </trkpt>
      <trkpt lat="37.531163" lon="126.926409">
        <ele>10.7</ele>
      </trkpt>
      <trkpt lat="37.531019" lon="126.926706">
        <ele>10.8</ele>
      </trkpt>
      <trkpt lat="37.530728" lon="126.92729">
        <ele>10.9</ele>
      </trkpt>
      <trkpt lat="37.530545" lon="126.927571">
        <ele>11.1</ele>
      </trkpt>
      <trkpt lat="37.530328" lon="126.928032">
        <ele>11.2</ele>
      </trkpt>
      <trkpt lat="37.530203" lon="126.928286">
        <ele>11.3</ele>
      </trkpt>
      <trkpt lat="37.530159" lon="126.928243">
        <ele>11.4</ele>
      </trkpt>
      <trkpt lat="37.530112" lon="126.928338">
        <ele>11.5</ele>
      </trkpt>
      <trkpt lat="37.530103" lon="126.928366">
        <ele>11.6</ele>
      </trkpt>
      <trkpt lat="37.5301230810454" lon="126.92837476730348">
        <ele>11.7</ele>
      </trkpt>
    </trkseg>
  </trk>
</gpx>