<?xml version="1.0" encoding="UTF-8"?>
<gpx version="1.1" creator="HTML GPX Creator" xmlns="http://www.topografix.com/GPX/1/1">
  <trk>
    <name>deejeon_bbangbbangrun_half</name>
    <trkseg>
      <trkpt lat="36.37057170150288" lon="127.38819122314455">
        <ele>41.4</ele>
      </trkpt>
      <trkpt lat="36.370576" lon="127.388193">
        <ele>41.3</ele>
      </trkpt>
      <trkpt lat="36.370583" lon="127.388173">
        <ele>41.3</ele>
      </trkpt>
      <trkpt lat="36.370596" lon="127.38803">
        <ele>41.3</ele>
      </trkpt>
      <trkpt lat="36.37065" lon="127.388029">
        <ele>41.2</ele>
      </trkpt>
      <trkpt lat="36.371021" lon="127.388037">
        <ele>41.2</ele>
      </trkpt>
      <trkpt lat="36.371078" lon="127.388112">
        <ele>41.2</ele>
      </trkpt>
      <trkpt lat="36.371435" lon="127.388113">
        <ele>41.1</ele>
      </trkpt>
      <trkpt lat="36.371435580958845" lon="127.38811612129213">
        <ele>41.1</ele>
      </trkpt>
      <trkpt lat="36.371435" lon="127.388113">
        <ele>41.1</ele>
      </trkpt>
      <trkpt lat="36.373525" lon="127.388119">
        <ele>41.0</ele>
      </trkpt>
      <trkpt lat="36.373526129544956" lon="127.38812685012819">
        <ele>41.0</ele>
      </trkpt>
      <trkpt lat="36.373525" lon="127.388119">
        <ele>41.0</ele>
      </trkpt>
      <trkpt lat="36.37413" lon="127.38812">
        <ele>41.0</ele>
      </trkpt>
      <trkpt lat="36.37413082320584" lon="127.38816976547243">
        <ele>41.0</ele>
      </trkpt>
      <trkpt lat="36.37413" lon="127.38812">
        <ele>40.9</ele>
      </trkpt>
      <trkpt lat="36.374146" lon="127.388121">
        <ele>40.8</ele>
      </trkpt>
      <trkpt lat="36.374175" lon="127.388121">
        <ele>40.8</ele>
      </trkpt>
      <trkpt lat="36.374179" lon="127.388448">
        <ele>40.7</ele>
      </trkpt>
      <trkpt lat="36.374136" lon="127.388475">
        <ele>40.6</ele>
      </trkpt>
      <trkpt lat="36.374107" lon="127.388556">
        <ele>40.5</ele>
      </trkpt>
      <trkpt lat="36.374095" lon="127.38879">
        <ele>40.5</ele>
      </trkpt>
      <trkpt lat="36.37408" lon="127.388947">
        <ele>40.4</ele>
      </trkpt>
      <trkpt lat="36.374031" lon="127.389127">
        <ele>40.3</ele>
      </trkpt>
      <trkpt lat="36.373998" lon="127.389277">
        <ele>40.3</ele>
      </trkpt>
      <trkpt lat="36.373994" lon="127.389246">
        <ele>40.2</ele>
      </trkpt>
      <trkpt lat="36.37396669253411" lon="127.38925337791444">
        <ele>40.1</ele>
      </trkpt>
      <trkpt lat="36.373994" lon="127.389246">
        <ele>40.1</ele>
      </trkpt>
      <trkpt lat="36.373998" lon="127.389277">
        <ele>40.0</ele>
      </trkpt>
      <trkpt lat="36.374012" lon="127.389548">
        <ele>40.0</ele>
      </trkpt>
      <trkpt lat="36.374066" lon="127.390112">
        <ele>40.0</ele>
      </trkpt>
      <trkpt lat="36.374065" lon="127.390148">
        <ele>39.9</ele>
      </trkpt>
      <trkpt lat="36.374061" lon="127.390417">
        <ele>39.9</ele>
      </trkpt>
      <trkpt lat="36.374061" lon="127.390489">
        <ele>39.9</ele>
      </trkpt>
      <trkpt lat="36.374061" lon="127.39051">
        <ele>39.8</ele>
      </trkpt>
      <trkpt lat="36.374067" lon="127.390769">
        <ele>39.8</ele>
      </trkpt>
      <trkpt lat="36.374069" lon="127.390942">
        <ele>39.8</ele>
      </trkpt>
      <trkpt lat="36.374075" lon="127.391353">
        <ele>39.7</ele>
      </trkpt>
      <trkpt lat="36.374082" lon="127.391849">
        <ele>39.7</ele>
      </trkpt>
      <trkpt lat="36.374086" lon="127.39277">
        <ele>39.6</ele>
      </trkpt>
      <trkpt lat="36.374094" lon="127.392933">
        <ele>39.6</ele>
      </trkpt>
      <trkpt lat="36.374093" lon="127.393076">
        <ele>39.5</ele>
      </trkpt>
      <trkpt lat="36.374071" lon="127.393613">
        <ele>39.5</ele>
      </trkpt>
      <trkpt lat="36.374082" lon="127.3937">
        <ele>39.4</ele>
      </trkpt>
      <trkpt lat="36.374126" lon="127.393826">
        <ele>39.3</ele>
      </trkpt>
      <trkpt lat="36.374168" lon="127.39392">
        <ele>39.3</ele>
      </trkpt>
      <trkpt lat="36.37413946165266" lon="127.39394187927248">
        <ele>39.3</ele>
      </trkpt>
      <trkpt lat="36.374168" lon="127.39392">
        <ele>39.2</ele>
      </trkpt>
      <trkpt lat="36.374289" lon="127.394189">
        <ele>39.2</ele>
      </trkpt>
      <trkpt lat="36.374379" lon="127.39436">
        <ele>39.2</ele>
      </trkpt>
      <trkpt lat="36.374467" lon="127.394596">
        <ele>39.1</ele>
      </trkpt>
      <trkpt lat="36.374618" lon="127.395146">
        <ele>39.1</ele>
      </trkpt>
      <trkpt lat="36.375023" lon="127.396719">
        <ele>39.1</ele>
      </trkpt>
      <trkpt lat="36.375323" lon="127.397846">
        <ele>39.0</ele>
      </trkpt>
      <trkpt lat="36.37529700484875" lon="127.39785790443422">
        <ele>39.0</ele>
      </trkpt>
      <trkpt lat="36.375323" lon="127.397846">
        <ele>38.9</ele>
      </trkpt>
      <trkpt lat="36.375453" lon="127.398335">
        <ele>38.9</ele>
      </trkpt>
      <trkpt lat="36.37567" lon="127.399253">
        <ele>38.8</ele>
      </trkpt>
      <trkpt lat="36.375741" lon="127.399703">
        <ele>38.7</ele>
      </trkpt>
      <trkpt lat="36.375816" lon="127.400582">
        <ele>38.6</ele>
      </trkpt>
      <trkpt lat="36.37587" lon="127.401123">
        <ele>38.5</ele>
      </trkpt>
      <trkpt lat="36.375921" lon="127.401407">
        <ele>38.3</ele>
      </trkpt>
      <trkpt lat="36.37604" lon="127.401941">
        <ele>38.2</ele>
      </trkpt>
      <trkpt lat="36.376336" lon="127.403113">
        <ele>38.1</ele>
      </trkpt>
      <trkpt lat="36.37633359607585" lon="127.40311503410341">
        <ele>37.9</ele>
      </trkpt>
      <trkpt lat="36.376336" lon="127.403113">
        <ele>37.8</ele>
      </trkpt>
      <trkpt lat="36.37642" lon="127.403444">
        <ele>37.6</ele>
      </trkpt>
      <trkpt lat="36.376705" lon="127.404529">
        <ele>37.4</ele>
      </trkpt>
      <trkpt lat="36.376807" lon="127.40487">
        <ele>37.3</ele>
      </trkpt>
      <trkpt lat="36.377091" lon="127.405699">
        <ele>37.1</ele>
      </trkpt>
      <trkpt lat="36.377211" lon="127.405982">
        <ele>36.9</ele>
      </trkpt>
      <trkpt lat="36.377334" lon="127.406253">
        <ele>36.8</ele>
      </trkpt>
      <trkpt lat="36.377583" lon="127.406714">
        <ele>36.6</ele>
      </trkpt>
      <trkpt lat="36.377953" lon="127.407334">
        <ele>36.4</ele>
      </trkpt>
      <trkpt lat="36.378032" lon="127.407453">
        <ele>36.3</ele>
      </trkpt>
      <trkpt lat="36.37802666537129" lon="127.40746021270753">
        <ele>36.1</ele>
      </trkpt>
      <trkpt lat="36.378032" lon="127.407453">
        <ele>35.9</ele>
      </trkpt>
      <trkpt lat="36.378324" lon="127.407888">
        <ele>35.7</ele>
      </trkpt>
      <trkpt lat="36.378934" lon="127.40885">
        <ele>35.5</ele>
      </trkpt>
      <trkpt lat="36.379141" lon="127.409095">
        <ele>35.3</ele>
      </trkpt>
      <trkpt lat="36.379196" lon="127.409161">
        <ele>35.1</ele>
      </trkpt>
      <trkpt lat="36.379252" lon="127.409211">
        <ele>34.9</ele>
      </trkpt>
      <trkpt lat="36.379272" lon="127.409238">
        <ele>34.7</ele>
      </trkpt>
      <trkpt lat="36.379403" lon="127.409273">
        <ele>34.5</ele>
      </trkpt>
      <trkpt lat="36.379619" lon="127.409273">
        <ele>34.3</ele>
      </trkpt>
      <trkpt lat="36.37962036274282" lon="127.40928411483766">
        <ele>34.1</ele>
      </trkpt>
      <trkpt lat="36.379619" lon="127.409273">
        <ele>34.0</ele>
      </trkpt>
      <trkpt lat="36.379866" lon="127.409275">
        <ele>33.8</ele>
      </trkpt>
      <trkpt lat="36.381281" lon="127.409803">
        <ele>33.6</ele>
      </trkpt>
      <trkpt lat="36.381366" lon="127.409831">
        <ele>33.5</ele>
      </trkpt>
      <trkpt lat="36.38136518637117" lon="127.40984201431276">
        <ele>33.3</ele>
      </trkpt>
      <trkpt lat="36.381366" lon="127.409831">
        <ele>33.2</ele>
      </trkpt>
      <trkpt lat="36.381575" lon="127.409901">
        <ele>33.1</ele>
      </trkpt>
      <trkpt lat="36.382342" lon="127.410099">
        <ele>32.9</ele>
      </trkpt>
      <trkpt lat="36.382676" lon="127.410165">
        <ele>32.8</ele>
      </trkpt>
      <trkpt lat="36.383215" lon="127.410224">
        <ele>32.7</ele>
      </trkpt>
      <trkpt lat="36.383852" lon="127.410202">
        <ele>32.6</ele>
      </trkpt>
      <trkpt lat="36.384569" lon="127.410188">
        <ele>32.5</ele>
      </trkpt>
      <trkpt lat="36.38456968620816" lon="127.41020143032075">
        <ele>32.4</ele>
      </trkpt>
      <trkpt lat="36.384569" lon="127.410188">
        <ele>32.3</ele>
      </trkpt>
      <trkpt lat="36.384669" lon="127.410187">
        <ele>32.2</ele>
      </trkpt>
      <trkpt lat="36.385637" lon="127.410143">
        <ele>32.2</ele>
      </trkpt>
      <trkpt lat="36.38639" lon="127.410097">
        <ele>32.1</ele>
      </trkpt>
      <trkpt lat="36.387039" lon="127.410071">
        <ele>32.1</ele>
      </trkpt>
      <trkpt lat="36.387039911307845" lon="127.41007804870607">
        <ele>32.0</ele>
      </trkpt>
      <trkpt lat="36.387039" lon="127.410071">
        <ele>32.0</ele>
      </trkpt>
      <trkpt lat="36.387751" lon="127.410043">
        <ele>32.0</ele>
      </trkpt>
      <trkpt lat="36.389203" lon="127.409955">
        <ele>32.0</ele>
      </trkpt>
      <trkpt lat="36.389203453086154" lon="127.40995466709138">
        <ele>32.0</ele>
      </trkpt>
      <trkpt lat="36.389203" lon="127.409955">
        <ele>32.0</ele>
      </trkpt>
      <trkpt lat="36.390181" lon="127.409896">
        <ele>32.1</ele>
      </trkpt>
      <trkpt lat="36.390296" lon="127.409892">
        <ele>32.1</ele>
      </trkpt>
      <trkpt lat="36.391272" lon="127.409866">
        <ele>32.2</ele>
      </trkpt>
      <trkpt lat="36.391362" lon="127.409868">
        <ele>32.2</ele>
      </trkpt>
      <trkpt lat="36.39136261639088" lon="127.4098688364029">
        <ele>32.3</ele>
      </trkpt>
      <trkpt lat="36.391362" lon="127.409868">
        <ele>32.3</ele>
      </trkpt>
      <trkpt lat="36.391577" lon="127.409874">
        <ele>32.4</ele>
      </trkpt>
      <trkpt lat="36.393806" lon="127.410136">
        <ele>32.4</ele>
      </trkpt>
      <trkpt lat="36.39380671688724" lon="127.41014242172243">
        <ele>32.5</ele>
      </trkpt>
      <trkpt lat="36.393806" lon="127.410136">
        <ele>32.5</ele>
      </trkpt>
      <trkpt lat="36.395377" lon="127.410322">
        <ele>32.6</ele>
      </trkpt>
      <trkpt lat="36.395758" lon="127.410362">
        <ele>32.6</ele>
      </trkpt>
      <trkpt lat="36.395827" lon="127.410366">
        <ele>32.7</ele>
      </trkpt>
      <trkpt lat="36.39582757586519" lon="127.41036772727968">
        <ele>32.8</ele>
      </trkpt>
      <trkpt lat="36.395827" lon="127.410366">
        <ele>32.8</ele>
      </trkpt>
      <trkpt lat="36.396807" lon="127.410429">
        <ele>32.9</ele>
      </trkpt>
      <trkpt lat="36.397036" lon="127.410499">
        <ele>32.9</ele>
      </trkpt>
      <trkpt lat="36.397115" lon="127.410507">
        <ele>33.0</ele>
      </trkpt>
      <trkpt lat="36.397251" lon="127.410508">
        <ele>33.0</ele>
      </trkpt>
      <trkpt lat="36.397585" lon="127.410507">
        <ele>33.1</ele>
      </trkpt>
      <trkpt lat="36.397753" lon="127.410506">
        <ele>33.1</ele>
      </trkpt>
      <trkpt lat="36.398059" lon="127.410519">
        <ele>33.1</ele>
      </trkpt>
      <trkpt lat="36.39805995942522" lon="127.41052329540254">
        <ele>33.1</ele>
      </trkpt>
      <trkpt lat="36.398059" lon="127.410519">
        <ele>33.1</ele>
      </trkpt>
      <trkpt lat="36.398702" lon="127.410548">
        <ele>33.1</ele>
      </trkpt>
      <trkpt lat="36.399207" lon="127.410685">
        <ele>33.1</ele>
      </trkpt>
      <trkpt lat="36.399716" lon="127.410856">
        <ele>33.1</ele>
      </trkpt>
      <trkpt lat="36.39986" lon="127.410912">
        <ele>33.1</ele>
      </trkpt>
      <trkpt lat="36.400101" lon="127.411006">
        <ele>33.0</ele>
      </trkpt>
      <trkpt lat="36.400221" lon="127.41104">
        <ele>33.0</ele>
      </trkpt>
      <trkpt lat="36.400223194505436" lon="127.4110382795334">
        <ele>32.9</ele>
      </trkpt>
      <trkpt lat="36.400221" lon="127.41104">
        <ele>32.8</ele>
      </trkpt>
      <trkpt lat="36.400478" lon="127.411112">
        <ele>32.7</ele>
      </trkpt>
      <trkpt lat="36.401488" lon="127.411321">
        <ele>32.6</ele>
      </trkpt>
      <trkpt lat="36.402" lon="127.411438">
        <ele>32.5</ele>
      </trkpt>
      <trkpt lat="36.402626" lon="127.411591">
        <ele>32.4</ele>
      </trkpt>
      <trkpt lat="36.402724" lon="127.411611">
        <ele>32.3</ele>
      </trkpt>
      <trkpt lat="36.40272314566992" lon="127.41162836551668">
        <ele>32.1</ele>
      </trkpt>
      <trkpt lat="36.402724" lon="127.411611">
        <ele>32.0</ele>
      </trkpt>
      <trkpt lat="36.404064" lon="127.411892">
        <ele>31.9</ele>
      </trkpt>
      <trkpt lat="36.404512" lon="127.411999">
        <ele>31.8</ele>
      </trkpt>
      <trkpt lat="36.404834" lon="127.412143">
        <ele>31.7</ele>
      </trkpt>
      <trkpt lat="36.40483444074438" lon="127.41214871406557">
        <ele>31.6</ele>
      </trkpt>
      <trkpt lat="36.404834" lon="127.412143">
        <ele>31.5</ele>
      </trkpt>
      <trkpt lat="36.404908" lon="127.412176">
        <ele>31.4</ele>
      </trkpt>
      <trkpt lat="36.405035" lon="127.412226">
        <ele>31.3</ele>
      </trkpt>
      <trkpt lat="36.405668" lon="127.412455">
        <ele>31.2</ele>
      </trkpt>
      <trkpt lat="36.406263" lon="127.412721">
        <ele>31.1</ele>
      </trkpt>
      <trkpt lat="36.406677" lon="127.412938">
        <ele>31.0</ele>
      </trkpt>
      <trkpt lat="36.407336" lon="127.413303">
        <ele>30.9</ele>
      </trkpt>
      <trkpt lat="36.407777" lon="127.413556">
        <ele>30.9</ele>
      </trkpt>
      <trkpt lat="36.407774614995844" lon="127.41356492042543">
        <ele>30.8</ele>
      </trkpt>
      <trkpt lat="36.407777" lon="127.413556">
        <ele>30.7</ele>
      </trkpt>
      <trkpt lat="36.408688" lon="127.414081">
        <ele>30.7</ele>
      </trkpt>
      <trkpt lat="36.409421" lon="127.414493">
        <ele>30.6</ele>
      </trkpt>
      <trkpt lat="36.409735" lon="127.414682">
        <ele>30.6</ele>
      </trkpt>
      <trkpt lat="36.4097346693506" lon="127.41468608379365">
        <ele>30.6</ele>
      </trkpt>
      <trkpt lat="36.409735" lon="127.414682">
        <ele>30.5</ele>
      </trkpt>
      <trkpt lat="36.409999" lon="127.414841">
        <ele>30.5</ele>
      </trkpt>
      <trkpt lat="36.410315" lon="127.415076">
        <ele>30.5</ele>
      </trkpt>
      <trkpt lat="36.410602" lon="127.415305">
        <ele>30.5</ele>
      </trkpt>
      <trkpt lat="36.410627" lon="127.415381">
        <ele>30.5</ele>
      </trkpt>
      <trkpt lat="36.410812" lon="127.415392">
        <ele>30.5</ele>
      </trkpt>
      <trkpt lat="36.411463" lon="127.4156">
        <ele>30.5</ele>
      </trkpt>
      <trkpt lat="36.411501" lon="127.41559">
        <ele>30.5</ele>
      </trkpt>
      <trkpt lat="36.411526" lon="127.415562">
        <ele>30.5</ele>
      </trkpt>
      <trkpt lat="36.411981" lon="127.415773">
        <ele>30.5</ele>
      </trkpt>
      <trkpt lat="36.412147" lon="127.415842">
        <ele>30.5</ele>
      </trkpt>
      <trkpt lat="36.412152289423005" lon="127.415828704834">
        <ele>30.5</ele>
      </trkpt>
      <trkpt lat="36.412147" lon="127.415842">
        <ele>30.5</ele>
      </trkpt>
      <trkpt lat="36.412499" lon="127.415988">
        <ele>30.5</ele>
      </trkpt>
      <trkpt lat="36.413715" lon="127.416439">
        <ele>30.4</ele>
      </trkpt>
      <trkpt lat="36.413844" lon="127.416479">
        <ele>30.4</ele>
      </trkpt>
      <trkpt lat="36.414175" lon="127.416582">
        <ele>30.4</ele>
      </trkpt>
      <trkpt lat="36.414343" lon="127.41661">
        <ele>30.3</ele>
      </trkpt>
      <trkpt lat="36.414421" lon="127.416608">
        <ele>30.3</ele>
      </trkpt>
      <trkpt lat="36.414634" lon="127.416515">
        <ele>30.3</ele>
      </trkpt>
      <trkpt lat="36.41487" lon="127.416392">
        <ele>30.2</ele>
      </trkpt>
      <trkpt lat="36.415332" lon="127.416127">
        <ele>30.2</ele>
      </trkpt>
      <trkpt lat="36.415487" lon="127.416045">
        <ele>30.1</ele>
      </trkpt>
      <trkpt lat="36.41548502802049" lon="127.41603791713716">
        <ele>30.1</ele>
      </trkpt>
      <trkpt lat="36.415487" lon="127.416045">
        <ele>30.0</ele>
      </trkpt>
      <trkpt lat="36.415625" lon="127.415974">
        <ele>29.9</ele>
      </trkpt>
      <trkpt lat="36.416019" lon="127.415767">
        <ele>29.9</ele>
      </trkpt>
      <trkpt lat="36.4162" lon="127.415656">
        <ele>29.8</ele>
      </trkpt>
      <trkpt lat="36.416778" lon="127.415301">
        <ele>29.6</ele>
      </trkpt>
      <trkpt lat="36.417734" lon="127.414761">
        <ele>29.5</ele>
      </trkpt>
      <trkpt lat="36.418045" lon="127.414576">
        <ele>29.4</ele>
      </trkpt>
      <trkpt lat="36.418124" lon="127.414532">
        <ele>29.3</ele>
      </trkpt>
      <trkpt lat="36.418236" lon="127.414466">
        <ele>29.1</ele>
      </trkpt>
      <trkpt lat="36.41823917816369" lon="127.41447150707246">
        <ele>29.0</ele>
      </trkpt>
      <trkpt lat="36.418236" lon="127.414466">
        <ele>28.9</ele>
      </trkpt>
      <trkpt lat="36.418824" lon="127.414127">
        <ele>28.8</ele>
      </trkpt>
      <trkpt lat="36.419123" lon="127.413924">
        <ele>28.6</ele>
      </trkpt>
      <trkpt lat="36.419372" lon="127.413731">
        <ele>28.5</ele>
      </trkpt>
      <trkpt lat="36.419723" lon="127.41344">
        <ele>28.4</ele>
      </trkpt>
      <trkpt lat="36.420128" lon="127.413065">
        <ele>28.3</ele>
      </trkpt>
      <trkpt lat="36.421136" lon="127.41207">
        <ele>28.2</ele>
      </trkpt>
      <trkpt lat="36.421186" lon="127.41209">
        <ele>28.1</ele>
      </trkpt>
      <trkpt lat="36.421261" lon="127.412054">
        <ele>27.9</ele>
      </trkpt>
      <trkpt lat="36.421315" lon="127.412015">
        <ele>27.9</ele>
      </trkpt>
      <trkpt lat="36.42144" lon="127.411973">
        <ele>27.8</ele>
      </trkpt>
      <trkpt lat="36.421501" lon="127.411978">
        <ele>27.7</ele>
      </trkpt>
      <trkpt lat="36.421567" lon="127.411994">
        <ele>27.6</ele>
      </trkpt>
      <trkpt lat="36.42169" lon="127.412046">
        <ele>27.5</ele>
      </trkpt>
      <trkpt lat="36.421715" lon="127.411995">
        <ele>27.4</ele>
      </trkpt>
      <trkpt lat="36.421725" lon="127.411952">
        <ele>27.4</ele>
      </trkpt>
      <trkpt lat="36.421743" lon="127.411758">
        <ele>27.3</ele>
      </trkpt>
      <trkpt lat="36.42176" lon="127.411718">
        <ele>27.2</ele>
      </trkpt>
      <trkpt lat="36.42182" lon="127.411648">
        <ele>27.2</ele>
      </trkpt>
      <trkpt lat="36.42181770070702" lon="127.41164445877077">
        <ele>27.1</ele>
      </trkpt>
      <trkpt lat="36.42182" lon="127.411648">
        <ele>27.1</ele>
      </trkpt>
      <trkpt lat="36.421956" lon="127.411493">
        <ele>27.1</ele>
      </trkpt>
      <trkpt lat="36.422411" lon="127.410908">
        <ele>27.1</ele>
      </trkpt>
      <trkpt lat="36.423036" lon="127.410015">
        <ele>27.1</ele>
      </trkpt>
      <trkpt lat="36.423823" lon="127.408875">
        <ele>27.1</ele>
      </trkpt>
      <trkpt lat="36.424767" lon="127.4075">
        <ele>27.1</ele>
      </trkpt>
      <trkpt lat="36.425496" lon="127.406472">
        <ele>27.1</ele>
      </trkpt>
      <trkpt lat="36.42557" lon="127.406398">
        <ele>27.1</ele>
      </trkpt>
      <trkpt lat="36.425631" lon="127.406348">
        <ele>27.1</ele>
      </trkpt>
      <trkpt lat="36.42601" lon="127.405753">
        <ele>27.2</ele>
      </trkpt>
      <trkpt lat="36.426106" lon="127.405613">
        <ele>27.2</ele>
      </trkpt>
      <trkpt lat="36.426108257015336" lon="127.40561485290529">
        <ele>27.3</ele>
      </trkpt>
      <trkpt lat="36.426106" lon="127.405613">
        <ele>27.3</ele>
      </trkpt>
      <trkpt lat="36.427103" lon="127.404169">
        <ele>27.4</ele>
      </trkpt>
      <trkpt lat="36.427515" lon="127.403623">
        <ele>27.4</ele>
      </trkpt>
      <trkpt lat="36.42761" lon="127.403542">
        <ele>27.5</ele>
      </trkpt>
      <trkpt lat="36.427742" lon="127.403456">
        <ele>27.6</ele>
      </trkpt>
      <trkpt lat="36.427829" lon="127.403384">
        <ele>27.7</ele>
      </trkpt>
      <trkpt lat="36.427906" lon="127.403264">
        <ele>27.8</ele>
      </trkpt>
      <trkpt lat="36.428012" lon="127.403089">
        <ele>27.9</ele>
      </trkpt>
      <trkpt lat="36.428076" lon="127.402958">
        <ele>27.9</ele>
      </trkpt>
      <trkpt lat="36.428165" lon="127.402777">
        <ele>28.0</ele>
      </trkpt>
      <trkpt lat="36.428307" lon="127.402463">
        <ele>28.1</ele>
      </trkpt>
      <trkpt lat="36.428696" lon="127.401772">
        <ele>28.2</ele>
      </trkpt>
      <trkpt lat="36.429048" lon="127.401165">
        <ele>28.3</ele>
      </trkpt>
      <trkpt lat="36.42904330986465" lon="127.4011516571045">
        <ele>28.3</ele>
      </trkpt>
      <trkpt lat="36.429051" lon="127.401158">
        <ele>28.4</ele>
      </trkpt>
      <trkpt lat="36.429395" lon="127.400528">
        <ele>28.5</ele>
      </trkpt>
      <trkpt lat="36.429672" lon="127.40007">
        <ele>28.6</ele>
      </trkpt>
      <trkpt lat="36.430022" lon="127.399488">
        <ele>28.6</ele>
      </trkpt>
      <trkpt lat="36.430279" lon="127.399237">
        <ele>28.7</ele>
      </trkpt>
      <trkpt lat="36.431508" lon="127.398149">
        <ele>28.7</ele>
      </trkpt>
      <trkpt lat="36.431784" lon="127.397873">
        <ele>28.7</ele>
      </trkpt>
      <trkpt lat="36.432287" lon="127.397349">
        <ele>28.7</ele>
      </trkpt>
      <trkpt lat="36.432637" lon="127.396971">
        <ele>28.7</ele>
      </trkpt>
      <trkpt lat="36.43263428241077" lon="127.39696741104127">
        <ele>28.7</ele>
      </trkpt>
      <trkpt lat="36.432637" lon="127.396971">
        <ele>28.7</ele>
      </trkpt>
      <trkpt lat="36.433697" lon="127.395831">
        <ele>28.7</ele>
      </trkpt>
      <trkpt lat="36.434386" lon="127.395073">
        <ele>28.7</ele>
      </trkpt>
      <trkpt lat="36.434627" lon="127.394786">
        <ele>28.7</ele>
      </trkpt>
      <trkpt lat="36.434947" lon="127.394322">
        <ele>28.6</ele>
      </trkpt>
      <trkpt lat="36.435524" lon="127.393284">
        <ele>28.6</ele>
      </trkpt>
      <trkpt lat="36.43591" lon="127.392573">
        <ele>28.6</ele>
      </trkpt>
      <trkpt lat="36.435919" lon="127.392555">
        <ele>28.5</ele>
      </trkpt>
      <trkpt lat="36.435922984119706" lon="127.39255785942079">
        <ele>28.4</ele>
      </trkpt>
      <trkpt lat="36.435919" lon="127.392555">
        <ele>28.4</ele>
      </trkpt>
      <trkpt lat="36.43591" lon="127.392573">
        <ele>28.3</ele>
      </trkpt>
      <trkpt lat="36.435975" lon="127.392546">
        <ele>28.1</ele>
      </trkpt>
      <trkpt lat="36.43632" lon="127.392129">
        <ele>28.0</ele>
      </trkpt>
      <trkpt lat="36.43632003579081" lon="127.39212870597841">
        <ele>27.9</ele>
      </trkpt>
      <trkpt lat="36.436760242877774" lon="127.39286899566652">
        <ele>27.7</ele>
      </trkpt>
      <trkpt lat="36.436777" lon="127.392885">
        <ele>27.6</ele>
      </trkpt>
      <trkpt lat="36.436442" lon="127.393443">
        <ele>27.4</ele>
      </trkpt>
      <trkpt lat="36.436045" lon="127.394009">
        <ele>27.3</ele>
      </trkpt>
      <trkpt lat="36.435631" lon="127.394563">
        <ele>27.1</ele>
      </trkpt>
      <trkpt lat="36.435416" lon="127.394867">
        <ele>27.0</ele>
      </trkpt>
      <trkpt lat="36.435413719220286" lon="127.3948645591736">
        <ele>26.9</ele>
      </trkpt>
      <trkpt lat="36.435416" lon="127.394867">
        <ele>26.7</ele>
      </trkpt>
      <trkpt lat="36.43474" lon="127.395829">
        <ele>26.6</ele>
      </trkpt>
      <trkpt lat="36.433528" lon="127.397414">
        <ele>26.5</ele>
      </trkpt>
      <trkpt lat="36.433096" lon="127.397904">
        <ele>26.4</ele>
      </trkpt>
      <trkpt lat="36.432047" lon="127.398961">
        <ele>26.2</ele>
      </trkpt>
      <trkpt lat="36.431796" lon="127.39937">
        <ele>26.1</ele>
      </trkpt>
      <trkpt lat="36.431796979144245" lon="127.39937067031862">
        <ele>26.0</ele>
      </trkpt>
      <trkpt lat="36.431796" lon="127.39937">
        <ele>25.9</ele>
      </trkpt>
      <trkpt lat="36.431218" lon="127.400319">
        <ele>25.8</ele>
      </trkpt>
      <trkpt lat="36.431056" lon="127.400507">
        <ele>25.7</ele>
      </trkpt>
      <trkpt lat="36.430965" lon="127.400596">
        <ele>25.7</ele>
      </trkpt>
      <trkpt lat="36.43089" lon="127.40062">
        <ele>25.6</ele>
      </trkpt>
      <trkpt lat="36.430807" lon="127.400601">
        <ele>25.5</ele>
      </trkpt>
      <trkpt lat="36.430632" lon="127.400472">
        <ele>25.5</ele>
      </trkpt>
      <trkpt lat="36.430539" lon="127.400554">
        <ele>25.4</ele>
      </trkpt>
      <trkpt lat="36.43013" lon="127.400986">
        <ele>25.3</ele>
      </trkpt>
      <trkpt lat="36.43006" lon="127.401079">
        <ele>25.3</ele>
      </trkpt>
      <trkpt lat="36.430045" lon="127.401067">
        <ele>25.2</ele>
      </trkpt>
      <trkpt lat="36.430053287683336" lon="127.40105509757997">
        <ele>25.2</ele>
      </trkpt>
      <trkpt lat="36.430045" lon="127.401067">
        <ele>25.2</ele>
      </trkpt>
      <trkpt lat="36.43006" lon="127.401079">
        <ele>25.1</ele>
      </trkpt>
      <trkpt lat="36.430097" lon="127.401153">
        <ele>25.1</ele>
      </trkpt>
      <trkpt lat="36.430156" lon="127.401208">
        <ele>25.1</ele>
      </trkpt>
      <trkpt lat="36.43027" lon="127.401426">
        <ele>25.1</ele>
      </trkpt>
      <trkpt lat="36.430294" lon="127.401577">
        <ele>25.1</ele>
      </trkpt>
      <trkpt lat="36.43028" lon="127.4017">
        <ele>25.1</ele>
      </trkpt>
      <trkpt lat="36.430168" lon="127.401946">
        <ele>25.2</ele>
      </trkpt>
      <trkpt lat="36.429337" lon="127.402882">
        <ele>25.2</ele>
      </trkpt>
      <trkpt lat="36.42859" lon="127.403695">
        <ele>25.2</ele>
      </trkpt>
      <trkpt lat="36.428492" lon="127.403803">
        <ele>25.2</ele>
      </trkpt>
      <trkpt lat="36.428346" lon="127.403903">
        <ele>25.2</ele>
      </trkpt>
      <trkpt lat="36.428081" lon="127.404099">
        <ele>25.3</ele>
      </trkpt>
      <trkpt lat="36.427647" lon="127.404448">
        <ele>25.3</ele>
      </trkpt>
      <trkpt lat="36.427459" lon="127.404629">
        <ele>25.3</ele>
      </trkpt>
      <trkpt lat="36.427251" lon="127.404895">
        <ele>25.3</ele>
      </trkpt>
      <trkpt lat="36.427204" lon="127.404988">
        <ele>25.3</ele>
      </trkpt>
      <trkpt lat="36.42719596601219" lon="127.40498185157777">
        <ele>25.4</ele>
      </trkpt>
      <trkpt lat="36.427204" lon="127.404988">
        <ele>25.4</ele>
      </trkpt>
      <trkpt lat="36.427031" lon="127.405339">
        <ele>25.4</ele>
      </trkpt>
      <trkpt lat="36.426799" lon="127.405867">
        <ele>25.4</ele>
      </trkpt>
      <trkpt lat="36.426637" lon="127.406111">
        <ele>25.5</ele>
      </trkpt>
      <trkpt lat="36.426158" lon="127.406712">
        <ele>25.5</ele>
      </trkpt>
      <trkpt lat="36.425569" lon="127.407478">
        <ele>25.5</ele>
      </trkpt>
      <trkpt lat="36.425242" lon="127.407914">
        <ele>25.6</ele>
      </trkpt>
      <trkpt lat="36.424984" lon="127.408229">
        <ele>25.6</ele>
      </trkpt>
      <trkpt lat="36.424468" lon="127.408833">
        <ele>25.6</ele>
      </trkpt>
      <trkpt lat="36.424175" lon="127.409259">
        <ele>25.7</ele>
      </trkpt>
      <trkpt lat="36.424162" lon="127.409244">
        <ele>25.7</ele>
      </trkpt>
      <trkpt lat="36.42416588161885" lon="127.40924119949342">
        <ele>25.7</ele>
      </trkpt>
      <trkpt lat="36.424162" lon="127.409244">
        <ele>25.8</ele>
      </trkpt>
      <trkpt lat="36.424175" lon="127.409259">
        <ele>25.8</ele>
      </trkpt>
      <trkpt lat="36.423938" lon="127.409609">
        <ele>25.9</ele>
      </trkpt>
      <trkpt lat="36.423723" lon="127.409899">
        <ele>25.9</ele>
      </trkpt>
      <trkpt lat="36.422677" lon="127.411811">
        <ele>25.9</ele>
      </trkpt>
      <trkpt lat="36.422137" lon="127.412642">
        <ele>26.0</ele>
      </trkpt>
      <trkpt lat="36.42213" lon="127.412623">
        <ele>26.0</ele>
      </trkpt>
      <trkpt lat="36.42213712654799" lon="127.41262078285219">
        <ele>26.1</ele>
      </trkpt>
      <trkpt lat="36.42213" lon="127.412623">
        <ele>26.1</ele>
      </trkpt>
      <trkpt lat="36.422137" lon="127.412642">
        <ele>26.1</ele>
      </trkpt>
      <trkpt lat="36.421408" lon="127.413646">
        <ele>26.2</ele>
      </trkpt>
      <trkpt lat="36.421242" lon="127.413854">
        <ele>26.2</ele>
      </trkpt>
      <trkpt lat="36.421074" lon="127.414042">
        <ele>26.3</ele>
      </trkpt>
      <trkpt lat="36.420902" lon="127.414222">
        <ele>26.3</ele>
      </trkpt>
      <trkpt lat="36.420751" lon="127.414367">
        <ele>26.4</ele>
      </trkpt>
      <trkpt lat="36.420567" lon="127.414529">
        <ele>26.4</ele>
      </trkpt>
      <trkpt lat="36.420369" lon="127.414687">
        <ele>26.4</ele>
      </trkpt>
      <trkpt lat="36.419991" lon="127.414943">
        <ele>26.5</ele>
      </trkpt>
      <trkpt lat="36.418794" lon="127.415676">
        <ele>26.6</ele>
      </trkpt>
      <trkpt lat="36.418642" lon="127.415701">
        <ele>26.6</ele>
      </trkpt>
      <trkpt lat="36.418589" lon="127.415741">
        <ele>26.7</ele>
      </trkpt>
      <trkpt lat="36.418516" lon="127.415852">
        <ele>26.8</ele>
      </trkpt>
      <trkpt lat="36.418237" lon="127.416027">
        <ele>26.8</ele>
      </trkpt>
      <trkpt lat="36.41823486139035" lon="127.41602182388307">
        <ele>26.9</ele>
      </trkpt>
      <trkpt lat="36.418237" lon="127.416027">
        <ele>26.9</ele>
      </trkpt>
      <trkpt lat="36.417176" lon="127.416698">
        <ele>27.0</ele>
      </trkpt>
      <trkpt lat="36.416144" lon="127.41734">
        <ele>27.1</ele>
      </trkpt>
      <trkpt lat="36.416029" lon="127.417411">
        <ele>27.1</ele>
      </trkpt>
      <trkpt lat="36.415852" lon="127.417502">
        <ele>27.2</ele>
      </trkpt>
      <trkpt lat="36.415605" lon="127.417577">
        <ele>27.2</ele>
      </trkpt>
      <trkpt lat="36.415424" lon="127.41762">
        <ele>27.3</ele>
      </trkpt>
      <trkpt lat="36.41518" lon="127.417648">
        <ele>27.4</ele>
      </trkpt>
      <trkpt lat="36.415179" lon="127.41764">
        <ele>27.4</ele>
      </trkpt>
      <trkpt lat="36.41517852564881" lon="127.41764187812807">
        <ele>27.5</ele>
      </trkpt>
      <trkpt lat="36.415179" lon="127.41764">
        <ele>27.6</ele>
      </trkpt>
      <trkpt lat="36.41518" lon="127.417648">
        <ele>27.6</ele>
      </trkpt>
      <trkpt lat="36.414867" lon="127.417639">
        <ele>27.7</ele>
      </trkpt>
      <trkpt lat="36.414535" lon="127.417603">
        <ele>27.8</ele>
      </trkpt>
      <trkpt lat="36.414255" lon="127.417535">
        <ele>27.9</ele>
      </trkpt>
      <trkpt lat="36.41366" lon="127.417245">
        <ele>27.9</ele>
      </trkpt>
      <trkpt lat="36.413437" lon="127.417116">
        <ele>28.0</ele>
      </trkpt>
      <trkpt lat="36.412125" lon="127.416313">
        <ele>28.1</ele>
      </trkpt>
      <trkpt lat="36.4121307038624" lon="127.41630077362062">
        <ele>28.2</ele>
      </trkpt>
      <trkpt lat="36.412125" lon="127.416313">
        <ele>28.3</ele>
      </trkpt>
      <trkpt lat="36.410605" lon="127.415384">
        <ele>28.4</ele>
      </trkpt>
      <trkpt lat="36.410402" lon="127.415216">
        <ele>28.4</ele>
      </trkpt>
      <trkpt lat="36.410033" lon="127.415075">
        <ele>28.5</ele>
      </trkpt>
      <trkpt lat="36.40932" lon="127.414659">
        <ele>28.6</ele>
      </trkpt>
      <trkpt lat="36.40932452990944" lon="127.41464853286745">
        <ele>28.7</ele>
      </trkpt>
      <trkpt lat="36.40932" lon="127.414659">
        <ele>28.7</ele>
      </trkpt>
      <trkpt lat="36.408736" lon="127.414318">
        <ele>28.8</ele>
      </trkpt>
      <trkpt lat="36.408027" lon="127.41386">
        <ele>28.9</ele>
      </trkpt>
      <trkpt lat="36.407351" lon="127.413498">
        <ele>28.9</ele>
      </trkpt>
      <trkpt lat="36.406051" lon="127.412974">
        <ele>29.0</ele>
      </trkpt>
      <trkpt lat="36.405469" lon="127.412769">
        <ele>29.1</ele>
      </trkpt>
      <trkpt lat="36.405368" lon="127.412741">
        <ele>29.1</ele>
      </trkpt>
      <trkpt lat="36.40536981115458" lon="127.41273880004884">
        <ele>29.2</ele>
      </trkpt>
      <trkpt lat="36.405368" lon="127.412741">
        <ele>29.3</ele>
      </trkpt>
      <trkpt lat="36.40422" lon="127.412424">
        <ele>29.4</ele>
      </trkpt>
      <trkpt lat="36.403565" lon="127.412263">
        <ele>29.4</ele>
      </trkpt>
      <trkpt lat="36.402204" lon="127.41196">
        <ele>29.5</ele>
      </trkpt>
      <trkpt lat="36.402148" lon="127.41195">
        <ele>29.6</ele>
      </trkpt>
      <trkpt lat="36.401435" lon="127.411777">
        <ele>29.6</ele>
      </trkpt>
      <trkpt lat="36.401091" lon="127.411702">
        <ele>29.7</ele>
      </trkpt>
      <trkpt lat="36.400155" lon="127.411452">
        <ele>29.8</ele>
      </trkpt>
      <trkpt lat="36.399625" lon="127.411329">
        <ele>29.9</ele>
      </trkpt>
      <trkpt lat="36.399608" lon="127.411325">
        <ele>29.9</ele>
      </trkpt>
      <trkpt lat="36.39961006812233" lon="127.41132259368898">
        <ele>30.0</ele>
      </trkpt>
      <trkpt lat="36.399608" lon="127.411325">
        <ele>30.1</ele>
      </trkpt>
      <trkpt lat="36.398317" lon="127.411017">
        <ele>30.2</ele>
      </trkpt>
      <trkpt lat="36.397231" lon="127.410771">
        <ele>30.2</ele>
      </trkpt>
      <trkpt lat="36.397151" lon="127.410758">
        <ele>30.3</ele>
      </trkpt>
      <trkpt lat="36.396454" lon="127.410597">
        <ele>30.4</ele>
      </trkpt>
      <trkpt lat="36.395869" lon="127.410487">
        <ele>30.4</ele>
      </trkpt>
      <trkpt lat="36.395294" lon="127.410395">
        <ele>30.5</ele>
      </trkpt>
      <trkpt lat="36.394404" lon="127.4103">
        <ele>30.6</ele>
      </trkpt>
      <trkpt lat="36.39267" lon="127.41017">
        <ele>30.6</ele>
      </trkpt>
      <trkpt lat="36.392027" lon="127.410154">
        <ele>30.7</ele>
      </trkpt>
      <trkpt lat="36.39202762660925" lon="127.41016387939455">
        <ele>30.8</ele>
      </trkpt>
      <trkpt lat="36.392027" lon="127.410154">
        <ele>30.9</ele>
      </trkpt>
      <trkpt lat="36.391019" lon="127.41013">
        <ele>30.9</ele>
      </trkpt>
      <trkpt lat="36.389893" lon="127.410145">
        <ele>31.0</ele>
      </trkpt>
      <trkpt lat="36.388428" lon="127.410189">
        <ele>31.1</ele>
      </trkpt>
      <trkpt lat="36.387725" lon="127.410188">
        <ele>31.2</ele>
      </trkpt>
      <trkpt lat="36.386363" lon="127.41021">
        <ele>31.3</ele>
      </trkpt>
      <trkpt lat="36.385196" lon="127.410252">
        <ele>31.4</ele>
      </trkpt>
      <trkpt lat="36.385195887059176" lon="127.41024971008302">
        <ele>31.5</ele>
      </trkpt>
      <trkpt lat="36.385196" lon="127.410252">
        <ele>31.6</ele>
      </trkpt>
      <trkpt lat="36.384652" lon="127.410272">
        <ele>31.7</ele>
      </trkpt>
      <trkpt lat="36.383838" lon="127.410288">
        <ele>31.9</ele>
      </trkpt>
      <trkpt lat="36.382894" lon="127.410304">
        <ele>32.0</ele>
      </trkpt>
      <trkpt lat="36.382497" lon="127.410278">
        <ele>32.1</ele>
      </trkpt>
      <trkpt lat="36.381524" lon="127.410097">
        <ele>32.3</ele>
      </trkpt>
      <trkpt lat="36.380343" lon="127.409785">
        <ele>32.4</ele>
      </trkpt>
      <trkpt lat="36.379971" lon="127.409663">
        <ele>32.5</ele>
      </trkpt>
      <trkpt lat="36.379603" lon="127.409521">
        <ele>32.6</ele>
      </trkpt>
      <trkpt lat="36.379427" lon="127.409438">
        <ele>32.8</ele>
      </trkpt>
      <trkpt lat="36.379426011153285" lon="127.40944504737855">
        <ele>32.9</ele>
      </trkpt>
      <trkpt lat="36.379427" lon="127.409438">
        <ele>33.0</ele>
      </trkpt>
      <trkpt lat="36.379359" lon="127.409407">
        <ele>33.1</ele>
      </trkpt>
      <trkpt lat="36.3793" lon="127.409334">
        <ele>33.3</ele>
      </trkpt>
      <trkpt lat="36.379272" lon="127.409238">
        <ele>33.4</ele>
      </trkpt>
      <trkpt lat="36.379252" lon="127.409211">
        <ele>33.5</ele>
      </trkpt>
      <trkpt lat="36.379196" lon="127.409161">
        <ele>33.7</ele>
      </trkpt>
      <trkpt lat="36.379141" lon="127.409095">
        <ele>33.8</ele>
      </trkpt>
      <trkpt lat="36.379088" lon="127.409144">
        <ele>33.9</ele>
      </trkpt>
      <trkpt lat="36.378892" lon="127.409117">
        <ele>34.0</ele>
      </trkpt>
      <trkpt lat="36.378743" lon="127.408939">
        <ele>34.2</ele>
      </trkpt>
      <trkpt lat="36.378643" lon="127.408748">
        <ele>34.3</ele>
      </trkpt>
      <trkpt lat="36.377995" lon="127.407811">
        <ele>34.5</ele>
      </trkpt>
      <trkpt lat="36.37798347528613" lon="127.40782499313356">
        <ele>34.6</ele>
      </trkpt>
      <trkpt lat="36.377995" lon="127.407811">
        <ele>34.8</ele>
      </trkpt>
      <trkpt lat="36.377906" lon="127.407683">
        <ele>34.9</ele>
      </trkpt>
      <trkpt lat="36.377562" lon="127.407068">
        <ele>35.0</ele>
      </trkpt>
      <trkpt lat="36.377362" lon="127.406617">
        <ele>35.2</ele>
      </trkpt>
      <trkpt lat="36.375891" lon="127.402068">
        <ele>35.3</ele>
      </trkpt>
      <trkpt lat="36.375849" lon="127.401871">
        <ele>35.5</ele>
      </trkpt>
      <trkpt lat="36.375823940448825" lon="127.40188121795656">
        <ele>35.6</ele>
      </trkpt>
      <trkpt lat="36.375849" lon="127.401871">
        <ele>35.7</ele>
      </trkpt>
      <trkpt lat="36.375792" lon="127.401604">
        <ele>35.8</ele>
      </trkpt>
      <trkpt lat="36.375773" lon="127.401058">
        <ele>35.9</ele>
      </trkpt>
      <trkpt lat="36.375407" lon="127.399911">
        <ele>36.0</ele>
      </trkpt>
      <trkpt lat="36.375213" lon="127.399359">
        <ele>36.0</ele>
      </trkpt>
      <trkpt lat="36.375117" lon="127.399112">
        <ele>36.1</ele>
      </trkpt>
      <trkpt lat="36.375052" lon="127.398979">
        <ele>36.3</ele>
      </trkpt>
      <trkpt lat="36.375005" lon="127.398827">
        <ele>36.4</ele>
      </trkpt>
      <trkpt lat="36.374937" lon="127.398615">
        <ele>36.5</ele>
      </trkpt>
      <trkpt lat="36.374986" lon="127.398589">
        <ele>36.6</ele>
      </trkpt>
      <trkpt lat="36.374815" lon="127.398052">
        <ele>36.7</ele>
      </trkpt>
      <trkpt lat="36.374637" lon="127.397496">
        <ele>36.9</ele>
      </trkpt>
      <trkpt lat="36.37462321314318" lon="127.39750385284425">
        <ele>37.0</ele>
      </trkpt>
      <trkpt lat="36.374637" lon="127.397496">
        <ele>37.1</ele>
      </trkpt>
      <trkpt lat="36.374495" lon="127.397054">
        <ele>37.3</ele>
      </trkpt>
      <trkpt lat="36.373814" lon="127.394867">
        <ele>37.4</ele>
      </trkpt>
      <trkpt lat="36.373736" lon="127.394625">
        <ele>37.6</ele>
      </trkpt>
      <trkpt lat="36.373655" lon="127.393834">
        <ele>37.8</ele>
      </trkpt>
      <trkpt lat="36.373657" lon="127.392932">
        <ele>38.0</ele>
      </trkpt>
      <trkpt lat="36.373664" lon="127.390033">
        <ele>38.1</ele>
      </trkpt>
      <trkpt lat="36.373666" lon="127.38965">
        <ele>38.3</ele>
      </trkpt>
      <trkpt lat="36.3736643456533" lon="127.38965034484865">
        <ele>38.5</ele>
      </trkpt>
      <trkpt lat="36.373666" lon="127.38965">
        <ele>38.7</ele>
      </trkpt>
      <trkpt lat="36.373681" lon="127.38766">
        <ele>38.8</ele>
      </trkpt>
      <trkpt lat="36.373686" lon="127.387072">
        <ele>39.0</ele>
      </trkpt>
      <trkpt lat="36.373692" lon="127.386367">
        <ele>39.2</ele>
      </trkpt>
      <trkpt lat="36.373681622649585" lon="127.38636732101442">
        <ele>39.4</ele>
      </trkpt>
      <trkpt lat="36.373692" lon="127.386367">
        <ele>39.5</ele>
      </trkpt>
      <trkpt lat="36.373693" lon="127.38635">
        <ele>39.7</ele>
      </trkpt>
      <trkpt lat="36.373694" lon="127.386158">
        <ele>39.9</ele>
      </trkpt>
      <trkpt lat="36.373714" lon="127.386196">
        <ele>40.1</ele>
      </trkpt>
      <trkpt lat="36.373716176630616" lon="127.38619565963747">
        <ele>40.3</ele>
      </trkpt>
      <trkpt lat="36.37417401543034" lon="127.38752603530885">
        <ele>40.5</ele>
      </trkpt>
      <trkpt lat="36.374174" lon="127.387524">
        <ele>40.7</ele>
      </trkpt>
      <trkpt lat="36.374183" lon="127.387524">
        <ele>40.9</ele>
      </trkpt>
      <trkpt lat="36.374176" lon="127.387982">
        <ele>41.1</ele>
      </trkpt>
      <trkpt lat="36.374147" lon="127.387981">
        <ele>41.2</ele>
      </trkpt>
      <trkpt lat="36.37414810009854" lon="127.38797664642335">
        <ele>41.3</ele>
      </trkpt>
      <trkpt lat="36.374147" lon="127.387981">
        <ele>41.5</ele>
      </trkpt>
      <trkpt lat="36.372843" lon="127.387975">
        <ele>41.5</ele>
      </trkpt>
      <trkpt lat="36.37284368391024" lon="127.38797664642335">
        <ele>41.7</ele>
      </trkpt>
      <trkpt lat="36.372843" lon="127.387975">
        <ele>41.8</ele>
      </trkpt>
      <trkpt lat="36.371079" lon="127.387968">
        <ele>41.9</ele>
      </trkpt>
      <trkpt lat="36.371079" lon="127.387944">
        <ele>42.0</ele>
      </trkpt>
      <trkpt lat="36.37109003032759" lon="127.38794445991518">
        <ele>42.0</ele>
      </trkpt>
      <trkpt lat="36.371079" lon="127.387944">
        <ele>42.1</ele>
      </trkpt>
      <trkpt lat="36.371079" lon="127.387968">
        <ele>42.2</ele>
      </trkpt>
      <trkpt lat="36.371021" lon="127.388037">
        <ele>42.3</ele>
      </trkpt>
      <trkpt lat="36.37065" lon="127.388029">
        <ele>42.4</ele>
      </trkpt>
      <trkpt lat="36.370596" lon="127.38803">
        <ele>42.5</ele>
      </trkpt>
      <trkpt lat="36.370579" lon="127.387885">
        <ele>42.5</ele>
      </trkpt>
      <trkpt lat="36.37055442381591" lon="127.38789081573488">
        <ele>42.6</ele>
      </trkpt>
    </trkseg>
  </trk>
</gpx>