<?xml version="1.0" encoding="UTF-8"?>
<gpx version="1.1" creator="HTML GPX Creator" xmlns="http://www.topografix.com/GPX/1/1">
  <trk>
    <name>gaminkorearun</name>
    <trkseg>
      <trkpt lat="37.67553288205085" lon="126.74489021301271">
        <ele>13.2</ele>
      </trkpt>
      <trkpt lat="37.67551" lon="126.744939">
        <ele>13.2</ele>
      </trkpt>
      <trkpt lat="37.67603" lon="126.745298">
        <ele>13.3</ele>
      </trkpt>
      <trkpt lat="37.676732" lon="126.745783">
        <ele>13.3</ele>
      </trkpt>
      <trkpt lat="37.676865" lon="126.745875">
        <ele>13.3</ele>
      </trkpt>
      <trkpt lat="37.677014" lon="126.745978">
        <ele>13.3</ele>
      </trkpt>
      <trkpt lat="37.677728" lon="126.746471">
        <ele>13.4</ele>
      </trkpt>
      <trkpt lat="37.680879" lon="126.748649">
        <ele>13.4</ele>
      </trkpt>
      <trkpt lat="37.68103" lon="126.748754">
        <ele>13.4</ele>
      </trkpt>
      <trkpt lat="37.681146" lon="126.748834">
        <ele>13.4</ele>
      </trkpt>
      <trkpt lat="37.682483" lon="126.749758">
        <ele>13.4</ele>
      </trkpt>
      <trkpt lat="37.683568" lon="126.750505">
        <ele>13.5</ele>
      </trkpt>
      <trkpt lat="37.683659" lon="126.750571">
        <ele>13.5</ele>
      </trkpt>
      <trkpt lat="37.684448" lon="126.751097">
        <ele>13.5</ele>
      </trkpt>
      <trkpt lat="37.684731" lon="126.751333">
        <ele>13.5</ele>
      </trkpt>
      <trkpt lat="37.684869" lon="126.751483">
        <ele>13.5</ele>
      </trkpt>
      <trkpt lat="37.684939" lon="126.751587">
        <ele>13.6</ele>
      </trkpt>
      <trkpt lat="37.684983" lon="126.751662">
        <ele>13.6</ele>
      </trkpt>
      <trkpt lat="37.684975061062296" lon="126.75167083740236">
        <ele>13.6</ele>
      </trkpt>
      <trkpt lat="37.684983" lon="126.751662">
        <ele>13.6</ele>
      </trkpt>
      <trkpt lat="37.685018" lon="126.751719">
        <ele>13.7</ele>
      </trkpt>
      <trkpt lat="37.685104" lon="126.751862">
        <ele>13.7</ele>
      </trkpt>
      <trkpt lat="37.685268" lon="126.75218">
        <ele>13.8</ele>
      </trkpt>
      <trkpt lat="37.685443" lon="126.752746">
        <ele>13.8</ele>
      </trkpt>
      <trkpt lat="37.685472" lon="126.752868">
        <ele>13.9</ele>
      </trkpt>
      <trkpt lat="37.686219" lon="126.756009">
        <ele>14.0</ele>
      </trkpt>
      <trkpt lat="37.686701" lon="126.757999">
        <ele>14.1</ele>
      </trkpt>
      <trkpt lat="37.686989" lon="126.759228">
        <ele>14.2</ele>
      </trkpt>
      <trkpt lat="37.686946" lon="126.759237">
        <ele>14.3</ele>
      </trkpt>
      <trkpt lat="37.68694486055367" lon="126.7592239379883">
        <ele>14.4</ele>
      </trkpt>
      <trkpt lat="37.686946" lon="126.759237">
        <ele>14.5</ele>
      </trkpt>
      <trkpt lat="37.686922" lon="126.759243">
        <ele>14.6</ele>
      </trkpt>
      <trkpt lat="37.686869" lon="126.759246">
        <ele>14.7</ele>
      </trkpt>
      <trkpt lat="37.686834" lon="126.759286">
        <ele>14.8</ele>
      </trkpt>
      <trkpt lat="37.686763" lon="126.759312">
        <ele>14.9</ele>
      </trkpt>
      <trkpt lat="37.686632" lon="126.759337">
        <ele>15.1</ele>
      </trkpt>
      <trkpt lat="37.686581" lon="126.759404">
        <ele>15.2</ele>
      </trkpt>
      <trkpt lat="37.686536" lon="126.75948">
        <ele>15.3</ele>
      </trkpt>
      <trkpt lat="37.686456" lon="126.75946">
        <ele>15.5</ele>
      </trkpt>
      <trkpt lat="37.686256" lon="126.759553">
        <ele>15.6</ele>
      </trkpt>
      <trkpt lat="37.686076" lon="126.759663">
        <ele>15.8</ele>
      </trkpt>
      <trkpt lat="37.685664" lon="126.760044">
        <ele>15.9</ele>
      </trkpt>
      <trkpt lat="37.68559" lon="126.75999">
        <ele>16.1</ele>
      </trkpt>
      <trkpt lat="37.685525" lon="126.760046">
        <ele>16.3</ele>
      </trkpt>
      <trkpt lat="37.685383" lon="126.760249">
        <ele>16.4</ele>
      </trkpt>
      <trkpt lat="37.68534864774441" lon="126.76021099090578">
        <ele>16.6</ele>
      </trkpt>
      <trkpt lat="37.685383" lon="126.760249">
        <ele>16.8</ele>
      </trkpt>
      <trkpt lat="37.68538" lon="126.760254">
        <ele>17.0</ele>
      </trkpt>
      <trkpt lat="37.684719" lon="126.7616">
        <ele>17.2</ele>
      </trkpt>
      <trkpt lat="37.684682" lon="126.761696">
        <ele>17.4</ele>
      </trkpt>
      <trkpt lat="37.68464" lon="126.761804">
        <ele>17.6</ele>
      </trkpt>
      <trkpt lat="37.683706" lon="126.764065">
        <ele>17.8</ele>
      </trkpt>
      <trkpt lat="37.68371843750412" lon="126.76407337188722">
        <ele>18.0</ele>
      </trkpt>
      <trkpt lat="37.683706" lon="126.764065">
        <ele>18.1</ele>
      </trkpt>
      <trkpt lat="37.683652" lon="126.764198">
        <ele>18.3</ele>
      </trkpt>
      <trkpt lat="37.683601" lon="126.764336">
        <ele>18.5</ele>
      </trkpt>
      <trkpt lat="37.683442" lon="126.76466">
        <ele>18.6</ele>
      </trkpt>
      <trkpt lat="37.682834" lon="126.765901">
        <ele>18.7</ele>
      </trkpt>
      <trkpt lat="37.682774" lon="126.766026">
        <ele>18.9</ele>
      </trkpt>
      <trkpt lat="37.682721" lon="126.766128">
        <ele>19.0</ele>
      </trkpt>
      <trkpt lat="37.681896" lon="126.768284">
        <ele>19.1</ele>
      </trkpt>
      <trkpt lat="37.68181648027317" lon="126.76823616027833">
        <ele>19.3</ele>
      </trkpt>
      <trkpt lat="37.681896" lon="126.768284">
        <ele>19.4</ele>
      </trkpt>
      <trkpt lat="37.681814" lon="126.7685">
        <ele>19.5</ele>
      </trkpt>
      <trkpt lat="37.681617" lon="126.768988">
        <ele>19.6</ele>
      </trkpt>
      <trkpt lat="37.681546" lon="126.769158">
        <ele>19.7</ele>
      </trkpt>
      <trkpt lat="37.681502" lon="126.76926">
        <ele>19.8</ele>
      </trkpt>
      <trkpt lat="37.681537" lon="126.769284">
        <ele>19.9</ele>
      </trkpt>
      <trkpt lat="37.681169" lon="126.77013">
        <ele>20.0</ele>
      </trkpt>
      <trkpt lat="37.68079" lon="126.77096">
        <ele>20.1</ele>
      </trkpt>
      <trkpt lat="37.680301" lon="126.772063">
        <ele>20.2</ele>
      </trkpt>
      <trkpt lat="37.680249" lon="126.772185">
        <ele>20.3</ele>
      </trkpt>
      <trkpt lat="37.680215" lon="126.772268">
        <ele>20.4</ele>
      </trkpt>
      <trkpt lat="37.67982" lon="126.77324">
        <ele>20.4</ele>
      </trkpt>
      <trkpt lat="37.67962" lon="126.773834">
        <ele>20.5</ele>
      </trkpt>
      <trkpt lat="37.679532" lon="126.773795">
        <ele>20.6</ele>
      </trkpt>
      <trkpt lat="37.679245" lon="126.774494">
        <ele>20.7</ele>
      </trkpt>
      <trkpt lat="37.679176" lon="126.774692">
        <ele>20.8</ele>
      </trkpt>
      <trkpt lat="37.679065348710765" lon="126.77463054656984">
        <ele>20.9</ele>
      </trkpt>
      <trkpt lat="37.679176" lon="126.774692">
        <ele>21.0</ele>
      </trkpt>
      <trkpt lat="37.679245" lon="126.774494">
        <ele>21.1</ele>
      </trkpt>
      <trkpt lat="37.679532" lon="126.773795">
        <ele>21.2</ele>
      </trkpt>
      <trkpt lat="37.67962" lon="126.773834">
        <ele>21.3</ele>
      </trkpt>
      <trkpt lat="37.67967" lon="126.773857">
        <ele>21.4</ele>
      </trkpt>
      <trkpt lat="37.67973" lon="126.773884">
        <ele>21.5</ele>
      </trkpt>
      <trkpt lat="37.679947" lon="126.773985">
        <ele>21.6</ele>
      </trkpt>
      <trkpt lat="37.679817" lon="126.774344">
        <ele>21.7</ele>
      </trkpt>
      <trkpt lat="37.679838" lon="126.774549">
        <ele>21.9</ele>
      </trkpt>
      <trkpt lat="37.679407" lon="126.775397">
        <ele>22.0</ele>
      </trkpt>
      <trkpt lat="37.679369" lon="126.775686">
        <ele>22.1</ele>
      </trkpt>
      <trkpt lat="37.679236" lon="126.776092">
        <ele>22.3</ele>
      </trkpt>
      <trkpt lat="37.678815" lon="126.777022">
        <ele>22.4</ele>
      </trkpt>
      <trkpt lat="37.678441" lon="126.777802">
        <ele>22.6</ele>
      </trkpt>
      <trkpt lat="37.678164" lon="126.778266">
        <ele>22.7</ele>
      </trkpt>
      <trkpt lat="37.677951" lon="126.778556">
        <ele>22.9</ele>
      </trkpt>
      <trkpt lat="37.677816" lon="126.77888">
        <ele>23.0</ele>
      </trkpt>
      <trkpt lat="37.677689" lon="126.779387">
        <ele>23.2</ele>
      </trkpt>
      <trkpt lat="37.677419" lon="126.779875">
        <ele>23.4</ele>
      </trkpt>
      <trkpt lat="37.677203" lon="126.780204">
        <ele>23.6</ele>
      </trkpt>
      <trkpt lat="37.677049" lon="126.780569">
        <ele>23.7</ele>
      </trkpt>
      <trkpt lat="37.676976" lon="126.780856">
        <ele>23.9</ele>
      </trkpt>
      <trkpt lat="37.676783" lon="126.78076">
        <ele>24.1</ele>
      </trkpt>
      <trkpt lat="37.676673" lon="126.781">
        <ele>24.3</ele>
      </trkpt>
      <trkpt lat="37.676625" lon="126.780962">
        <ele>24.4</ele>
      </trkpt>
      <trkpt lat="37.676555" lon="126.780905">
        <ele>24.6</ele>
      </trkpt>
      <trkpt lat="37.676397" lon="126.781281">
        <ele>24.7</ele>
      </trkpt>
      <trkpt lat="37.676323" lon="126.781477">
        <ele>24.9</ele>
      </trkpt>
      <trkpt lat="37.676158" lon="126.781856">
        <ele>25.0</ele>
      </trkpt>
      <trkpt lat="37.67583" lon="126.782571">
        <ele>25.1</ele>
      </trkpt>
      <trkpt lat="37.675612" lon="126.782944">
        <ele>25.3</ele>
      </trkpt>
      <trkpt lat="37.675382" lon="126.783256">
        <ele>25.4</ele>
      </trkpt>
      <trkpt lat="37.675354" lon="126.783287">
        <ele>25.5</ele>
      </trkpt>
      <trkpt lat="37.67536304768566" lon="126.78329944610597">
        <ele>25.6</ele>
      </trkpt>
      <trkpt lat="37.675354" lon="126.783287">
        <ele>25.7</ele>
      </trkpt>
      <trkpt lat="37.675149" lon="126.783522">
        <ele>25.8</ele>
      </trkpt>
      <trkpt lat="37.675057" lon="126.783608">
        <ele>25.8</ele>
      </trkpt>
      <trkpt lat="37.674749" lon="126.783881">
        <ele>25.9</ele>
      </trkpt>
      <trkpt lat="37.674543" lon="126.784032">
        <ele>26.0</ele>
      </trkpt>
      <trkpt lat="37.6745223618532" lon="126.78398609161377">
        <ele>26.1</ele>
      </trkpt>
      <trkpt lat="37.674543" lon="126.784032">
        <ele>26.1</ele>
      </trkpt>
      <trkpt lat="37.674472" lon="126.784085">
        <ele>26.1</ele>
      </trkpt>
      <trkpt lat="37.674269" lon="126.784212">
        <ele>26.1</ele>
      </trkpt>
      <trkpt lat="37.674064" lon="126.784236">
        <ele>26.1</ele>
      </trkpt>
      <trkpt lat="37.672544" lon="126.785115">
        <ele>26.1</ele>
      </trkpt>
      <trkpt lat="37.672474" lon="126.785154">
        <ele>26.1</ele>
      </trkpt>
      <trkpt lat="37.672454" lon="126.785109">
        <ele>26.1</ele>
      </trkpt>
      <trkpt lat="37.672334" lon="126.785166">
        <ele>26.0</ele>
      </trkpt>
      <trkpt lat="37.672162" lon="126.785266">
        <ele>25.9</ele>
      </trkpt>
      <trkpt lat="37.672161597174195" lon="126.78526282310487">
        <ele>25.8</ele>
      </trkpt>
      <trkpt lat="37.672162" lon="126.785266">
        <ele>25.7</ele>
      </trkpt>
      <trkpt lat="37.672334" lon="126.785166">
        <ele>25.6</ele>
      </trkpt>
      <trkpt lat="37.672354" lon="126.785225">
        <ele>25.4</ele>
      </trkpt>
      <trkpt lat="37.671019" lon="126.786017">
        <ele>25.3</ele>
      </trkpt>
      <trkpt lat="37.670856" lon="126.786211">
        <ele>25.1</ele>
      </trkpt>
      <trkpt lat="37.670016" lon="126.786743">
        <ele>25.0</ele>
      </trkpt>
      <trkpt lat="37.669783" lon="126.786876">
        <ele>24.8</ele>
      </trkpt>
      <trkpt lat="37.66977952647446" lon="126.78686678409578">
        <ele>24.6</ele>
      </trkpt>
      <trkpt lat="37.669783" lon="126.786876">
        <ele>24.5</ele>
      </trkpt>
      <trkpt lat="37.668368" lon="126.787686">
        <ele>24.3</ele>
      </trkpt>
      <trkpt lat="37.66836128764174" lon="126.78766608238222">
        <ele>24.1</ele>
      </trkpt>
      <trkpt lat="37.668368" lon="126.787686">
        <ele>23.9</ele>
      </trkpt>
      <trkpt lat="37.667973" lon="126.787913">
        <ele>23.7</ele>
      </trkpt>
      <trkpt lat="37.667901" lon="126.787961">
        <ele>23.5</ele>
      </trkpt>
      <trkpt lat="37.667792" lon="126.788039">
        <ele>23.3</ele>
      </trkpt>
      <trkpt lat="37.667359" lon="126.788304">
        <ele>23.1</ele>
      </trkpt>
      <trkpt lat="37.66735066978087" lon="126.78828299045564">
        <ele>22.9</ele>
      </trkpt>
      <trkpt lat="37.667359" lon="126.788304">
        <ele>22.7</ele>
      </trkpt>
      <trkpt lat="37.667144" lon="126.788436">
        <ele>22.4</ele>
      </trkpt>
      <trkpt lat="37.666069" lon="126.789038">
        <ele>22.2</ele>
      </trkpt>
      <trkpt lat="37.665445" lon="126.789422">
        <ele>22.0</ele>
      </trkpt>
      <trkpt lat="37.66543555365131" lon="126.78939878940582">
        <ele>21.7</ele>
      </trkpt>
      <trkpt lat="37.665445" lon="126.789422">
        <ele>21.5</ele>
      </trkpt>
      <trkpt lat="37.665406" lon="126.789447">
        <ele>21.3</ele>
      </trkpt>
      <trkpt lat="37.664421" lon="126.789976">
        <ele>21.1</ele>
      </trkpt>
      <trkpt lat="37.664316" lon="126.790035">
        <ele>20.8</ele>
      </trkpt>
      <trkpt lat="37.663814" lon="126.790348">
        <ele>20.6</ele>
      </trkpt>
      <trkpt lat="37.663653" lon="126.790383">
        <ele>20.4</ele>
      </trkpt>
      <trkpt lat="37.663426" lon="126.790505">
        <ele>20.2</ele>
      </trkpt>
      <trkpt lat="37.663431210680656" lon="126.79051995277406">
        <ele>20.0</ele>
      </trkpt>
      <trkpt lat="37.663426" lon="126.790505">
        <ele>19.8</ele>
      </trkpt>
      <trkpt lat="37.662985" lon="126.790745">
        <ele>19.7</ele>
      </trkpt>
      <trkpt lat="37.662242" lon="126.791195">
        <ele>19.5</ele>
      </trkpt>
      <trkpt lat="37.661864" lon="126.791406">
        <ele>19.3</ele>
      </trkpt>
      <trkpt lat="37.661463" lon="126.791615">
        <ele>19.1</ele>
      </trkpt>
      <trkpt lat="37.660979" lon="126.791899">
        <ele>19.0</ele>
      </trkpt>
      <trkpt lat="37.660903" lon="126.791955">
        <ele>18.8</ele>
      </trkpt>
      <trkpt lat="37.660787" lon="126.792025">
        <ele>18.6</ele>
      </trkpt>
      <trkpt lat="37.660666" lon="126.792099">
        <ele>18.5</ele>
      </trkpt>
      <trkpt lat="37.660437" lon="126.792218">
        <ele>18.3</ele>
      </trkpt>
      <trkpt lat="37.66043308818244" lon="126.79220438003541">
        <ele>18.1</ele>
      </trkpt>
      <trkpt lat="37.660437" lon="126.792218">
        <ele>18.0</ele>
      </trkpt>
      <trkpt lat="37.659847" lon="126.792527">
        <ele>17.8</ele>
      </trkpt>
      <trkpt lat="37.659496" lon="126.792671">
        <ele>17.7</ele>
      </trkpt>
      <trkpt lat="37.659441" lon="126.792695">
        <ele>17.5</ele>
      </trkpt>
      <trkpt lat="37.65936" lon="126.792731">
        <ele>17.4</ele>
      </trkpt>
      <trkpt lat="37.658878" lon="126.792899">
        <ele>17.3</ele>
      </trkpt>
      <trkpt lat="37.658318" lon="126.793276">
        <ele>17.2</ele>
      </trkpt>
      <trkpt lat="37.658191" lon="126.793419">
        <ele>17.1</ele>
      </trkpt>
      <trkpt lat="37.657983" lon="126.793539">
        <ele>17.0</ele>
      </trkpt>
      <trkpt lat="37.65797" lon="126.79348">
        <ele>16.9</ele>
      </trkpt>
      <trkpt lat="37.657897" lon="126.793528">
        <ele>16.8</ele>
      </trkpt>
      <trkpt lat="37.657861" lon="126.793547">
        <ele>16.8</ele>
      </trkpt>
      <trkpt lat="37.657834" lon="126.793564">
        <ele>16.7</ele>
      </trkpt>
      <trkpt lat="37.657793" lon="126.793591">
        <ele>16.6</ele>
      </trkpt>
      <trkpt lat="37.657757" lon="126.793611">
        <ele>16.6</ele>
      </trkpt>
      <trkpt lat="37.657429" lon="126.793814">
        <ele>16.5</ele>
      </trkpt>
      <trkpt lat="37.657386" lon="126.793841">
        <ele>16.5</ele>
      </trkpt>
      <trkpt lat="37.65738388190543" lon="126.79383516311647">
        <ele>16.4</ele>
      </trkpt>
      <trkpt lat="37.657386" lon="126.793841">
        <ele>16.4</ele>
      </trkpt>
      <trkpt lat="37.656652" lon="126.794313">
        <ele>16.3</ele>
      </trkpt>
      <trkpt lat="37.656004" lon="126.794782">
        <ele>16.3</ele>
      </trkpt>
      <trkpt lat="37.655195" lon="126.79527">
        <ele>16.2</ele>
      </trkpt>
      <trkpt lat="37.655192452979094" lon="126.79526209831239">
        <ele>16.2</ele>
      </trkpt>
      <trkpt lat="37.655195" lon="126.79527">
        <ele>16.2</ele>
      </trkpt>
      <trkpt lat="37.655147" lon="126.7953">
        <ele>16.2</ele>
      </trkpt>
      <trkpt lat="37.655028" lon="126.795342">
        <ele>16.1</ele>
      </trkpt>
      <trkpt lat="37.65499" lon="126.795362">
        <ele>16.1</ele>
      </trkpt>
      <trkpt lat="37.654864" lon="126.795422">
        <ele>16.1</ele>
      </trkpt>
      <trkpt lat="37.654902" lon="126.795532">
        <ele>16.2</ele>
      </trkpt>
      <trkpt lat="37.654847" lon="126.795563">
        <ele>16.2</ele>
      </trkpt>
      <trkpt lat="37.654169" lon="126.795938">
        <ele>16.2</ele>
      </trkpt>
      <trkpt lat="37.65347" lon="126.796349">
        <ele>16.2</ele>
      </trkpt>
      <trkpt lat="37.653274" lon="126.796456">
        <ele>16.2</ele>
      </trkpt>
      <trkpt lat="37.653175" lon="126.796517">
        <ele>16.2</ele>
      </trkpt>
      <trkpt lat="37.652552" lon="126.79688">
        <ele>16.2</ele>
      </trkpt>
      <trkpt lat="37.65254651365051" lon="126.7968660593033">
        <ele>16.2</ele>
      </trkpt>
      <trkpt lat="37.652552" lon="126.79688">
        <ele>16.2</ele>
      </trkpt>
      <trkpt lat="37.652014" lon="126.797195">
        <ele>16.2</ele>
      </trkpt>
      <trkpt lat="37.65191" lon="126.797255">
        <ele>16.2</ele>
      </trkpt>
      <trkpt lat="37.650477" lon="126.798118">
        <ele>16.2</ele>
      </trkpt>
      <trkpt lat="37.650379" lon="126.798179">
        <ele>16.2</ele>
      </trkpt>
      <trkpt lat="37.650118" lon="126.79832">
        <ele>16.2</ele>
      </trkpt>
      <trkpt lat="37.6501128457683" lon="126.79830372333528">
        <ele>16.2</ele>
      </trkpt>
      <trkpt lat="37.650118" lon="126.79832">
        <ele>16.2</ele>
      </trkpt>
      <trkpt lat="37.649896" lon="126.798441">
        <ele>16.1</ele>
      </trkpt>
      <trkpt lat="37.64906" lon="126.798926">
        <ele>16.1</ele>
      </trkpt>
      <trkpt lat="37.647032" lon="126.800122">
        <ele>16.1</ele>
      </trkpt>
      <trkpt lat="37.64702498831209" lon="126.80010080337526">
        <ele>16.1</ele>
      </trkpt>
      <trkpt lat="37.647032" lon="126.800122">
        <ele>16.1</ele>
      </trkpt>
      <trkpt lat="37.646256" lon="126.800581">
        <ele>16.1</ele>
      </trkpt>
      <trkpt lat="37.645913" lon="126.80077">
        <ele>16.1</ele>
      </trkpt>
      <trkpt lat="37.645443" lon="126.801052">
        <ele>16.0</ele>
      </trkpt>
      <trkpt lat="37.645406" lon="126.801077">
        <ele>16.0</ele>
      </trkpt>
      <trkpt lat="37.64538968855791" lon="126.80103957653047">
        <ele>16.0</ele>
      </trkpt>
      <trkpt lat="37.645406" lon="126.801077">
        <ele>15.9</ele>
      </trkpt>
      <trkpt lat="37.645356" lon="126.801113">
        <ele>15.9</ele>
      </trkpt>
      <trkpt lat="37.645291" lon="126.801183">
        <ele>15.8</ele>
      </trkpt>
      <trkpt lat="37.64519" lon="126.80122">
        <ele>15.8</ele>
      </trkpt>
      <trkpt lat="37.645145" lon="126.801098">
        <ele>15.8</ele>
      </trkpt>
      <trkpt lat="37.644449" lon="126.799141">
        <ele>15.7</ele>
      </trkpt>
      <trkpt lat="37.644299" lon="126.798527">
        <ele>15.6</ele>
      </trkpt>
      <trkpt lat="37.644209" lon="126.798115">
        <ele>15.6</ele>
      </trkpt>
      <trkpt lat="37.644102" lon="126.797817">
        <ele>15.5</ele>
      </trkpt>
      <trkpt lat="37.643971" lon="126.79763">
        <ele>15.4</ele>
      </trkpt>
      <trkpt lat="37.643794" lon="126.797451">
        <ele>15.4</ele>
      </trkpt>
      <trkpt lat="37.643776" lon="126.797443">
        <ele>15.3</ele>
      </trkpt>
      <trkpt lat="37.64378408649918" lon="126.79741859436037">
        <ele>15.2</ele>
      </trkpt>
      <trkpt lat="37.643776" lon="126.797443">
        <ele>15.1</ele>
      </trkpt>
      <trkpt lat="37.642565" lon="126.79693">
        <ele>15.0</ele>
      </trkpt>
      <trkpt lat="37.642292" lon="126.796772">
        <ele>14.9</ele>
      </trkpt>
      <trkpt lat="37.642082" lon="126.796603">
        <ele>14.8</ele>
      </trkpt>
      <trkpt lat="37.64191" lon="126.796432">
        <ele>14.7</ele>
      </trkpt>
      <trkpt lat="37.64175" lon="126.796181">
        <ele>14.6</ele>
      </trkpt>
      <trkpt lat="37.641609" lon="126.795808">
        <ele>14.4</ele>
      </trkpt>
      <trkpt lat="37.64158" lon="126.795701">
        <ele>14.3</ele>
      </trkpt>
      <trkpt lat="37.641564" lon="126.795617">
        <ele>14.1</ele>
      </trkpt>
      <trkpt lat="37.641547" lon="126.795532">
        <ele>14.0</ele>
      </trkpt>
      <trkpt lat="37.641524" lon="126.795414">
        <ele>13.8</ele>
      </trkpt>
      <trkpt lat="37.641502" lon="126.795327">
        <ele>13.7</ele>
      </trkpt>
      <trkpt lat="37.641475" lon="126.795223">
        <ele>13.5</ele>
      </trkpt>
      <trkpt lat="37.641366" lon="126.794844">
        <ele>13.4</ele>
      </trkpt>
      <trkpt lat="37.641268" lon="126.794505">
        <ele>13.2</ele>
      </trkpt>
      <trkpt lat="37.64130340556529" lon="126.7944896221161">
        <ele>13.1</ele>
      </trkpt>
      <trkpt lat="37.641268" lon="126.794505">
        <ele>12.9</ele>
      </trkpt>
      <trkpt lat="37.641264" lon="126.794492">
        <ele>12.8</ele>
      </trkpt>
      <trkpt lat="37.641232" lon="126.794308">
        <ele>12.6</ele>
      </trkpt>
      <trkpt lat="37.64107" lon="126.794152">
        <ele>12.4</ele>
      </trkpt>
      <trkpt lat="37.64082" lon="126.794007">
        <ele>12.3</ele>
      </trkpt>
      <trkpt lat="37.64071" lon="126.793986">
        <ele>12.1</ele>
      </trkpt>
      <trkpt lat="37.640511" lon="126.793948">
        <ele>12.0</ele>
      </trkpt>
      <trkpt lat="37.63978" lon="126.793887">
        <ele>11.8</ele>
      </trkpt>
      <trkpt lat="37.639142" lon="126.793809">
        <ele>11.7</ele>
      </trkpt>
      <trkpt lat="37.638459" lon="126.793713">
        <ele>11.5</ele>
      </trkpt>
      <trkpt lat="37.637784" lon="126.793637">
        <ele>11.4</ele>
      </trkpt>
      <trkpt lat="37.636781" lon="126.793529">
        <ele>11.2</ele>
      </trkpt>
      <trkpt lat="37.635902" lon="126.793425">
        <ele>11.1</ele>
      </trkpt>
      <trkpt lat="37.634268" lon="126.793236">
        <ele>11.0</ele>
      </trkpt>
      <trkpt lat="37.633839" lon="126.793203">
        <ele>10.8</ele>
      </trkpt>
      <trkpt lat="37.633118" lon="126.793358">
        <ele>10.7</ele>
      </trkpt>
      <trkpt lat="37.632452" lon="126.793492">
        <ele>10.6</ele>
      </trkpt>
      <trkpt lat="37.632278" lon="126.793487">
        <ele>10.5</ele>
      </trkpt>
      <trkpt lat="37.632187" lon="126.793388">
        <ele>10.4</ele>
      </trkpt>
      <trkpt lat="37.632116" lon="126.793476">
        <ele>10.3</ele>
      </trkpt>
      <trkpt lat="37.63211057116719" lon="126.79347038269044">
        <ele>10.3</ele>
      </trkpt>
      <trkpt lat="37.632116" lon="126.793476">
        <ele>10.2</ele>
      </trkpt>
      <trkpt lat="37.631881" lon="126.793773">
        <ele>10.1</ele>
      </trkpt>
      <trkpt lat="37.631855" lon="126.793813">
        <ele>10.1</ele>
      </trkpt>
      <trkpt lat="37.631541" lon="126.794256">
        <ele>10.0</ele>
      </trkpt>
      <trkpt lat="37.631524" lon="126.79428">
        <ele>9.9</ele>
      </trkpt>
      <trkpt lat="37.631469" lon="126.794349">
        <ele>9.9</ele>
      </trkpt>
      <trkpt lat="37.630393" lon="126.795911">
        <ele>9.8</ele>
      </trkpt>
      <trkpt lat="37.63021" lon="126.796176">
        <ele>9.8</ele>
      </trkpt>
      <trkpt lat="37.628934" lon="126.798029">
        <ele>9.8</ele>
      </trkpt>
      <trkpt lat="37.628059" lon="126.799299">
        <ele>9.8</ele>
      </trkpt>
      <trkpt lat="37.626865" lon="126.801028">
        <ele>9.8</ele>
      </trkpt>
      <trkpt lat="37.626727" lon="126.801207">
        <ele>9.8</ele>
      </trkpt>
      <trkpt lat="37.626663" lon="126.80129">
        <ele>9.8</ele>
      </trkpt>
      <trkpt lat="37.626444" lon="126.801521">
        <ele>9.8</ele>
      </trkpt>
      <trkpt lat="37.624142" lon="126.803688">
        <ele>9.8</ele>
      </trkpt>
      <trkpt lat="37.62408927649153" lon="126.80359840393068">
        <ele>9.8</ele>
      </trkpt>
      <trkpt lat="37.624142" lon="126.803688">
        <ele>9.9</ele>
      </trkpt>
      <trkpt lat="37.626444" lon="126.801521">
        <ele>9.9</ele>
      </trkpt>
      <trkpt lat="37.626663" lon="126.80129">
        <ele>10.0</ele>
      </trkpt>
      <trkpt lat="37.626727" lon="126.801207">
        <ele>10.1</ele>
      </trkpt>
      <trkpt lat="37.626865" lon="126.801028">
        <ele>10.1</ele>
      </trkpt>
      <trkpt lat="37.628059" lon="126.799299">
        <ele>10.2</ele>
      </trkpt>
      <trkpt lat="37.628934" lon="126.798029">
        <ele>10.3</ele>
      </trkpt>
      <trkpt lat="37.63021" lon="126.796176">
        <ele>10.3</ele>
      </trkpt>
      <trkpt lat="37.630393" lon="126.795911">
        <ele>10.4</ele>
      </trkpt>
      <trkpt lat="37.631469" lon="126.794349">
        <ele>10.5</ele>
      </trkpt>
      <trkpt lat="37.631524" lon="126.79428">
        <ele>10.6</ele>
      </trkpt>
      <trkpt lat="37.631541" lon="126.794256">
        <ele>10.7</ele>
      </trkpt>
      <trkpt lat="37.631855" lon="126.793813">
        <ele>10.8</ele>
      </trkpt>
      <trkpt lat="37.631881" lon="126.793773">
        <ele>10.9</ele>
      </trkpt>
      <trkpt lat="37.632187" lon="126.793388">
        <ele>11.1</ele>
      </trkpt>
      <trkpt lat="37.633039" lon="126.792326">
        <ele>11.2</ele>
      </trkpt>
      <trkpt lat="37.63302820647384" lon="126.79231166839601">
        <ele>11.4</ele>
      </trkpt>
      <trkpt lat="37.633039" lon="126.792326">
        <ele>11.5</ele>
      </trkpt>
      <trkpt lat="37.634929" lon="126.789972">
        <ele>11.7</ele>
      </trkpt>
      <trkpt lat="37.635176" lon="126.789665">
        <ele>11.8</ele>
      </trkpt>
      <trkpt lat="37.635235" lon="126.78959">
        <ele>12.0</ele>
      </trkpt>
      <trkpt lat="37.635483" lon="126.789273">
        <ele>12.2</ele>
      </trkpt>
      <trkpt lat="37.63663" lon="126.787812">
        <ele>12.4</ele>
      </trkpt>
      <trkpt lat="37.63673" lon="126.787744">
        <ele>12.5</ele>
      </trkpt>
      <trkpt lat="37.63678" lon="126.787691">
        <ele>12.7</ele>
      </trkpt>
      <trkpt lat="37.637619" lon="126.786585">
        <ele>12.9</ele>
      </trkpt>
      <trkpt lat="37.638362" lon="126.785614">
        <ele>13.1</ele>
      </trkpt>
      <trkpt lat="37.63834686941149" lon="126.78559541702272">
        <ele>13.2</ele>
      </trkpt>
      <trkpt lat="37.638362" lon="126.785614">
        <ele>13.4</ele>
      </trkpt>
      <trkpt lat="37.638546" lon="126.785375">
        <ele>13.5</ele>
      </trkpt>
      <trkpt lat="37.639581" lon="126.784039">
        <ele>13.6</ele>
      </trkpt>
      <trkpt lat="37.639665" lon="126.783927">
        <ele>13.7</ele>
      </trkpt>
      <trkpt lat="37.639746" lon="126.783819">
        <ele>13.8</ele>
      </trkpt>
      <trkpt lat="37.64103" lon="126.782106">
        <ele>13.9</ele>
      </trkpt>
      <trkpt lat="37.642195" lon="126.780551">
        <ele>14.0</ele>
      </trkpt>
      <trkpt lat="37.642266" lon="126.780457">
        <ele>14.1</ele>
      </trkpt>
      <trkpt lat="37.642335" lon="126.780365">
        <ele>14.2</ele>
      </trkpt>
      <trkpt lat="37.642917" lon="126.779587">
        <ele>14.3</ele>
      </trkpt>
      <trkpt lat="37.64293454756114" lon="126.77960872650148">
        <ele>14.4</ele>
      </trkpt>
      <trkpt lat="37.642917" lon="126.779587">
        <ele>14.4</ele>
      </trkpt>
      <trkpt lat="37.643117" lon="126.779321">
        <ele>14.5</ele>
      </trkpt>
      <trkpt lat="37.644103" lon="126.778025">
        <ele>14.6</ele>
      </trkpt>
      <trkpt lat="37.644909" lon="126.776968">
        <ele>14.6</ele>
      </trkpt>
      <trkpt lat="37.644991" lon="126.776854">
        <ele>14.7</ele>
      </trkpt>
      <trkpt lat="37.645607" lon="126.776">
        <ele>14.7</ele>
      </trkpt>
      <trkpt lat="37.645951" lon="126.775579">
        <ele>14.7</ele>
      </trkpt>
      <trkpt lat="37.646308" lon="126.775164">
        <ele>14.7</ele>
      </trkpt>
      <trkpt lat="37.646726" lon="126.774745">
        <ele>14.7</ele>
      </trkpt>
      <trkpt lat="37.647142" lon="126.774355">
        <ele>14.7</ele>
      </trkpt>
      <trkpt lat="37.647929" lon="126.773693">
        <ele>14.7</ele>
      </trkpt>
      <trkpt lat="37.648011" lon="126.773624">
        <ele>14.7</ele>
      </trkpt>
      <trkpt lat="37.648109" lon="126.773564">
        <ele>14.7</ele>
      </trkpt>
      <trkpt lat="37.648976" lon="126.773027">
        <ele>14.7</ele>
      </trkpt>
      <trkpt lat="37.64896606362471" lon="126.77299976348878">
        <ele>14.7</ele>
      </trkpt>
      <trkpt lat="37.648976" lon="126.773027">
        <ele>14.7</ele>
      </trkpt>
      <trkpt lat="37.650061" lon="126.772357">
        <ele>14.7</ele>
      </trkpt>
      <trkpt lat="37.651725" lon="126.771384">
        <ele>14.6</ele>
      </trkpt>
      <trkpt lat="37.652748" lon="126.770806">
        <ele>14.6</ele>
      </trkpt>
      <trkpt lat="37.65285" lon="126.770748">
        <ele>14.6</ele>
      </trkpt>
      <trkpt lat="37.653149" lon="126.770582">
        <ele>14.6</ele>
      </trkpt>
      <trkpt lat="37.653262" lon="126.770516">
        <ele>14.5</ele>
      </trkpt>
      <trkpt lat="37.654461" lon="126.769833">
        <ele>14.5</ele>
      </trkpt>
      <trkpt lat="37.654809" lon="126.769625">
        <ele>14.5</ele>
      </trkpt>
      <trkpt lat="37.655566" lon="126.769189">
        <ele>14.5</ele>
      </trkpt>
      <trkpt lat="37.655667" lon="126.769131">
        <ele>14.5</ele>
      </trkpt>
      <trkpt lat="37.655754" lon="126.769079">
        <ele>14.4</ele>
      </trkpt>
      <trkpt lat="37.656353" lon="126.768722">
        <ele>14.4</ele>
      </trkpt>
      <trkpt lat="37.65637311458422" lon="126.76877260208131">
        <ele>14.4</ele>
      </trkpt>
      <trkpt lat="37.656398" lon="126.76884">
        <ele>14.4</ele>
      </trkpt>
      <trkpt lat="37.656884" lon="126.768545">
        <ele>14.4</ele>
      </trkpt>
      <trkpt lat="37.656995" lon="126.768451">
        <ele>14.5</ele>
      </trkpt>
      <trkpt lat="37.656962" lon="126.768361">
        <ele>14.5</ele>
      </trkpt>
      <trkpt lat="37.657279" lon="126.768167">
        <ele>14.5</ele>
      </trkpt>
      <trkpt lat="37.657787" lon="126.767876">
        <ele>14.5</ele>
      </trkpt>
      <trkpt lat="37.657894" lon="126.767813">
        <ele>14.6</ele>
      </trkpt>
      <trkpt lat="37.657962" lon="126.767773">
        <ele>14.6</ele>
      </trkpt>
      <trkpt lat="37.658117" lon="126.767682">
        <ele>14.6</ele>
      </trkpt>
      <trkpt lat="37.658735" lon="126.767275">
        <ele>14.7</ele>
      </trkpt>
      <trkpt lat="37.659261" lon="126.766771">
        <ele>14.7</ele>
      </trkpt>
      <trkpt lat="37.659325" lon="126.76671">
        <ele>14.7</ele>
      </trkpt>
      <trkpt lat="37.659384" lon="126.766652">
        <ele>14.7</ele>
      </trkpt>
      <trkpt lat="37.660871" lon="126.765196">
        <ele>14.6</ele>
      </trkpt>
      <trkpt lat="37.660971" lon="126.765098">
        <ele>14.6</ele>
      </trkpt>
      <trkpt lat="37.661029" lon="126.765046">
        <ele>14.6</ele>
      </trkpt>
      <trkpt lat="37.661629" lon="126.764466">
        <ele>14.5</ele>
      </trkpt>
      <trkpt lat="37.66163914635113" lon="126.76448106765748">
        <ele>14.5</ele>
      </trkpt>
      <trkpt lat="37.661629" lon="126.764466">
        <ele>14.5</ele>
      </trkpt>
      <trkpt lat="37.663147" lon="126.763002">
        <ele>14.5</ele>
      </trkpt>
      <trkpt lat="37.663117" lon="126.762951">
        <ele>14.5</ele>
      </trkpt>
      <trkpt lat="37.663133951818004" lon="126.7629361152649">
        <ele>14.5</ele>
      </trkpt>
      <trkpt lat="37.663117" lon="126.762951">
        <ele>14.5</ele>
      </trkpt>
      <trkpt lat="37.663147" lon="126.763002">
        <ele>14.5</ele>
      </trkpt>
      <trkpt lat="37.663314" lon="126.762838">
        <ele>14.5</ele>
      </trkpt>
      <trkpt lat="37.663308" lon="126.76281">
        <ele>14.6</ele>
      </trkpt>
      <trkpt lat="37.66332080038493" lon="126.76280736923219">
        <ele>14.6</ele>
      </trkpt>
      <trkpt lat="37.663308" lon="126.76281">
        <ele>14.6</ele>
      </trkpt>
      <trkpt lat="37.663314" lon="126.762838">
        <ele>14.6</ele>
      </trkpt>
      <trkpt lat="37.663377" lon="126.762945">
        <ele>14.7</ele>
      </trkpt>
      <trkpt lat="37.664421" lon="126.764659">
        <ele>14.7</ele>
      </trkpt>
      <trkpt lat="37.664705" lon="126.765108">
        <ele>14.7</ele>
      </trkpt>
      <trkpt lat="37.665043" lon="126.765663">
        <ele>14.7</ele>
      </trkpt>
      <trkpt lat="37.665886" lon="126.767033">
        <ele>14.7</ele>
      </trkpt>
      <trkpt lat="37.665968" lon="126.76726">
        <ele>14.8</ele>
      </trkpt>
      <trkpt lat="37.665969" lon="126.76742">
        <ele>14.8</ele>
      </trkpt>
      <trkpt lat="37.665924" lon="126.767411">
        <ele>14.8</ele>
      </trkpt>
      <trkpt lat="37.665917" lon="126.767347">
        <ele>14.8</ele>
      </trkpt>
      <trkpt lat="37.665909" lon="126.767328">
        <ele>14.8</ele>
      </trkpt>
      <trkpt lat="37.66593663093725" lon="126.76731348037721">
        <ele>14.8</ele>
      </trkpt>
      <trkpt lat="37.665909" lon="126.767328">
        <ele>14.8</ele>
      </trkpt>
      <trkpt lat="37.665917" lon="126.767347">
        <ele>14.8</ele>
      </trkpt>
      <trkpt lat="37.665924" lon="126.767411">
        <ele>14.9</ele>
      </trkpt>
      <trkpt lat="37.665969" lon="126.76742">
        <ele>14.9</ele>
      </trkpt>
      <trkpt lat="37.665993" lon="126.767421">
        <ele>15.0</ele>
      </trkpt>
      <trkpt lat="37.666069" lon="126.767549">
        <ele>15.0</ele>
      </trkpt>
      <trkpt lat="37.666079" lon="126.767537">
        <ele>15.1</ele>
      </trkpt>
      <trkpt lat="37.666072515719854" lon="126.7675280570984">
        <ele>15.2</ele>
      </trkpt>
      <trkpt lat="37.666079" lon="126.767537">
        <ele>15.2</ele>
      </trkpt>
      <trkpt lat="37.666069" lon="126.767549">
        <ele>15.2</ele>
      </trkpt>
      <trkpt lat="37.665993" lon="126.767421">
        <ele>15.3</ele>
      </trkpt>
      <trkpt lat="37.666074" lon="126.767339">
        <ele>15.3</ele>
      </trkpt>
      <trkpt lat="37.666145" lon="126.767267">
        <ele>15.4</ele>
      </trkpt>
      <trkpt lat="37.666254" lon="126.767176">
        <ele>15.4</ele>
      </trkpt>
      <trkpt lat="37.666267" lon="126.767128">
        <ele>15.5</ele>
      </trkpt>
      <trkpt lat="37.66617" lon="126.767093">
        <ele>15.5</ele>
      </trkpt>
      <trkpt lat="37.666006" lon="126.766964">
        <ele>15.5</ele>
      </trkpt>
      <trkpt lat="37.666004573359636" lon="126.7669701576233">
        <ele>15.6</ele>
      </trkpt>
      <trkpt lat="37.666006" lon="126.766964">
        <ele>15.6</ele>
      </trkpt>
      <trkpt lat="37.66596" lon="126.766927">
        <ele>15.6</ele>
      </trkpt>
      <trkpt lat="37.665803" lon="126.766674">
        <ele>15.6</ele>
      </trkpt>
      <trkpt lat="37.665644" lon="126.7664">
        <ele>15.7</ele>
      </trkpt>
      <trkpt lat="37.665123" lon="126.765604">
        <ele>15.7</ele>
      </trkpt>
      <trkpt lat="37.664836" lon="126.765141">
        <ele>15.7</ele>
      </trkpt>
      <trkpt lat="37.664832557856435" lon="126.76514625549316">
        <ele>15.7</ele>
      </trkpt>
      <trkpt lat="37.664836" lon="126.765141">
        <ele>15.7</ele>
      </trkpt>
      <trkpt lat="37.664777" lon="126.765044">
        <ele>15.8</ele>
      </trkpt>
      <trkpt lat="37.66449" lon="126.764595">
        <ele>15.8</ele>
      </trkpt>
      <trkpt lat="37.663446" lon="126.762884">
        <ele>15.8</ele>
      </trkpt>
      <trkpt lat="37.663384" lon="126.762769">
        <ele>15.8</ele>
      </trkpt>
      <trkpt lat="37.663486" lon="126.762649">
        <ele>15.8</ele>
      </trkpt>
      <trkpt lat="37.663529" lon="126.762599">
        <ele>15.8</ele>
      </trkpt>
      <trkpt lat="37.66352463464879" lon="126.762592792511">
        <ele>15.8</ele>
      </trkpt>
      <trkpt lat="37.663529" lon="126.762599">
        <ele>15.9</ele>
      </trkpt>
      <trkpt lat="37.663683" lon="126.762426">
        <ele>15.9</ele>
      </trkpt>
      <trkpt lat="37.663963" lon="126.762126">
        <ele>15.9</ele>
      </trkpt>
      <trkpt lat="37.664377" lon="126.761611">
        <ele>15.9</ele>
      </trkpt>
      <trkpt lat="37.66492" lon="126.760809">
        <ele>15.9</ele>
      </trkpt>
      <trkpt lat="37.665007" lon="126.76068">
        <ele>15.9</ele>
      </trkpt>
      <trkpt lat="37.66508" lon="126.760523">
        <ele>15.9</ele>
      </trkpt>
      <trkpt lat="37.665603" lon="126.759382">
        <ele>15.9</ele>
      </trkpt>
      <trkpt lat="37.66556294650234" lon="126.75935268402101">
        <ele>15.9</ele>
      </trkpt>
      <trkpt lat="37.665603" lon="126.759382">
        <ele>15.9</ele>
      </trkpt>
      <trkpt lat="37.66601" lon="126.758495">
        <ele>15.9</ele>
      </trkpt>
      <trkpt lat="37.666211" lon="126.758022">
        <ele>15.9</ele>
      </trkpt>
      <trkpt lat="37.66731" lon="126.75552">
        <ele>15.9</ele>
      </trkpt>
      <trkpt lat="37.667387" lon="126.755344">
        <ele>15.8</ele>
      </trkpt>
      <trkpt lat="37.667458" lon="126.755184">
        <ele>15.8</ele>
      </trkpt>
      <trkpt lat="37.668299" lon="126.753284">
        <ele>15.8</ele>
      </trkpt>
      <trkpt lat="37.66916" lon="126.751202">
        <ele>15.8</ele>
      </trkpt>
      <trkpt lat="37.669228" lon="126.751039">
        <ele>15.7</ele>
      </trkpt>
      <trkpt lat="37.669276" lon="126.750929">
        <ele>15.7</ele>
      </trkpt>
      <trkpt lat="37.66923176678439" lon="126.75089836120607">
        <ele>15.7</ele>
      </trkpt>
      <trkpt lat="37.669276" lon="126.750929">
        <ele>15.6</ele>
      </trkpt>
      <trkpt lat="37.669301" lon="126.750875">
        <ele>15.6</ele>
      </trkpt>
      <trkpt lat="37.669829" lon="126.749681">
        <ele>15.6</ele>
      </trkpt>
      <trkpt lat="37.670638" lon="126.747855">
        <ele>15.6</ele>
      </trkpt>
      <trkpt lat="37.671158" lon="126.746679">
        <ele>15.5</ele>
      </trkpt>
      <trkpt lat="37.671213" lon="126.746555">
        <ele>15.5</ele>
      </trkpt>
      <trkpt lat="37.671282" lon="126.746399">
        <ele>15.5</ele>
      </trkpt>
      <trkpt lat="37.671339" lon="126.74627">
        <ele>15.5</ele>
      </trkpt>
      <trkpt lat="37.672001" lon="126.744774">
        <ele>15.5</ele>
      </trkpt>
      <trkpt lat="37.672378" lon="126.743924">
        <ele>15.4</ele>
      </trkpt>
      <trkpt lat="37.672711" lon="126.743172">
        <ele>15.4</ele>
      </trkpt>
      <trkpt lat="37.672767" lon="126.743043">
        <ele>15.4</ele>
      </trkpt>
      <trkpt lat="37.672792" lon="126.743061">
        <ele>15.4</ele>
      </trkpt>
      <trkpt lat="37.67278151747315" lon="126.7430877685547">
        <ele>15.3</ele>
      </trkpt>
      <trkpt lat="37.672792" lon="126.743061">
        <ele>15.3</ele>
      </trkpt>
      <trkpt lat="37.672853" lon="126.743103">
        <ele>15.3</ele>
      </trkpt>
      <trkpt lat="37.674264" lon="126.744077">
        <ele>15.3</ele>
      </trkpt>
      <trkpt lat="37.675305" lon="126.744796">
        <ele>15.2</ele>
      </trkpt>
      <trkpt lat="37.67531209730028" lon="126.74478292465211">
        <ele>15.2</ele>
      </trkpt>
    </trkseg>
  </trk>
</gpx>