<?xml version="1.0" encoding="UTF-8"?>
<gpx xmlns="http://www.topografix.com/GPX/1/1" xmlns:gpxdata="http://www.cluetrust.com/XML/GPXDATA/1/0" xmlns:xsi="http://www.w3.org/2001/XMLSchema-instance" xsi:schemaLocation="http://www.topografix.com/GPX/1/1 https://www.topografix.com/GPX/1/1/gpx.xsd http://www.cluetrust.com/XML/GPXDATA/1/0 https://www.cluetrust.com/Schemas/gpxdata10.xsd" creator="COROS Wearables" version="1.1">
 <metadata>
  <link href="https://www.coros.com">
   <text>COROS</text>
  </link>
  <time>2026-09-01T00:21:06Z</time>
  <coros_edit>1</coros_edit>
 </metadata>
 <trk>
  <name>gangwha</name>
  <type>running</type>
  <trkseg>
   <trkpt lat="37.7003640" lon="126.3844590">
    <ele>3</ele>
   </trkpt>
   <trkpt lat="37.7001870" lon="126.3850750">
    <ele>3</ele>
   </trkpt>
   <trkpt lat="37.7000840" lon="126.3853860">
    <ele>3</ele>
   </trkpt>
   <trkpt lat="37.6999940" lon="126.3856150">
    <ele>3</ele>
   </trkpt>
   <trkpt lat="37.6997250" lon="126.3862430">
    <ele>5</ele>
   </trkpt>
   <trkpt lat="37.6996120" lon="126.3865000">
    <ele>6</ele>
   </trkpt>
   <trkpt lat="37.6995040" lon="126.3867000">
    <ele>5</ele>
   </trkpt>
   <trkpt lat="37.6993560" lon="126.3869760">
    <ele>3</ele>
   </trkpt>
   <trkpt lat="37.6991940" lon="126.3872490">
    <ele>3</ele>
   </trkpt>
   <trkpt lat="37.6990160" lon="126.3875250">
    <ele>2</ele>
   </trkpt>
   <trkpt lat="37.6988590" lon="126.3877630">
    <ele>5</ele>
   </trkpt>
   <trkpt lat="37.6986850" lon="126.3880010">
    <ele>5</ele>
   </trkpt>
   <trkpt lat="37.6985220" lon="126.3882140">
    <ele>5</ele>
   </trkpt>
   <trkpt lat="37.6983330" lon="126.3884410">
    <ele>4</ele>
   </trkpt>
   <trkpt lat="37.6970630" lon="126.3898570">
    <ele>6</ele>
   </trkpt>
   <trkpt lat="37.6968520" lon="126.3900930">
    <ele>5</ele>
   </trkpt>
   <trkpt lat="37.6964380" lon="126.3905560">
    <ele>6</ele>
   </trkpt>
   <trkpt lat="37.6957820" lon="126.3912900">
    <ele>4</ele>
   </trkpt>
   <trkpt lat="37.6956530" lon="126.3914200">
    <ele>4</ele>
   </trkpt>
   <trkpt lat="37.6955390" lon="126.3915190">
    <ele>5</ele>
   </trkpt>
   <trkpt lat="37.6954070" lon="126.3916310">
    <ele>5</ele>
   </trkpt>
   <trkpt lat="37.6952550" lon="126.3917340">
    <ele>5</ele>
   </trkpt>
   <trkpt lat="37.6950950" lon="126.3918350">
    <ele>5</ele>
   </trkpt>
   <trkpt lat="37.6949970" lon="126.3918840">
    <ele>4</ele>
   </trkpt>
   <trkpt lat="37.6948660" lon="126.3919410">
    <ele>5</ele>
   </trkpt>
   <trkpt lat="37.6946930" lon="126.3920030">
    <ele>5</ele>
   </trkpt>
   <trkpt lat="37.6945090" lon="126.3920460">
    <ele>5</ele>
   </trkpt>
   <trkpt lat="37.6942980" lon="126.3920780">
    <ele>5</ele>
   </trkpt>
   <trkpt lat="37.6941140" lon="126.3920850">
    <ele>5</ele>
   </trkpt>
   <trkpt lat="37.6939310" lon="126.3920820">
    <ele>5</ele>
   </trkpt>
   <trkpt lat="37.6937630" lon="126.3920570">
    <ele>6</ele>
   </trkpt>
   <trkpt lat="37.6935920" lon="126.3920150">
    <ele>7</ele>
   </trkpt>
   <trkpt lat="37.6934860" lon="126.3919810">
    <ele>7</ele>
   </trkpt>
   <trkpt lat="37.6934030" lon="126.3919550">
    <ele>7</ele>
   </trkpt>
   <trkpt lat="37.6932390" lon="126.3918810">
    <ele>7</ele>
   </trkpt>
   <trkpt lat="37.6930820" lon="126.3918000">
    <ele>7</ele>
   </trkpt>
   <trkpt lat="37.6929220" lon="126.3917020">
    <ele>7</ele>
   </trkpt>
   <trkpt lat="37.6926060" lon="126.3914760">
    <ele>5</ele>
   </trkpt>
   <trkpt lat="37.6919980" lon="126.3910280">
    <ele>5</ele>
   </trkpt>
   <trkpt lat="37.6914490" lon="126.3906130">
    <ele>3</ele>
   </trkpt>
   <trkpt lat="37.6910320" lon="126.3902760">
    <ele>9</ele>
   </trkpt>
   <trkpt lat="37.6908990" lon="126.3901860">
    <ele>14</ele>
   </trkpt>
   <trkpt lat="37.6907540" lon="126.3901050">
    <ele>17</ele>
   </trkpt>
   <trkpt lat="37.6906200" lon="126.3900410">
    <ele>24</ele>
   </trkpt>
   <trkpt lat="37.6905800" lon="126.3900220">
    <ele>28</ele>
   </trkpt>
   <trkpt lat="37.6904320" lon="126.3899590">
    <ele>31</ele>
   </trkpt>
   <trkpt lat="37.6902580" lon="126.3899020">
    <ele>33</ele>
   </trkpt>
   <trkpt lat="37.6901460" lon="126.3898760">
    <ele>34</ele>
   </trkpt>
   <trkpt lat="37.6901130" lon="126.3898690">
    <ele>34</ele>
   </trkpt>
   <trkpt lat="37.6899660" lon="126.3898440">
    <ele>35</ele>
   </trkpt>
   <trkpt lat="37.6898280" lon="126.3898330">
    <ele>35</ele>
   </trkpt>
   <trkpt lat="37.6896700" lon="126.3898330">
    <ele>36</ele>
   </trkpt>
   <trkpt lat="37.6895190" lon="126.3898460">
    <ele>36</ele>
   </trkpt>
   <trkpt lat="37.6893750" lon="126.3898710">
    <ele>35</ele>
   </trkpt>
   <trkpt lat="37.6892460" lon="126.3898990">
    <ele>34</ele>
   </trkpt>
   <trkpt lat="37.6891160" lon="126.3899440">
    <ele>33</ele>
   </trkpt>
   <trkpt lat="37.6889760" lon="126.3899970">
    <ele>38</ele>
   </trkpt>
   <trkpt lat="37.6876090" lon="126.3905220">
    <ele>20</ele>
   </trkpt>
   <trkpt lat="37.6856240" lon="126.3913300">
    <ele>12</ele>
   </trkpt>
   <trkpt lat="37.6855140" lon="126.3913780">
    <ele>13</ele>
   </trkpt>
   <trkpt lat="37.6854170" lon="126.3914310">
    <ele>11</ele>
   </trkpt>
   <trkpt lat="37.6853150" lon="126.3915010">
    <ele>11</ele>
   </trkpt>
   <trkpt lat="37.6852130" lon="126.3915790">
    <ele>13</ele>
   </trkpt>
   <trkpt lat="37.6851110" lon="126.3916790">
    <ele>11</ele>
   </trkpt>
   <trkpt lat="37.6850130" lon="126.3917880">
    <ele>12</ele>
   </trkpt>
   <trkpt lat="37.6848670" lon="126.3919790">
    <ele>11</ele>
   </trkpt>
   <trkpt lat="37.6847760" lon="126.3920940">
    <ele>14</ele>
   </trkpt>
   <trkpt lat="37.6846820" lon="126.3922360">
    <ele>13</ele>
   </trkpt>
   <trkpt lat="37.6839880" lon="126.3934030">
    <ele>9</ele>
   </trkpt>
   <trkpt lat="37.6839110" lon="126.3935050">
    <ele>8</ele>
   </trkpt>
   <trkpt lat="37.6838230" lon="126.3936160">
    <ele>9</ele>
   </trkpt>
   <trkpt lat="37.6837280" lon="126.3937090">
    <ele>7</ele>
   </trkpt>
   <trkpt lat="37.6836320" lon="126.3937960">
    <ele>6</ele>
   </trkpt>
   <trkpt lat="37.6835420" lon="126.3938670">
    <ele>6</ele>
   </trkpt>
   <trkpt lat="37.6832080" lon="126.3941010">
    <ele>8</ele>
   </trkpt>
   <trkpt lat="37.6830470" lon="126.3942020">
    <ele>7</ele>
   </trkpt>
   <trkpt lat="37.6829040" lon="126.3942910">
    <ele>7</ele>
   </trkpt>
   <trkpt lat="37.6825820" lon="126.3945040">
    <ele>5</ele>
   </trkpt>
   <trkpt lat="37.6825610" lon="126.3945190">
    <ele>5</ele>
   </trkpt>
   <trkpt lat="37.6824710" lon="126.3945840">
    <ele>5</ele>
   </trkpt>
   <trkpt lat="37.6823680" lon="126.3946640">
    <ele>5</ele>
   </trkpt>
   <trkpt lat="37.6822490" lon="126.3947750">
    <ele>2</ele>
   </trkpt>
   <trkpt lat="37.6821480" lon="126.3948860">
    <ele>2</ele>
   </trkpt>
   <trkpt lat="37.6820280" lon="126.3950340">
    <ele>3</ele>
   </trkpt>
   <trkpt lat="37.6819360" lon="126.3951660">
    <ele>4</ele>
   </trkpt>
   <trkpt lat="37.6818580" lon="126.3952910">
    <ele>3</ele>
   </trkpt>
   <trkpt lat="37.6817860" lon="126.3954310">
    <ele>4</ele>
   </trkpt>
   <trkpt lat="37.6817250" lon="126.3955690">
    <ele>3</ele>
   </trkpt>
   <trkpt lat="37.6816760" lon="126.3956960">
    <ele>3</ele>
   </trkpt>
   <trkpt lat="37.6816300" lon="126.3958580">
    <ele>3</ele>
   </trkpt>
   <trkpt lat="37.6815940" lon="126.3960330">
    <ele>3</ele>
   </trkpt>
   <trkpt lat="37.6815610" lon="126.3962520">
    <ele>4</ele>
   </trkpt>
   <trkpt lat="37.6814840" lon="126.3967940">
    <ele>4</ele>
   </trkpt>
   <trkpt lat="37.6814010" lon="126.3973810">
    <ele>4</ele>
   </trkpt>
   <trkpt lat="37.6813890" lon="126.3974850">
    <ele>4</ele>
   </trkpt>
   <trkpt lat="37.6813470" lon="126.3978720">
    <ele>5</ele>
   </trkpt>
   <trkpt lat="37.6813290" lon="126.3980290">
    <ele>5</ele>
   </trkpt>
   <trkpt lat="37.6813000" lon="126.3981850">
    <ele>6</ele>
   </trkpt>
   <trkpt lat="37.6812580" lon="126.3983260">
    <ele>6</ele>
   </trkpt>
   <trkpt lat="37.6812190" lon="126.3984360">
    <ele>5</ele>
   </trkpt>
   <trkpt lat="37.6811680" lon="126.3985400">
    <ele>5</ele>
   </trkpt>
   <trkpt lat="37.6810870" lon="126.3986820">
    <ele>5</ele>
   </trkpt>
   <trkpt lat="37.6810020" lon="126.3988080">
    <ele>6</ele>
   </trkpt>
   <trkpt lat="37.6809100" lon="126.3989220">
    <ele>7</ele>
   </trkpt>
   <trkpt lat="37.6808230" lon="126.3990180">
    <ele>7</ele>
   </trkpt>
   <trkpt lat="37.6807250" lon="126.3990900">
    <ele>8</ele>
   </trkpt>
   <trkpt lat="37.6806150" lon="126.3991570">
    <ele>8</ele>
   </trkpt>
   <trkpt lat="37.6804860" lon="126.3992210">
    <ele>8</ele>
   </trkpt>
   <trkpt lat="37.6801970" lon="126.3993240">
    <ele>10</ele>
   </trkpt>
   <trkpt lat="37.6799120" lon="126.3994300">
    <ele>12</ele>
   </trkpt>
   <trkpt lat="37.6795620" lon="126.3995520">
    <ele>9</ele>
   </trkpt>
   <trkpt lat="37.6792970" lon="126.3996440">
    <ele>9</ele>
   </trkpt>
   <trkpt lat="37.6791010" lon="126.3997310">
    <ele>8</ele>
   </trkpt>
   <trkpt lat="37.6789370" lon="126.3998160">
    <ele>9</ele>
   </trkpt>
   <trkpt lat="37.6787480" lon="126.3999310">
    <ele>7</ele>
   </trkpt>
   <trkpt lat="37.6786790" lon="126.3999740">
    <ele>8</ele>
   </trkpt>
   <trkpt lat="37.6785780" lon="126.4000370">
    <ele>7</ele>
   </trkpt>
   <trkpt lat="37.6784230" lon="126.4001430">
    <ele>6</ele>
   </trkpt>
   <trkpt lat="37.6782720" lon="126.4002700">
    <ele>5</ele>
   </trkpt>
   <trkpt lat="37.6782050" lon="126.4003330">
    <ele>5</ele>
   </trkpt>
   <trkpt lat="37.6781320" lon="126.4004020">
    <ele>5</ele>
   </trkpt>
   <trkpt lat="37.6779920" lon="126.4005450">
    <ele>5</ele>
   </trkpt>
   <trkpt lat="37.6778460" lon="126.4007150">
    <ele>4</ele>
   </trkpt>
   <trkpt lat="37.6777130" lon="126.4008890">
    <ele>3</ele>
   </trkpt>
   <trkpt lat="37.6776120" lon="126.4010300">
    <ele>3</ele>
   </trkpt>
   <trkpt lat="37.6775130" lon="126.4011860">
    <ele>3</ele>
   </trkpt>
   <trkpt lat="37.6774160" lon="126.4013450">
    <ele>3</ele>
   </trkpt>
   <trkpt lat="37.6767960" lon="126.4025380">
    <ele>0</ele>
   </trkpt>
   <trkpt lat="37.6765970" lon="126.4029130">
    <ele>0</ele>
   </trkpt>
   <trkpt lat="37.6765070" lon="126.4030720">
    <ele>0</ele>
   </trkpt>
   <trkpt lat="37.6764070" lon="126.4032030">
    <ele>0</ele>
   </trkpt>
   <trkpt lat="37.6763060" lon="126.4033240">
    <ele>0</ele>
   </trkpt>
   <trkpt lat="37.6761940" lon="126.4034420">
    <ele>2</ele>
   </trkpt>
   <trkpt lat="37.6760760" lon="126.4035470">
    <ele>7</ele>
   </trkpt>
   <trkpt lat="37.6759610" lon="126.4036300">
    <ele>6</ele>
   </trkpt>
   <trkpt lat="37.6758400" lon="126.4037030">
    <ele>4</ele>
   </trkpt>
   <trkpt lat="37.6757340" lon="126.4037560">
    <ele>5</ele>
   </trkpt>
   <trkpt lat="37.6756150" lon="126.4038070">
    <ele>3</ele>
   </trkpt>
   <trkpt lat="37.6754900" lon="126.4038440">
    <ele>3</ele>
   </trkpt>
   <trkpt lat="37.6753420" lon="126.4038830">
    <ele>3</ele>
   </trkpt>
   <trkpt lat="37.6747030" lon="126.4040000">
    <ele>1</ele>
   </trkpt>
   <trkpt lat="37.6745600" lon="126.4040310">
    <ele>0</ele>
   </trkpt>
   <trkpt lat="37.6744030" lon="126.4040770">
    <ele>3</ele>
   </trkpt>
   <trkpt lat="37.6742940" lon="126.4041200">
    <ele>3</ele>
   </trkpt>
   <trkpt lat="37.6741750" lon="126.4041770">
    <ele>3</ele>
   </trkpt>
   <trkpt lat="37.6740560" lon="126.4042490">
    <ele>5</ele>
   </trkpt>
   <trkpt lat="37.6739420" lon="126.4043360">
    <ele>4</ele>
   </trkpt>
   <trkpt lat="37.6738350" lon="126.4044250">
    <ele>4</ele>
   </trkpt>
   <trkpt lat="37.6735950" lon="126.4046670">
    <ele>5</ele>
   </trkpt>
   <trkpt lat="37.6734730" lon="126.4047760">
    <ele>5</ele>
   </trkpt>
   <trkpt lat="37.6733610" lon="126.4048660">
    <ele>5</ele>
   </trkpt>
   <trkpt lat="37.6732270" lon="126.4049600">
    <ele>5</ele>
   </trkpt>
   <trkpt lat="37.6730750" lon="126.4050500">
    <ele>5</ele>
   </trkpt>
   <trkpt lat="37.6729350" lon="126.4051290">
    <ele>5</ele>
   </trkpt>
   <trkpt lat="37.6728320" lon="126.4051770">
    <ele>5</ele>
   </trkpt>
   <trkpt lat="37.6728060" lon="126.4051890">
    <ele>5</ele>
   </trkpt>
   <trkpt lat="37.6726660" lon="126.4052440">
    <ele>5</ele>
   </trkpt>
   <trkpt lat="37.6725020" lon="126.4052950">
    <ele>5</ele>
   </trkpt>
   <trkpt lat="37.6723500" lon="126.4053320">
    <ele>4</ele>
   </trkpt>
   <trkpt lat="37.6723050" lon="126.4053430">
    <ele>4</ele>
   </trkpt>
   <trkpt lat="37.6720480" lon="126.4053970">
    <ele>2</ele>
   </trkpt>
   <trkpt lat="37.6715350" lon="126.4055040">
    <ele>3</ele>
   </trkpt>
   <trkpt lat="37.6707810" lon="126.4056620">
    <ele>4</ele>
   </trkpt>
   <trkpt lat="37.6703630" lon="126.4057600">
    <ele>3</ele>
   </trkpt>
   <trkpt lat="37.6696020" lon="126.4059220">
    <ele>2</ele>
   </trkpt>
   <trkpt lat="37.6693760" lon="126.4059780">
    <ele>6</ele>
   </trkpt>
   <trkpt lat="37.6692210" lon="126.4060270">
    <ele>8</ele>
   </trkpt>
   <trkpt lat="37.6690500" lon="126.4060970">
    <ele>11</ele>
   </trkpt>
   <trkpt lat="37.6688730" lon="126.4061820">
    <ele>19</ele>
   </trkpt>
   <trkpt lat="37.6687090" lon="126.4062780">
    <ele>20</ele>
   </trkpt>
   <trkpt lat="37.6684890" lon="126.4064130">
    <ele>28</ele>
   </trkpt>
   <trkpt lat="37.6683440" lon="126.4065200">
    <ele>36</ele>
   </trkpt>
   <trkpt lat="37.6682080" lon="126.4066280">
    <ele>39</ele>
   </trkpt>
   <trkpt lat="37.6680180" lon="126.4067940">
    <ele>46</ele>
   </trkpt>
   <trkpt lat="37.6674230" lon="126.4073660">
    <ele>51</ele>
   </trkpt>
   <trkpt lat="37.6667820" lon="126.4080440">
    <ele>52</ele>
   </trkpt>
   <trkpt lat="37.6666720" lon="126.4081480">
    <ele>49</ele>
   </trkpt>
   <trkpt lat="37.6665760" lon="126.4082300">
    <ele>53</ele>
   </trkpt>
   <trkpt lat="37.6664690" lon="126.4083150">
    <ele>50</ele>
   </trkpt>
   <trkpt lat="37.6663360" lon="126.4084050">
    <ele>51</ele>
   </trkpt>
   <trkpt lat="37.6661970" lon="126.4085210">
    <ele>53</ele>
   </trkpt>
   <trkpt lat="37.6660430" lon="126.4086080">
    <ele>50</ele>
   </trkpt>
   <trkpt lat="37.6659200" lon="126.4086800">
    <ele>48</ele>
   </trkpt>
   <trkpt lat="37.6658240" lon="126.4087090">
    <ele>48</ele>
   </trkpt>
   <trkpt lat="37.6657660" lon="126.4087270">
    <ele>48</ele>
   </trkpt>
   <trkpt lat="37.6655900" lon="126.4087720">
    <ele>42</ele>
   </trkpt>
   <trkpt lat="37.6654080" lon="126.4088070">
    <ele>39</ele>
   </trkpt>
   <trkpt lat="37.6652800" lon="126.4088190">
    <ele>35</ele>
   </trkpt>
   <trkpt lat="37.6652430" lon="126.4088220">
    <ele>35</ele>
   </trkpt>
   <trkpt lat="37.6651000" lon="126.4088280">
    <ele>32</ele>
   </trkpt>
   <trkpt lat="37.6649450" lon="126.4088210">
    <ele>28</ele>
   </trkpt>
   <trkpt lat="37.6647640" lon="126.4088030">
    <ele>20</ele>
   </trkpt>
   <trkpt lat="37.6645020" lon="126.4087690">
    <ele>13</ele>
   </trkpt>
   <trkpt lat="37.6638770" lon="126.4086180">
    <ele>6</ele>
   </trkpt>
   <trkpt lat="37.6632610" lon="126.4084520">
    <ele>4</ele>
   </trkpt>
   <trkpt lat="37.6631080" lon="126.4084320">
    <ele>5</ele>
   </trkpt>
   <trkpt lat="37.6629560" lon="126.4084270">
    <ele>6</ele>
   </trkpt>
   <trkpt lat="37.6628230" lon="126.4084370">
    <ele>6</ele>
   </trkpt>
   <trkpt lat="37.6626860" lon="126.4084630">
    <ele>6</ele>
   </trkpt>
   <trkpt lat="37.6625550" lon="126.4084990">
    <ele>6</ele>
   </trkpt>
   <trkpt lat="37.6624010" lon="126.4085540">
    <ele>6</ele>
   </trkpt>
   <trkpt lat="37.6615600" lon="126.4089080">
    <ele>5</ele>
   </trkpt>
   <trkpt lat="37.6613610" lon="126.4089950">
    <ele>5</ele>
   </trkpt>
   <trkpt lat="37.6611630" lon="126.4090940">
    <ele>4</ele>
   </trkpt>
   <trkpt lat="37.6608380" lon="126.4092630">
    <ele>5</ele>
   </trkpt>
   <trkpt lat="37.6596370" lon="126.4098670">
    <ele>5</ele>
   </trkpt>
   <trkpt lat="37.6595070" lon="126.4099300">
    <ele>5</ele>
   </trkpt>
   <trkpt lat="37.6593680" lon="126.4099720">
    <ele>4</ele>
   </trkpt>
   <trkpt lat="37.6592230" lon="126.4099980">
    <ele>3</ele>
   </trkpt>
   <trkpt lat="37.6590510" lon="126.4100040">
    <ele>3</ele>
   </trkpt>
   <trkpt lat="37.6588920" lon="126.4099880">
    <ele>2</ele>
   </trkpt>
   <trkpt lat="37.6587370" lon="126.4099440">
    <ele>2</ele>
   </trkpt>
   <trkpt lat="37.6585920" lon="126.4098810">
    <ele>2</ele>
   </trkpt>
   <trkpt lat="37.6584590" lon="126.4098090">
    <ele>3</ele>
   </trkpt>
   <trkpt lat="37.6583460" lon="126.4097250">
    <ele>3</ele>
   </trkpt>
   <trkpt lat="37.6582480" lon="126.4096430">
    <ele>4</ele>
   </trkpt>
   <trkpt lat="37.6581470" lon="126.4095830">
    <ele>4</ele>
   </trkpt>
   <trkpt lat="37.6580070" lon="126.4095180">
    <ele>5</ele>
   </trkpt>
   <trkpt lat="37.6578790" lon="126.4094740">
    <ele>5</ele>
   </trkpt>
   <trkpt lat="37.6577740" lon="126.4094540">
    <ele>5</ele>
   </trkpt>
   <trkpt lat="37.6576800" lon="126.4094440">
    <ele>5</ele>
   </trkpt>
   <trkpt lat="37.6575860" lon="126.4094460">
    <ele>5</ele>
   </trkpt>
   <trkpt lat="37.6574670" lon="126.4094640">
    <ele>5</ele>
   </trkpt>
   <trkpt lat="37.6572570" lon="126.4095070">
    <ele>5</ele>
   </trkpt>
   <trkpt lat="37.6568480" lon="126.4095980">
    <ele>6</ele>
   </trkpt>
   <trkpt lat="37.6549050" lon="126.4100330">
    <ele>5</ele>
   </trkpt>
   <trkpt lat="37.6547220" lon="126.4100790">
    <ele>5</ele>
   </trkpt>
   <trkpt lat="37.6545070" lon="126.4101430">
    <ele>4</ele>
   </trkpt>
   <trkpt lat="37.6543120" lon="126.4102160">
    <ele>1</ele>
   </trkpt>
   <trkpt lat="37.6540450" lon="126.4103320">
    <ele>4</ele>
   </trkpt>
   <trkpt lat="37.6535200" lon="126.4105610">
    <ele>5</ele>
   </trkpt>
   <trkpt lat="37.6524410" lon="126.4110300">
    <ele>6</ele>
   </trkpt>
   <trkpt lat="37.6522980" lon="126.4110850">
    <ele>6</ele>
   </trkpt>
   <trkpt lat="37.6521730" lon="126.4111170">
    <ele>6</ele>
   </trkpt>
   <trkpt lat="37.6520400" lon="126.4111400">
    <ele>6</ele>
   </trkpt>
   <trkpt lat="37.6519020" lon="126.4111540">
    <ele>5</ele>
   </trkpt>
   <trkpt lat="37.6517610" lon="126.4111580">
    <ele>5</ele>
   </trkpt>
   <trkpt lat="37.6516470" lon="126.4111500">
    <ele>4</ele>
   </trkpt>
   <trkpt lat="37.6515090" lon="126.4111220">
    <ele>4</ele>
   </trkpt>
   <trkpt lat="37.6513790" lon="126.4110870">
    <ele>3</ele>
   </trkpt>
   <trkpt lat="37.6503310" lon="126.4106980">
    <ele>7</ele>
   </trkpt>
   <trkpt lat="37.6501480" lon="126.4106310">
    <ele>7</ele>
   </trkpt>
   <trkpt lat="37.6500010" lon="126.4105640">
    <ele>6</ele>
   </trkpt>
   <trkpt lat="37.6498690" lon="126.4104900">
    <ele>7</ele>
   </trkpt>
   <trkpt lat="37.6497400" lon="126.4104080">
    <ele>6</ele>
   </trkpt>
   <trkpt lat="37.6496010" lon="126.4103070">
    <ele>6</ele>
   </trkpt>
   <trkpt lat="37.6494820" lon="126.4101890">
    <ele>6</ele>
   </trkpt>
   <trkpt lat="37.6493780" lon="126.4100800">
    <ele>5</ele>
   </trkpt>
   <trkpt lat="37.6492720" lon="126.4099380">
    <ele>5</ele>
   </trkpt>
   <trkpt lat="37.6489280" lon="126.4094470">
    <ele>4</ele>
   </trkpt>
   <trkpt lat="37.6487290" lon="126.4091930">
    <ele>4</ele>
   </trkpt>
   <trkpt lat="37.6485290" lon="126.4089470">
    <ele>4</ele>
   </trkpt>
   <trkpt lat="37.6475010" lon="126.4076960">
    <ele>6</ele>
   </trkpt>
   <trkpt lat="37.6473390" lon="126.4074950">
    <ele>7</ele>
   </trkpt>
   <trkpt lat="37.6471440" lon="126.4072470">
    <ele>6</ele>
   </trkpt>
   <trkpt lat="37.6470230" lon="126.4070780">
    <ele>6</ele>
   </trkpt>
   <trkpt lat="37.6469030" lon="126.4069120">
    <ele>8</ele>
   </trkpt>
   <trkpt lat="37.6467580" lon="126.4066970">
    <ele>9</ele>
   </trkpt>
   <trkpt lat="37.6465670" lon="126.4064510">
    <ele>10</ele>
   </trkpt>
   <trkpt lat="37.6464610" lon="126.4063060">
    <ele>10</ele>
   </trkpt>
   <trkpt lat="37.6463830" lon="126.4062030">
    <ele>9</ele>
   </trkpt>
   <trkpt lat="37.6463180" lon="126.4061220">
    <ele>9</ele>
   </trkpt>
   <trkpt lat="37.6462390" lon="126.4060370">
    <ele>6</ele>
   </trkpt>
   <trkpt lat="37.6461700" lon="126.4059690">
    <ele>7</ele>
   </trkpt>
   <trkpt lat="37.6460880" lon="126.4058990">
    <ele>4</ele>
   </trkpt>
   <trkpt lat="37.6459990" lon="126.4058380">
    <ele>5</ele>
   </trkpt>
   <trkpt lat="37.6458560" lon="126.4057380">
    <ele>5</ele>
   </trkpt>
   <trkpt lat="37.6452170" lon="126.4052930">
    <ele>5</ele>
   </trkpt>
   <trkpt lat="37.6449770" lon="126.4051150">
    <ele>5</ele>
   </trkpt>
   <trkpt lat="37.6447450" lon="126.4049730">
    <ele>4</ele>
   </trkpt>
   <trkpt lat="37.6445730" lon="126.4048690">
    <ele>4</ele>
   </trkpt>
   <trkpt lat="37.6443610" lon="126.4047280">
    <ele>6</ele>
   </trkpt>
   <trkpt lat="37.6441780" lon="126.4045940">
    <ele>7</ele>
   </trkpt>
   <trkpt lat="37.6440110" lon="126.4044620">
    <ele>7</ele>
   </trkpt>
   <trkpt lat="37.6438470" lon="126.4043150">
    <ele>7</ele>
   </trkpt>
   <trkpt lat="37.6437080" lon="126.4041860">
    <ele>6</ele>
   </trkpt>
   <trkpt lat="37.6434110" lon="126.4038800">
    <ele>6</ele>
   </trkpt>
   <trkpt lat="37.6431640" lon="126.4036120">
    <ele>6</ele>
   </trkpt>
   <trkpt lat="37.6430380" lon="126.4034640">
    <ele>6</ele>
   </trkpt>
   <trkpt lat="37.6429110" lon="126.4032960">
    <ele>7</ele>
   </trkpt>
   <trkpt lat="37.6428100" lon="126.4031460">
    <ele>7</ele>
   </trkpt>
   <trkpt lat="37.6426950" lon="126.4029520">
    <ele>7</ele>
   </trkpt>
   <trkpt lat="37.6425860" lon="126.4027650">
    <ele>7</ele>
   </trkpt>
   <trkpt lat="37.6424990" lon="126.4025920">
    <ele>7</ele>
   </trkpt>
   <trkpt lat="37.6423440" lon="126.4022430">
    <ele>7</ele>
   </trkpt>
   <trkpt lat="37.6422530" lon="126.4020410">
    <ele>8</ele>
   </trkpt>
   <trkpt lat="37.6421490" lon="126.4018450">
    <ele>7</ele>
   </trkpt>
   <trkpt lat="37.6420510" lon="126.4016690">
    <ele>6</ele>
   </trkpt>
   <trkpt lat="37.6419400" lon="126.4014830">
    <ele>6</ele>
   </trkpt>
   <trkpt lat="37.6418200" lon="126.4013080">
    <ele>6</ele>
   </trkpt>
   <trkpt lat="37.6414390" lon="126.4007600">
    <ele>5</ele>
   </trkpt>
   <trkpt lat="37.6413370" lon="126.4005880">
    <ele>6</ele>
   </trkpt>
   <trkpt lat="37.6412420" lon="126.4004200">
    <ele>8</ele>
   </trkpt>
   <trkpt lat="37.6412210" lon="126.4003820">
    <ele>8</ele>
   </trkpt>
   <trkpt lat="37.6411360" lon="126.4002280">
    <ele>8</ele>
   </trkpt>
   <trkpt lat="37.6410410" lon="126.4000210">
    <ele>7</ele>
   </trkpt>
   <trkpt lat="37.6409470" lon="126.3997750">
    <ele>7</ele>
   </trkpt>
   <trkpt lat="37.6406990" lon="126.3991220">
    <ele>4</ele>
   </trkpt>
   <trkpt lat="37.6406390" lon="126.3989860">
    <ele>2</ele>
   </trkpt>
   <trkpt lat="37.6405760" lon="126.3988570">
    <ele>5</ele>
   </trkpt>
   <trkpt lat="37.6405220" lon="126.3987620">
    <ele>5</ele>
   </trkpt>
   <trkpt lat="37.6404550" lon="126.3986550">
    <ele>7</ele>
   </trkpt>
   <trkpt lat="37.6403580" lon="126.3985460">
    <ele>8</ele>
   </trkpt>
   <trkpt lat="37.6402820" lon="126.3984620">
    <ele>9</ele>
   </trkpt>
   <trkpt lat="37.6401930" lon="126.3983760">
    <ele>8</ele>
   </trkpt>
   <trkpt lat="37.6401130" lon="126.3983150">
    <ele>8</ele>
   </trkpt>
   <trkpt lat="37.6400260" lon="126.3982590">
    <ele>8</ele>
   </trkpt>
   <trkpt lat="37.6399200" lon="126.3982030">
    <ele>8</ele>
   </trkpt>
   <trkpt lat="37.6398160" lon="126.3981540">
    <ele>8</ele>
   </trkpt>
   <trkpt lat="37.6397020" lon="126.3981130">
    <ele>8</ele>
   </trkpt>
   <trkpt lat="37.6395780" lon="126.3980840">
    <ele>8</ele>
   </trkpt>
   <trkpt lat="37.6394570" lon="126.3980700">
    <ele>8</ele>
   </trkpt>
   <trkpt lat="37.6390900" lon="126.3980630">
    <ele>8</ele>
   </trkpt>
   <trkpt lat="37.6390680" lon="126.3980630">
    <ele>8</ele>
   </trkpt>
   <trkpt lat="37.6385350" lon="126.3980420">
    <ele>8</ele>
   </trkpt>
   <trkpt lat="37.6390680" lon="126.3980630">
    <ele>8</ele>
   </trkpt>
   <trkpt lat="37.6394570" lon="126.3980700">
    <ele>8</ele>
   </trkpt>
   <trkpt lat="37.6395780" lon="126.3980840">
    <ele>8</ele>
   </trkpt>
   <trkpt lat="37.6397020" lon="126.3981130">
    <ele>8</ele>
   </trkpt>
   <trkpt lat="37.6398160" lon="126.3981540">
    <ele>8</ele>
   </trkpt>
   <trkpt lat="37.6399200" lon="126.3982030">
    <ele>8</ele>
   </trkpt>
   <trkpt lat="37.6400260" lon="126.3982590">
    <ele>8</ele>
   </trkpt>
   <trkpt lat="37.6401130" lon="126.3983150">
    <ele>8</ele>
   </trkpt>
   <trkpt lat="37.6401930" lon="126.3983760">
    <ele>8</ele>
   </trkpt>
   <trkpt lat="37.6402820" lon="126.3984620">
    <ele>9</ele>
   </trkpt>
   <trkpt lat="37.6403580" lon="126.3985460">
    <ele>8</ele>
   </trkpt>
   <trkpt lat="37.6404550" lon="126.3986550">
    <ele>7</ele>
   </trkpt>
   <trkpt lat="37.6405220" lon="126.3987620">
    <ele>5</ele>
   </trkpt>
   <trkpt lat="37.6405760" lon="126.3988570">
    <ele>5</ele>
   </trkpt>
   <trkpt lat="37.6406390" lon="126.3989860">
    <ele>2</ele>
   </trkpt>
   <trkpt lat="37.6406990" lon="126.3991220">
    <ele>4</ele>
   </trkpt>
   <trkpt lat="37.6410410" lon="126.4000210">
    <ele>7</ele>
   </trkpt>
   <trkpt lat="37.6411280" lon="126.4002110">
    <ele>8</ele>
   </trkpt>
   <trkpt lat="37.6412420" lon="126.4004200">
    <ele>8</ele>
   </trkpt>
   <trkpt lat="37.6413370" lon="126.4005880">
    <ele>6</ele>
   </trkpt>
   <trkpt lat="37.6414520" lon="126.4007790">
    <ele>5</ele>
   </trkpt>
   <trkpt lat="37.6418200" lon="126.4013080">
    <ele>6</ele>
   </trkpt>
   <trkpt lat="37.6419400" lon="126.4014830">
    <ele>6</ele>
   </trkpt>
   <trkpt lat="37.6420510" lon="126.4016690">
    <ele>6</ele>
   </trkpt>
   <trkpt lat="37.6421490" lon="126.4018450">
    <ele>7</ele>
   </trkpt>
   <trkpt lat="37.6422530" lon="126.4020410">
    <ele>8</ele>
   </trkpt>
   <trkpt lat="37.6423440" lon="126.4022430">
    <ele>7</ele>
   </trkpt>
   <trkpt lat="37.6424990" lon="126.4025920">
    <ele>7</ele>
   </trkpt>
   <trkpt lat="37.6425860" lon="126.4027650">
    <ele>7</ele>
   </trkpt>
   <trkpt lat="37.6426950" lon="126.4029520">
    <ele>7</ele>
   </trkpt>
   <trkpt lat="37.6428100" lon="126.4031460">
    <ele>7</ele>
   </trkpt>
   <trkpt lat="37.6429110" lon="126.4032960">
    <ele>7</ele>
   </trkpt>
   <trkpt lat="37.6430380" lon="126.4034640">
    <ele>6</ele>
   </trkpt>
   <trkpt lat="37.6431640" lon="126.4036120">
    <ele>6</ele>
   </trkpt>
   <trkpt lat="37.6434110" lon="126.4038800">
    <ele>6</ele>
   </trkpt>
   <trkpt lat="37.6437080" lon="126.4041860">
    <ele>6</ele>
   </trkpt>
   <trkpt lat="37.6438470" lon="126.4043150">
    <ele>7</ele>
   </trkpt>
   <trkpt lat="37.6440110" lon="126.4044620">
    <ele>7</ele>
   </trkpt>
   <trkpt lat="37.6441780" lon="126.4045940">
    <ele>7</ele>
   </trkpt>
   <trkpt lat="37.6443610" lon="126.4047280">
    <ele>6</ele>
   </trkpt>
   <trkpt lat="37.6445730" lon="126.4048690">
    <ele>4</ele>
   </trkpt>
   <trkpt lat="37.6447450" lon="126.4049730">
    <ele>4</ele>
   </trkpt>
   <trkpt lat="37.6449770" lon="126.4051150">
    <ele>5</ele>
   </trkpt>
   <trkpt lat="37.6452170" lon="126.4052930">
    <ele>5</ele>
   </trkpt>
   <trkpt lat="37.6459990" lon="126.4058380">
    <ele>5</ele>
   </trkpt>
   <trkpt lat="37.6460520" lon="126.4058740">
    <ele>4</ele>
   </trkpt>
   <trkpt lat="37.6460880" lon="126.4058990">
    <ele>4</ele>
   </trkpt>
   <trkpt lat="37.6461700" lon="126.4059690">
    <ele>7</ele>
   </trkpt>
   <trkpt lat="37.6462390" lon="126.4060370">
    <ele>6</ele>
   </trkpt>
   <trkpt lat="37.6463120" lon="126.4061150">
    <ele>6</ele>
   </trkpt>
   <trkpt lat="37.6463830" lon="126.4062030">
    <ele>9</ele>
   </trkpt>
   <trkpt lat="37.6464720" lon="126.4063200">
    <ele>10</ele>
   </trkpt>
   <trkpt lat="37.6465670" lon="126.4064510">
    <ele>10</ele>
   </trkpt>
   <trkpt lat="37.6467580" lon="126.4066970">
    <ele>9</ele>
   </trkpt>
   <trkpt lat="37.6469030" lon="126.4069120">
    <ele>8</ele>
   </trkpt>
   <trkpt lat="37.6470230" lon="126.4070780">
    <ele>6</ele>
   </trkpt>
   <trkpt lat="37.6471440" lon="126.4072470">
    <ele>6</ele>
   </trkpt>
   <trkpt lat="37.6473390" lon="126.4074950">
    <ele>7</ele>
   </trkpt>
   <trkpt lat="37.6475010" lon="126.4076960">
    <ele>6</ele>
   </trkpt>
   <trkpt lat="37.6485290" lon="126.4089470">
    <ele>4</ele>
   </trkpt>
   <trkpt lat="37.6487290" lon="126.4091930">
    <ele>4</ele>
   </trkpt>
   <trkpt lat="37.6489280" lon="126.4094470">
    <ele>4</ele>
   </trkpt>
   <trkpt lat="37.6492720" lon="126.4099380">
    <ele>5</ele>
   </trkpt>
   <trkpt lat="37.6493780" lon="126.4100800">
    <ele>5</ele>
   </trkpt>
   <trkpt lat="37.6494820" lon="126.4101890">
    <ele>6</ele>
   </trkpt>
   <trkpt lat="37.6496010" lon="126.4103070">
    <ele>6</ele>
   </trkpt>
   <trkpt lat="37.6497400" lon="126.4104080">
    <ele>6</ele>
   </trkpt>
   <trkpt lat="37.6498690" lon="126.4104900">
    <ele>7</ele>
   </trkpt>
   <trkpt lat="37.6500010" lon="126.4105640">
    <ele>6</ele>
   </trkpt>
   <trkpt lat="37.6501480" lon="126.4106310">
    <ele>7</ele>
   </trkpt>
   <trkpt lat="37.6503310" lon="126.4106980">
    <ele>7</ele>
   </trkpt>
   <trkpt lat="37.6513790" lon="126.4110870">
    <ele>3</ele>
   </trkpt>
   <trkpt lat="37.6515090" lon="126.4111220">
    <ele>4</ele>
   </trkpt>
   <trkpt lat="37.6516470" lon="126.4111500">
    <ele>4</ele>
   </trkpt>
   <trkpt lat="37.6517610" lon="126.4111580">
    <ele>5</ele>
   </trkpt>
   <trkpt lat="37.6519020" lon="126.4111540">
    <ele>5</ele>
   </trkpt>
   <trkpt lat="37.6520400" lon="126.4111400">
    <ele>6</ele>
   </trkpt>
   <trkpt lat="37.6521730" lon="126.4111170">
    <ele>6</ele>
   </trkpt>
   <trkpt lat="37.6522980" lon="126.4110850">
    <ele>6</ele>
   </trkpt>
   <trkpt lat="37.6524410" lon="126.4110300">
    <ele>6</ele>
   </trkpt>
   <trkpt lat="37.6535900" lon="126.4105300">
    <ele>5</ele>
   </trkpt>
   <trkpt lat="37.6540840" lon="126.4103150">
    <ele>4</ele>
   </trkpt>
   <trkpt lat="37.6543120" lon="126.4102160">
    <ele>1</ele>
   </trkpt>
   <trkpt lat="37.6545070" lon="126.4101430">
    <ele>4</ele>
   </trkpt>
   <trkpt lat="37.6547220" lon="126.4100790">
    <ele>5</ele>
   </trkpt>
   <trkpt lat="37.6549050" lon="126.4100330">
    <ele>5</ele>
   </trkpt>
   <trkpt lat="37.6568480" lon="126.4095980">
    <ele>6</ele>
   </trkpt>
   <trkpt lat="37.6572570" lon="126.4095070">
    <ele>5</ele>
   </trkpt>
   <trkpt lat="37.6574670" lon="126.4094640">
    <ele>5</ele>
   </trkpt>
   <trkpt lat="37.6575860" lon="126.4094460">
    <ele>5</ele>
   </trkpt>
   <trkpt lat="37.6576800" lon="126.4094440">
    <ele>5</ele>
   </trkpt>
   <trkpt lat="37.6577740" lon="126.4094540">
    <ele>5</ele>
   </trkpt>
   <trkpt lat="37.6578790" lon="126.4094740">
    <ele>5</ele>
   </trkpt>
   <trkpt lat="37.6580070" lon="126.4095180">
    <ele>5</ele>
   </trkpt>
   <trkpt lat="37.6581470" lon="126.4095830">
    <ele>4</ele>
   </trkpt>
   <trkpt lat="37.6582480" lon="126.4096430">
    <ele>4</ele>
   </trkpt>
   <trkpt lat="37.6583460" lon="126.4097250">
    <ele>3</ele>
   </trkpt>
   <trkpt lat="37.6584590" lon="126.4098090">
    <ele>3</ele>
   </trkpt>
   <trkpt lat="37.6585920" lon="126.4098810">
    <ele>2</ele>
   </trkpt>
   <trkpt lat="37.6587370" lon="126.4099440">
    <ele>2</ele>
   </trkpt>
   <trkpt lat="37.6588920" lon="126.4099880">
    <ele>2</ele>
   </trkpt>
   <trkpt lat="37.6590510" lon="126.4100040">
    <ele>3</ele>
   </trkpt>
   <trkpt lat="37.6592230" lon="126.4099980">
    <ele>3</ele>
   </trkpt>
   <trkpt lat="37.6593680" lon="126.4099720">
    <ele>4</ele>
   </trkpt>
   <trkpt lat="37.6595070" lon="126.4099300">
    <ele>5</ele>
   </trkpt>
   <trkpt lat="37.6596370" lon="126.4098670">
    <ele>5</ele>
   </trkpt>
   <trkpt lat="37.6608380" lon="126.4092630">
    <ele>5</ele>
   </trkpt>
   <trkpt lat="37.6611630" lon="126.4090940">
    <ele>4</ele>
   </trkpt>
   <trkpt lat="37.6613610" lon="126.4089950">
    <ele>5</ele>
   </trkpt>
   <trkpt lat="37.6615600" lon="126.4089080">
    <ele>5</ele>
   </trkpt>
   <trkpt lat="37.6624010" lon="126.4085540">
    <ele>6</ele>
   </trkpt>
   <trkpt lat="37.6624310" lon="126.4085430">
    <ele>6</ele>
   </trkpt>
   <trkpt lat="37.6625550" lon="126.4084990">
    <ele>6</ele>
   </trkpt>
   <trkpt lat="37.6626860" lon="126.4084630">
    <ele>6</ele>
   </trkpt>
   <trkpt lat="37.6628230" lon="126.4084370">
    <ele>6</ele>
   </trkpt>
   <trkpt lat="37.6629630" lon="126.4084270">
    <ele>6</ele>
   </trkpt>
   <trkpt lat="37.6631080" lon="126.4084320">
    <ele>5</ele>
   </trkpt>
   <trkpt lat="37.6632610" lon="126.4084520">
    <ele>4</ele>
   </trkpt>
   <trkpt lat="37.6638770" lon="126.4086180">
    <ele>6</ele>
   </trkpt>
   <trkpt lat="37.6645020" lon="126.4087690">
    <ele>13</ele>
   </trkpt>
   <trkpt lat="37.6647640" lon="126.4088030">
    <ele>20</ele>
   </trkpt>
   <trkpt lat="37.6649450" lon="126.4088210">
    <ele>28</ele>
   </trkpt>
   <trkpt lat="37.6651000" lon="126.4088280">
    <ele>32</ele>
   </trkpt>
   <trkpt lat="37.6652430" lon="126.4088220">
    <ele>35</ele>
   </trkpt>
   <trkpt lat="37.6654080" lon="126.4088070">
    <ele>39</ele>
   </trkpt>
   <trkpt lat="37.6655900" lon="126.4087720">
    <ele>42</ele>
   </trkpt>
   <trkpt lat="37.6657660" lon="126.4087270">
    <ele>48</ele>
   </trkpt>
   <trkpt lat="37.6659200" lon="126.4086800">
    <ele>48</ele>
   </trkpt>
   <trkpt lat="37.6660430" lon="126.4086080">
    <ele>50</ele>
   </trkpt>
   <trkpt lat="37.6661970" lon="126.4085210">
    <ele>53</ele>
   </trkpt>
   <trkpt lat="37.6663360" lon="126.4084050">
    <ele>51</ele>
   </trkpt>
   <trkpt lat="37.6664690" lon="126.4083150">
    <ele>50</ele>
   </trkpt>
   <trkpt lat="37.6665760" lon="126.4082300">
    <ele>53</ele>
   </trkpt>
   <trkpt lat="37.6666720" lon="126.4081480">
    <ele>49</ele>
   </trkpt>
   <trkpt lat="37.6667820" lon="126.4080440">
    <ele>52</ele>
   </trkpt>
   <trkpt lat="37.6674230" lon="126.4073660">
    <ele>51</ele>
   </trkpt>
   <trkpt lat="37.6680180" lon="126.4067940">
    <ele>46</ele>
   </trkpt>
   <trkpt lat="37.6682080" lon="126.4066280">
    <ele>39</ele>
   </trkpt>
   <trkpt lat="37.6683440" lon="126.4065200">
    <ele>36</ele>
   </trkpt>
   <trkpt lat="37.6684890" lon="126.4064130">
    <ele>28</ele>
   </trkpt>
   <trkpt lat="37.6687090" lon="126.4062780">
    <ele>20</ele>
   </trkpt>
   <trkpt lat="37.6688730" lon="126.4061820">
    <ele>19</ele>
   </trkpt>
   <trkpt lat="37.6690500" lon="126.4060970">
    <ele>11</ele>
   </trkpt>
   <trkpt lat="37.6692210" lon="126.4060270">
    <ele>8</ele>
   </trkpt>
   <trkpt lat="37.6693760" lon="126.4059780">
    <ele>6</ele>
   </trkpt>
   <trkpt lat="37.6696020" lon="126.4059220">
    <ele>2</ele>
   </trkpt>
   <trkpt lat="37.6703630" lon="126.4057600">
    <ele>3</ele>
   </trkpt>
   <trkpt lat="37.6707810" lon="126.4056620">
    <ele>4</ele>
   </trkpt>
   <trkpt lat="37.6715350" lon="126.4055040">
    <ele>3</ele>
   </trkpt>
   <trkpt lat="37.6720480" lon="126.4053970">
    <ele>2</ele>
   </trkpt>
   <trkpt lat="37.6723050" lon="126.4053430">
    <ele>4</ele>
   </trkpt>
   <trkpt lat="37.6725020" lon="126.4052950">
    <ele>5</ele>
   </trkpt>
   <trkpt lat="37.6726660" lon="126.4052440">
    <ele>5</ele>
   </trkpt>
   <trkpt lat="37.6728060" lon="126.4051890">
    <ele>5</ele>
   </trkpt>
   <trkpt lat="37.6729350" lon="126.4051290">
    <ele>5</ele>
   </trkpt>
   <trkpt lat="37.6730750" lon="126.4050500">
    <ele>5</ele>
   </trkpt>
   <trkpt lat="37.6732270" lon="126.4049600">
    <ele>5</ele>
   </trkpt>
   <trkpt lat="37.6733610" lon="126.4048660">
    <ele>5</ele>
   </trkpt>
   <trkpt lat="37.6734730" lon="126.4047760">
    <ele>5</ele>
   </trkpt>
   <trkpt lat="37.6735950" lon="126.4046670">
    <ele>5</ele>
   </trkpt>
   <trkpt lat="37.6738350" lon="126.4044250">
    <ele>4</ele>
   </trkpt>
   <trkpt lat="37.6739420" lon="126.4043360">
    <ele>4</ele>
   </trkpt>
   <trkpt lat="37.6740560" lon="126.4042490">
    <ele>5</ele>
   </trkpt>
   <trkpt lat="37.6741750" lon="126.4041770">
    <ele>3</ele>
   </trkpt>
   <trkpt lat="37.6742940" lon="126.4041200">
    <ele>3</ele>
   </trkpt>
   <trkpt lat="37.6744030" lon="126.4040770">
    <ele>3</ele>
   </trkpt>
   <trkpt lat="37.6745460" lon="126.4040340">
    <ele>0</ele>
   </trkpt>
   <trkpt lat="37.6745600" lon="126.4040310">
    <ele>0</ele>
   </trkpt>
   <trkpt lat="37.6747030" lon="126.4040000">
    <ele>1</ele>
   </trkpt>
   <trkpt lat="37.6753420" lon="126.4038830">
    <ele>3</ele>
   </trkpt>
   <trkpt lat="37.6754900" lon="126.4038440">
    <ele>3</ele>
   </trkpt>
   <trkpt lat="37.6756150" lon="126.4038070">
    <ele>3</ele>
   </trkpt>
   <trkpt lat="37.6757340" lon="126.4037560">
    <ele>5</ele>
   </trkpt>
   <trkpt lat="37.6758400" lon="126.4037030">
    <ele>4</ele>
   </trkpt>
   <trkpt lat="37.6759610" lon="126.4036300">
    <ele>6</ele>
   </trkpt>
   <trkpt lat="37.6760760" lon="126.4035470">
    <ele>7</ele>
   </trkpt>
   <trkpt lat="37.6761940" lon="126.4034420">
    <ele>2</ele>
   </trkpt>
   <trkpt lat="37.6763060" lon="126.4033240">
    <ele>0</ele>
   </trkpt>
   <trkpt lat="37.6764070" lon="126.4032030">
    <ele>0</ele>
   </trkpt>
   <trkpt lat="37.6765070" lon="126.4030720">
    <ele>0</ele>
   </trkpt>
   <trkpt lat="37.6765970" lon="126.4029130">
    <ele>0</ele>
   </trkpt>
   <trkpt lat="37.6767960" lon="126.4025380">
    <ele>0</ele>
   </trkpt>
   <trkpt lat="37.6768540" lon="126.4024260">
    <ele>0</ele>
   </trkpt>
   <trkpt lat="37.6771500" lon="126.4018560">
    <ele>3</ele>
   </trkpt>
   <trkpt lat="37.6774160" lon="126.4013450">
    <ele>3</ele>
   </trkpt>
   <trkpt lat="37.6775130" lon="126.4011860">
    <ele>3</ele>
   </trkpt>
   <trkpt lat="37.6776120" lon="126.4010300">
    <ele>3</ele>
   </trkpt>
   <trkpt lat="37.6777130" lon="126.4008890">
    <ele>3</ele>
   </trkpt>
   <trkpt lat="37.6778460" lon="126.4007150">
    <ele>4</ele>
   </trkpt>
   <trkpt lat="37.6779920" lon="126.4005450">
    <ele>5</ele>
   </trkpt>
   <trkpt lat="37.6781320" lon="126.4004020">
    <ele>5</ele>
   </trkpt>
   <trkpt lat="37.6782720" lon="126.4002700">
    <ele>5</ele>
   </trkpt>
   <trkpt lat="37.6784230" lon="126.4001430">
    <ele>6</ele>
   </trkpt>
   <trkpt lat="37.6785780" lon="126.4000370">
    <ele>7</ele>
   </trkpt>
   <trkpt lat="37.6787480" lon="126.3999310">
    <ele>7</ele>
   </trkpt>
   <trkpt lat="37.6789370" lon="126.3998160">
    <ele>9</ele>
   </trkpt>
   <trkpt lat="37.6791010" lon="126.3997310">
    <ele>8</ele>
   </trkpt>
   <trkpt lat="37.6792970" lon="126.3996440">
    <ele>9</ele>
   </trkpt>
   <trkpt lat="37.6795620" lon="126.3995520">
    <ele>9</ele>
   </trkpt>
   <trkpt lat="37.6799120" lon="126.3994300">
    <ele>12</ele>
   </trkpt>
   <trkpt lat="37.6801970" lon="126.3993240">
    <ele>10</ele>
   </trkpt>
   <trkpt lat="37.6804860" lon="126.3992210">
    <ele>8</ele>
   </trkpt>
   <trkpt lat="37.6806150" lon="126.3991570">
    <ele>8</ele>
   </trkpt>
   <trkpt lat="37.6807250" lon="126.3990900">
    <ele>8</ele>
   </trkpt>
   <trkpt lat="37.6808230" lon="126.3990180">
    <ele>7</ele>
   </trkpt>
   <trkpt lat="37.6809100" lon="126.3989220">
    <ele>7</ele>
   </trkpt>
   <trkpt lat="37.6809100" lon="126.3989220">
    <ele>7</ele>
   </trkpt>
   <trkpt lat="37.6810890" lon="126.3987690">
    <ele>6</ele>
   </trkpt>
   <trkpt lat="37.6811500" lon="126.3987450">
    <ele>6</ele>
   </trkpt>
   <trkpt lat="37.6812210" lon="126.3987570">
    <ele>6</ele>
   </trkpt>
   <trkpt lat="37.6813140" lon="126.3987810">
    <ele>7</ele>
   </trkpt>
   <trkpt lat="37.6814420" lon="126.3988430">
    <ele>8</ele>
   </trkpt>
   <trkpt lat="37.6814420" lon="126.3988430">
    <ele>8</ele>
   </trkpt>
   <trkpt lat="37.6818730" lon="126.3993220">
    <ele>10</ele>
   </trkpt>
   <trkpt lat="37.6819940" lon="126.3995040">
    <ele>13</ele>
   </trkpt>
   <trkpt lat="37.6820860" lon="126.3996540">
    <ele>15</ele>
   </trkpt>
   <trkpt lat="37.6824550" lon="126.4008940">
    <ele>12</ele>
   </trkpt>
   <trkpt lat="37.6824970" lon="126.4010990">
    <ele>10</ele>
   </trkpt>
   <trkpt lat="37.6826860" lon="126.4020250">
    <ele>7</ele>
   </trkpt>
   <trkpt lat="37.6827910" lon="126.4024020">
    <ele>8</ele>
   </trkpt>
   <trkpt lat="37.6828270" lon="126.4025310">
    <ele>8</ele>
   </trkpt>
   <trkpt lat="37.6831480" lon="126.4033090">
    <ele>10</ele>
   </trkpt>
   <trkpt lat="37.6833710" lon="126.4037120">
    <ele>10</ele>
   </trkpt>
   <trkpt lat="37.6834410" lon="126.4038220">
    <ele>11</ele>
   </trkpt>
   <trkpt lat="37.6835050" lon="126.4039030">
    <ele>12</ele>
   </trkpt>
   <trkpt lat="37.6838610" lon="126.4042000">
    <ele>13</ele>
   </trkpt>
   <trkpt lat="37.6843030" lon="126.4048170">
    <ele>13</ele>
   </trkpt>
   <trkpt lat="37.6844750" lon="126.4050540">
    <ele>11</ele>
   </trkpt>
   <trkpt lat="37.6846770" lon="126.4052870">
    <ele>8</ele>
   </trkpt>
   <trkpt lat="37.6854650" lon="126.4059810">
    <ele>8</ele>
   </trkpt>
   <trkpt lat="37.6857880" lon="126.4063110">
    <ele>7</ele>
   </trkpt>
   <trkpt lat="37.6861070" lon="126.4067420">
    <ele>7</ele>
   </trkpt>
   <trkpt lat="37.6861270" lon="126.4067770">
    <ele>7</ele>
   </trkpt>
   <trkpt lat="37.6862160" lon="126.4068820">
    <ele>7</ele>
   </trkpt>
   <trkpt lat="37.6862500" lon="126.4069340">
    <ele>7</ele>
   </trkpt>
   <trkpt lat="37.6868850" lon="126.4077920">
    <ele>7</ele>
   </trkpt>
   <trkpt lat="37.6870710" lon="126.4080440">
    <ele>7</ele>
   </trkpt>
   <trkpt lat="37.6871560" lon="126.4082540">
    <ele>7</ele>
   </trkpt>
   <trkpt lat="37.6871700" lon="126.4083530">
    <ele>6</ele>
   </trkpt>
   <trkpt lat="37.6873130" lon="126.4093920">
    <ele>7</ele>
   </trkpt>
   <trkpt lat="37.6874120" lon="126.4098810">
    <ele>11</ele>
   </trkpt>
   <trkpt lat="37.6874170" lon="126.4099020">
    <ele>11</ele>
   </trkpt>
   <trkpt lat="37.6874440" lon="126.4099890">
    <ele>11</ele>
   </trkpt>
   <trkpt lat="37.6875210" lon="126.4102970">
    <ele>12</ele>
   </trkpt>
   <trkpt lat="37.6876930" lon="126.4107360">
    <ele>12</ele>
   </trkpt>
   <trkpt lat="37.6883950" lon="126.4120730">
    <ele>11</ele>
   </trkpt>
   <trkpt lat="37.6884940" lon="126.4122720">
    <ele>13</ele>
   </trkpt>
   <trkpt lat="37.6886370" lon="126.4126860">
    <ele>13</ele>
   </trkpt>
   <trkpt lat="37.6886880" lon="126.4129720">
    <ele>12</ele>
   </trkpt>
   <trkpt lat="37.6888430" lon="126.4140940">
    <ele>14</ele>
   </trkpt>
   <trkpt lat="37.6888800" lon="126.4143730">
    <ele>16</ele>
   </trkpt>
   <trkpt lat="37.6888950" lon="126.4147910">
    <ele>16</ele>
   </trkpt>
   <trkpt lat="37.6888630" lon="126.4150850">
    <ele>17</ele>
   </trkpt>
   <trkpt lat="37.6888190" lon="126.4153300">
    <ele>16</ele>
   </trkpt>
   <trkpt lat="37.6888170" lon="126.4154990">
    <ele>17</ele>
   </trkpt>
   <trkpt lat="37.6889480" lon="126.4163570">
    <ele>20</ele>
   </trkpt>
   <trkpt lat="37.6889520" lon="126.4170570">
    <ele>20</ele>
   </trkpt>
   <trkpt lat="37.6889720" lon="126.4180380">
    <ele>22</ele>
   </trkpt>
   <trkpt lat="37.6889860" lon="126.4187320">
    <ele>25</ele>
   </trkpt>
   <trkpt lat="37.6889520" lon="126.4170570">
    <ele>20</ele>
   </trkpt>
   <trkpt lat="37.6889480" lon="126.4163570">
    <ele>20</ele>
   </trkpt>
   <trkpt lat="37.6888170" lon="126.4154990">
    <ele>17</ele>
   </trkpt>
   <trkpt lat="37.6888190" lon="126.4153300">
    <ele>16</ele>
   </trkpt>
   <trkpt lat="37.6888630" lon="126.4150850">
    <ele>17</ele>
   </trkpt>
   <trkpt lat="37.6888950" lon="126.4147910">
    <ele>16</ele>
   </trkpt>
   <trkpt lat="37.6888800" lon="126.4143730">
    <ele>16</ele>
   </trkpt>
   <trkpt lat="37.6888430" lon="126.4140940">
    <ele>14</ele>
   </trkpt>
   <trkpt lat="37.6886880" lon="126.4129720">
    <ele>12</ele>
   </trkpt>
   <trkpt lat="37.6886370" lon="126.4126860">
    <ele>13</ele>
   </trkpt>
   <trkpt lat="37.6884940" lon="126.4122720">
    <ele>13</ele>
   </trkpt>
   <trkpt lat="37.6883950" lon="126.4120730">
    <ele>11</ele>
   </trkpt>
   <trkpt lat="37.6876930" lon="126.4107360">
    <ele>12</ele>
   </trkpt>
   <trkpt lat="37.6875210" lon="126.4102970">
    <ele>12</ele>
   </trkpt>
   <trkpt lat="37.6874440" lon="126.4099890">
    <ele>11</ele>
   </trkpt>
   <trkpt lat="37.6874170" lon="126.4099020">
    <ele>11</ele>
   </trkpt>
   <trkpt lat="37.6874120" lon="126.4098810">
    <ele>11</ele>
   </trkpt>
   <trkpt lat="37.6873130" lon="126.4093920">
    <ele>7</ele>
   </trkpt>
   <trkpt lat="37.6872850" lon="126.4091870">
    <ele>6</ele>
   </trkpt>
   <trkpt lat="37.6871920" lon="126.4085170">
    <ele>6</ele>
   </trkpt>
   <trkpt lat="37.6871560" lon="126.4082540">
    <ele>7</ele>
   </trkpt>
   <trkpt lat="37.6870710" lon="126.4080440">
    <ele>7</ele>
   </trkpt>
   <trkpt lat="37.6862500" lon="126.4069340">
    <ele>7</ele>
   </trkpt>
   <trkpt lat="37.6862160" lon="126.4068820">
    <ele>7</ele>
   </trkpt>
   <trkpt lat="37.6861270" lon="126.4067770">
    <ele>7</ele>
   </trkpt>
   <trkpt lat="37.6861070" lon="126.4067420">
    <ele>7</ele>
   </trkpt>
   <trkpt lat="37.6857880" lon="126.4063110">
    <ele>7</ele>
   </trkpt>
   <trkpt lat="37.6854650" lon="126.4059810">
    <ele>8</ele>
   </trkpt>
   <trkpt lat="37.6846770" lon="126.4052870">
    <ele>8</ele>
   </trkpt>
   <trkpt lat="37.6844750" lon="126.4050540">
    <ele>11</ele>
   </trkpt>
   <trkpt lat="37.6843030" lon="126.4048170">
    <ele>13</ele>
   </trkpt>
   <trkpt lat="37.6838610" lon="126.4042000">
    <ele>13</ele>
   </trkpt>
   <trkpt lat="37.6835050" lon="126.4039030">
    <ele>12</ele>
   </trkpt>
   <trkpt lat="37.6834410" lon="126.4038220">
    <ele>11</ele>
   </trkpt>
   <trkpt lat="37.6833710" lon="126.4037120">
    <ele>10</ele>
   </trkpt>
   <trkpt lat="37.6831480" lon="126.4033090">
    <ele>10</ele>
   </trkpt>
   <trkpt lat="37.6828270" lon="126.4025310">
    <ele>8</ele>
   </trkpt>
   <trkpt lat="37.6827910" lon="126.4024020">
    <ele>8</ele>
   </trkpt>
   <trkpt lat="37.6826860" lon="126.4020250">
    <ele>7</ele>
   </trkpt>
   <trkpt lat="37.6824970" lon="126.4010990">
    <ele>10</ele>
   </trkpt>
   <trkpt lat="37.6824550" lon="126.4008940">
    <ele>12</ele>
   </trkpt>
   <trkpt lat="37.6820860" lon="126.3996540">
    <ele>15</ele>
   </trkpt>
   <trkpt lat="37.6819940" lon="126.3995040">
    <ele>13</ele>
   </trkpt>
   <trkpt lat="37.6818730" lon="126.3993220">
    <ele>10</ele>
   </trkpt>
   <trkpt lat="37.6814420" lon="126.3988430">
    <ele>8</ele>
   </trkpt>
   <trkpt lat="37.6811680" lon="126.3985400">
    <ele>5</ele>
   </trkpt>
   <trkpt lat="37.6812190" lon="126.3984360">
    <ele>5</ele>
   </trkpt>
   <trkpt lat="37.6812580" lon="126.3983260">
    <ele>6</ele>
   </trkpt>
   <trkpt lat="37.6813000" lon="126.3981850">
    <ele>6</ele>
   </trkpt>
   <trkpt lat="37.6813010" lon="126.3981810">
    <ele>6</ele>
   </trkpt>
   <trkpt lat="37.6813290" lon="126.3980290">
    <ele>5</ele>
   </trkpt>
   <trkpt lat="37.6813470" lon="126.3978720">
    <ele>5</ele>
   </trkpt>
   <trkpt lat="37.6813820" lon="126.3975500">
    <ele>5</ele>
   </trkpt>
   <trkpt lat="37.6813890" lon="126.3974850">
    <ele>4</ele>
   </trkpt>
   <trkpt lat="37.6814010" lon="126.3973810">
    <ele>4</ele>
   </trkpt>
   <trkpt lat="37.6814840" lon="126.3967940">
    <ele>4</ele>
   </trkpt>
   <trkpt lat="37.6815610" lon="126.3962520">
    <ele>4</ele>
   </trkpt>
   <trkpt lat="37.6815940" lon="126.3960330">
    <ele>3</ele>
   </trkpt>
   <trkpt lat="37.6816300" lon="126.3958580">
    <ele>3</ele>
   </trkpt>
   <trkpt lat="37.6816760" lon="126.3956960">
    <ele>3</ele>
   </trkpt>
   <trkpt lat="37.6817250" lon="126.3955690">
    <ele>3</ele>
   </trkpt>
   <trkpt lat="37.6817860" lon="126.3954310">
    <ele>4</ele>
   </trkpt>
   <trkpt lat="37.6818580" lon="126.3952910">
    <ele>3</ele>
   </trkpt>
   <trkpt lat="37.6819360" lon="126.3951660">
    <ele>4</ele>
   </trkpt>
   <trkpt lat="37.6820280" lon="126.3950340">
    <ele>3</ele>
   </trkpt>
   <trkpt lat="37.6821480" lon="126.3948860">
    <ele>2</ele>
   </trkpt>
   <trkpt lat="37.6822490" lon="126.3947750">
    <ele>2</ele>
   </trkpt>
   <trkpt lat="37.6823680" lon="126.3946640">
    <ele>5</ele>
   </trkpt>
   <trkpt lat="37.6824710" lon="126.3945840">
    <ele>5</ele>
   </trkpt>
   <trkpt lat="37.6825820" lon="126.3945040">
    <ele>5</ele>
   </trkpt>
   <trkpt lat="37.6829040" lon="126.3942910">
    <ele>7</ele>
   </trkpt>
   <trkpt lat="37.6832080" lon="126.3941010">
    <ele>8</ele>
   </trkpt>
   <trkpt lat="37.6835420" lon="126.3938670">
    <ele>6</ele>
   </trkpt>
   <trkpt lat="37.6836320" lon="126.3937960">
    <ele>6</ele>
   </trkpt>
   <trkpt lat="37.6837280" lon="126.3937090">
    <ele>7</ele>
   </trkpt>
   <trkpt lat="37.6837840" lon="126.3936540">
    <ele>7</ele>
   </trkpt>
   <trkpt lat="37.6838230" lon="126.3936160">
    <ele>9</ele>
   </trkpt>
   <trkpt lat="37.6839110" lon="126.3935050">
    <ele>8</ele>
   </trkpt>
   <trkpt lat="37.6839880" lon="126.3934030">
    <ele>9</ele>
   </trkpt>
   <trkpt lat="37.6840340" lon="126.3933260">
    <ele>9</ele>
   </trkpt>
   <trkpt lat="37.6846820" lon="126.3922360">
    <ele>13</ele>
   </trkpt>
   <trkpt lat="37.6847760" lon="126.3920940">
    <ele>14</ele>
   </trkpt>
   <trkpt lat="37.6848670" lon="126.3919790">
    <ele>11</ele>
   </trkpt>
   <trkpt lat="37.6850130" lon="126.3917880">
    <ele>12</ele>
   </trkpt>
   <trkpt lat="37.6851110" lon="126.3916790">
    <ele>11</ele>
   </trkpt>
   <trkpt lat="37.6852130" lon="126.3915790">
    <ele>13</ele>
   </trkpt>
   <trkpt lat="37.6853150" lon="126.3915010">
    <ele>11</ele>
   </trkpt>
   <trkpt lat="37.6854170" lon="126.3914310">
    <ele>11</ele>
   </trkpt>
   <trkpt lat="37.6855140" lon="126.3913780">
    <ele>13</ele>
   </trkpt>
   <trkpt lat="37.6856240" lon="126.3913300">
    <ele>12</ele>
   </trkpt>
   <trkpt lat="37.6876090" lon="126.3905220">
    <ele>20</ele>
   </trkpt>
   <trkpt lat="37.6889760" lon="126.3899970">
    <ele>38</ele>
   </trkpt>
   <trkpt lat="37.6891160" lon="126.3899440">
    <ele>33</ele>
   </trkpt>
   <trkpt lat="37.6892460" lon="126.3898990">
    <ele>34</ele>
   </trkpt>
   <trkpt lat="37.6893750" lon="126.3898710">
    <ele>35</ele>
   </trkpt>
   <trkpt lat="37.6895190" lon="126.3898460">
    <ele>36</ele>
   </trkpt>
   <trkpt lat="37.6896700" lon="126.3898330">
    <ele>36</ele>
   </trkpt>
   <trkpt lat="37.6898280" lon="126.3898330">
    <ele>35</ele>
   </trkpt>
   <trkpt lat="37.6899660" lon="126.3898440">
    <ele>35</ele>
   </trkpt>
   <trkpt lat="37.6901130" lon="126.3898690">
    <ele>34</ele>
   </trkpt>
   <trkpt lat="37.6902580" lon="126.3899020">
    <ele>33</ele>
   </trkpt>
   <trkpt lat="37.6904320" lon="126.3899590">
    <ele>31</ele>
   </trkpt>
   <trkpt lat="37.6905800" lon="126.3900220">
    <ele>28</ele>
   </trkpt>
   <trkpt lat="37.6907540" lon="126.3901050">
    <ele>17</ele>
   </trkpt>
   <trkpt lat="37.6908990" lon="126.3901860">
    <ele>14</ele>
   </trkpt>
   <trkpt lat="37.6910320" lon="126.3902760">
    <ele>9</ele>
   </trkpt>
   <trkpt lat="37.6914490" lon="126.3906130">
    <ele>3</ele>
   </trkpt>
   <trkpt lat="37.6917790" lon="126.3908630">
    <ele>3</ele>
   </trkpt>
   <trkpt lat="37.6919980" lon="126.3910280">
    <ele>5</ele>
   </trkpt>
   <trkpt lat="37.6920880" lon="126.3910940">
    <ele>5</ele>
   </trkpt>
   <trkpt lat="37.6926060" lon="126.3914760">
    <ele>5</ele>
   </trkpt>
   <trkpt lat="37.6929220" lon="126.3917020">
    <ele>7</ele>
   </trkpt>
   <trkpt lat="37.6930820" lon="126.3918000">
    <ele>7</ele>
   </trkpt>
   <trkpt lat="37.6932390" lon="126.3918810">
    <ele>7</ele>
   </trkpt>
   <trkpt lat="37.6934030" lon="126.3919550">
    <ele>7</ele>
   </trkpt>
   <trkpt lat="37.6934860" lon="126.3919810">
    <ele>7</ele>
   </trkpt>
   <trkpt lat="37.6935920" lon="126.3920150">
    <ele>7</ele>
   </trkpt>
   <trkpt lat="37.6937630" lon="126.3920570">
    <ele>6</ele>
   </trkpt>
   <trkpt lat="37.6939310" lon="126.3920820">
    <ele>5</ele>
   </trkpt>
   <trkpt lat="37.6941140" lon="126.3920850">
    <ele>5</ele>
   </trkpt>
   <trkpt lat="37.6942980" lon="126.3920780">
    <ele>5</ele>
   </trkpt>
   <trkpt lat="37.6945090" lon="126.3920460">
    <ele>5</ele>
   </trkpt>
   <trkpt lat="37.6946930" lon="126.3920030">
    <ele>5</ele>
   </trkpt>
   <trkpt lat="37.6948660" lon="126.3919410">
    <ele>5</ele>
   </trkpt>
   <trkpt lat="37.6949970" lon="126.3918840">
    <ele>4</ele>
   </trkpt>
   <trkpt lat="37.6950950" lon="126.3918350">
    <ele>5</ele>
   </trkpt>
   <trkpt lat="37.6952550" lon="126.3917340">
    <ele>5</ele>
   </trkpt>
   <trkpt lat="37.6954070" lon="126.3916310">
    <ele>5</ele>
   </trkpt>
   <trkpt lat="37.6954180" lon="126.3916220">
    <ele>5</ele>
   </trkpt>
   <trkpt lat="37.6955390" lon="126.3915190">
    <ele>5</ele>
   </trkpt>
   <trkpt lat="37.6956530" lon="126.3914200">
    <ele>4</ele>
   </trkpt>
   <trkpt lat="37.6957100" lon="126.3913620">
    <ele>4</ele>
   </trkpt>
   <trkpt lat="37.6957820" lon="126.3912900">
    <ele>4</ele>
   </trkpt>
   <trkpt lat="37.6970630" lon="126.3898570">
    <ele>6</ele>
   </trkpt>
   <trkpt lat="37.6983330" lon="126.3884410">
    <ele>4</ele>
   </trkpt>
   <trkpt lat="37.6985220" lon="126.3882140">
    <ele>5</ele>
   </trkpt>
   <trkpt lat="37.6986850" lon="126.3880010">
    <ele>5</ele>
   </trkpt>
   <trkpt lat="37.6988590" lon="126.3877630">
    <ele>5</ele>
   </trkpt>
   <trkpt lat="37.6990160" lon="126.3875250">
    <ele>2</ele>
   </trkpt>
   <trkpt lat="37.6991940" lon="126.3872490">
    <ele>3</ele>
   </trkpt>
   <trkpt lat="37.6993560" lon="126.3869760">
    <ele>3</ele>
   </trkpt>
   <trkpt lat="37.6995040" lon="126.3867000">
    <ele>5</ele>
   </trkpt>
   <trkpt lat="37.6996120" lon="126.3865000">
    <ele>6</ele>
   </trkpt>
   <trkpt lat="37.6997250" lon="126.3862430">
    <ele>5</ele>
   </trkpt>
   <trkpt lat="37.6999940" lon="126.3856150">
    <ele>3</ele>
   </trkpt>
   <trkpt lat="37.7000580" lon="126.3854530">
    <ele>3</ele>
   </trkpt>
  </trkseg>
 </trk>
</gpx>
