<?xml version="1.0" encoding="UTF-8"?>
<gpx version="1.1" creator="Runruun GPX Creator" xmlns="http://www.topografix.com/GPX/1/1">
  <trk>
    <name>gangwha_beach_marathon</name>
    <trkseg>
      <trkpt lat="37.700268" lon="126.384823"><ele>4.3</ele></trkpt>
      <trkpt lat="37.700260" lon="126.384819"><ele>4.3</ele></trkpt>
      <trkpt lat="37.700187" lon="126.385075"><ele>4.3</ele></trkpt>
      <trkpt lat="37.700084" lon="126.385386"><ele>4.5</ele></trkpt>
      <trkpt lat="37.699994" lon="126.385615"><ele>0.0</ele></trkpt>
      <trkpt lat="37.699612" lon="126.386500"><ele>0.0</ele></trkpt>
      <trkpt lat="37.699356" lon="126.386976"><ele>0.0</ele></trkpt>
      <trkpt lat="37.699194" lon="126.387249"><ele>0.0</ele></trkpt>
      <trkpt lat="37.699016" lon="126.387525"><ele>0.0</ele></trkpt>
      <trkpt lat="37.698859" lon="126.387763"><ele>0.0</ele></trkpt>
      <trkpt lat="37.698685" lon="126.388001"><ele>0.0</ele></trkpt>
      <trkpt lat="37.698557" lon="126.388167"><ele>0.0</ele></trkpt>
      <trkpt lat="37.698536" lon="126.388142"><ele>0.0</ele></trkpt>
      <trkpt lat="37.698557" lon="126.388167"><ele>5.0</ele></trkpt>
      <trkpt lat="37.698522" lon="126.388214"><ele>5.0</ele></trkpt>
      <trkpt lat="37.698333" lon="126.388441"><ele>5.0</ele></trkpt>
      <trkpt lat="37.696247" lon="126.390769"><ele>4.3</ele></trkpt>
      <trkpt lat="37.696233" lon="126.390749"><ele>4.3</ele></trkpt>
      <trkpt lat="37.696247" lon="126.390769"><ele>4.3</ele></trkpt>
      <trkpt lat="37.695782" lon="126.391290"><ele>4.3</ele></trkpt>
      <trkpt lat="37.695653" lon="126.391420"><ele>4.3</ele></trkpt>
      <trkpt lat="37.695407" lon="126.391631"><ele>4.5</ele></trkpt>
      <trkpt lat="37.695255" lon="126.391734"><ele>4.5</ele></trkpt>
      <trkpt lat="37.695095" lon="126.391835"><ele>4.5</ele></trkpt>
      <trkpt lat="37.694866" lon="126.391941"><ele>4.8</ele></trkpt>
      <trkpt lat="37.694693" lon="126.392004"><ele>5.0</ele></trkpt>
      <trkpt lat="37.694509" lon="126.392047"><ele>5.3</ele></trkpt>
      <trkpt lat="37.694299" lon="126.392078"><ele>5.8</ele></trkpt>
      <trkpt lat="37.694114" lon="126.392085"><ele>6.0</ele></trkpt>
      <trkpt lat="37.693931" lon="126.392082"><ele>6.3</ele></trkpt>
      <trkpt lat="37.693763" lon="126.392057"><ele>6.5</ele></trkpt>
      <trkpt lat="37.693592" lon="126.392016"><ele>6.5</ele></trkpt>
      <trkpt lat="37.693486" lon="126.391981"><ele>6.8</ele></trkpt>
      <trkpt lat="37.693403" lon="126.391955"><ele>6.8</ele></trkpt>
      <trkpt lat="37.693239" lon="126.391881"><ele>6.8</ele></trkpt>
      <trkpt lat="37.693082" lon="126.391800"><ele>6.8</ele></trkpt>
      <trkpt lat="37.692922" lon="126.391702"><ele>6.8</ele></trkpt>
      <trkpt lat="37.691998" lon="126.391029"><ele>0.0</ele></trkpt>
      <trkpt lat="37.691971" lon="126.391009"><ele>0.0</ele></trkpt>
      <trkpt lat="37.692013" lon="126.390924"><ele>0.0</ele></trkpt>
      <trkpt lat="37.691971" lon="126.391009"><ele>16.3</ele></trkpt>
      <trkpt lat="37.691449" lon="126.390613"><ele>16.3</ele></trkpt>
      <trkpt lat="37.691032" lon="126.390276"><ele>16.3</ele></trkpt>
      <trkpt lat="37.690899" lon="126.390186"><ele>16.3</ele></trkpt>
      <trkpt lat="37.690755" lon="126.390105"><ele>19.3</ele></trkpt>
      <trkpt lat="37.690432" lon="126.389959"><ele>25.5</ele></trkpt>
      <trkpt lat="37.690258" lon="126.389903"><ele>29.0</ele></trkpt>
      <trkpt lat="37.690113" lon="126.389869"><ele>31.8</ele></trkpt>
      <trkpt lat="37.689966" lon="126.389844"><ele>34.5</ele></trkpt>
      <trkpt lat="37.689828" lon="126.389833"><ele>34.5</ele></trkpt>
      <trkpt lat="37.689670" lon="126.389833"><ele>35.0</ele></trkpt>
      <trkpt lat="37.689519" lon="126.389847"><ele>35.5</ele></trkpt>
      <trkpt lat="37.689246" lon="126.389900"><ele>37.5</ele></trkpt>
      <trkpt lat="37.688976" lon="126.389997"><ele>38.5</ele></trkpt>
      <trkpt lat="37.687609" lon="126.390522"><ele>25.5</ele></trkpt>
      <trkpt lat="37.685516" lon="126.391377"><ele>25.5</ele></trkpt>
      <trkpt lat="37.685530" lon="126.391429"><ele>25.5</ele></trkpt>
      <trkpt lat="37.685516" lon="126.391377"><ele>18.3</ele></trkpt>
      <trkpt lat="37.685514" lon="126.391378"><ele>18.3</ele></trkpt>
      <trkpt lat="37.685417" lon="126.391431"><ele>18.3</ele></trkpt>
      <trkpt lat="37.685213" lon="126.391579"><ele>18.3</ele></trkpt>
      <trkpt lat="37.685111" lon="126.391679"><ele>18.3</ele></trkpt>
      <trkpt lat="37.685014" lon="126.391788"><ele>18.0</ele></trkpt>
      <trkpt lat="37.684776" lon="126.392094"><ele>17.8</ele></trkpt>
      <trkpt lat="37.684683" lon="126.392236"><ele>17.5</ele></trkpt>
      <trkpt lat="37.683988" lon="126.393403"><ele>16.5</ele></trkpt>
      <trkpt lat="37.683823" lon="126.393616"><ele>16.5</ele></trkpt>
      <trkpt lat="37.683632" lon="126.393796"><ele>14.8</ele></trkpt>
      <trkpt lat="37.683543" lon="126.393867"><ele>14.0</ele></trkpt>
      <trkpt lat="37.683208" lon="126.394101"><ele>11.8</ele></trkpt>
      <trkpt lat="37.682904" lon="126.394291"><ele>10.0</ele></trkpt>
      <trkpt lat="37.682582" lon="126.394504"><ele>10.0</ele></trkpt>
      <trkpt lat="37.682368" lon="126.394664"><ele>10.0</ele></trkpt>
      <trkpt lat="37.682249" lon="126.394775"><ele>10.0</ele></trkpt>
      <trkpt lat="37.682148" lon="126.394886"><ele>10.0</ele></trkpt>
      <trkpt lat="37.682028" lon="126.395034"><ele>10.0</ele></trkpt>
      <trkpt lat="37.681936" lon="126.395166"><ele>10.0</ele></trkpt>
      <trkpt lat="37.681859" lon="126.395291"><ele>10.0</ele></trkpt>
      <trkpt lat="37.681786" lon="126.395431"><ele>10.0</ele></trkpt>
      <trkpt lat="37.681725" lon="126.395569"><ele>10.0</ele></trkpt>
      <trkpt lat="37.681676" lon="126.395697"><ele>10.0</ele></trkpt>
      <trkpt lat="37.681630" lon="126.395858"><ele>10.0</ele></trkpt>
      <trkpt lat="37.681594" lon="126.396033"><ele>10.0</ele></trkpt>
      <trkpt lat="37.681561" lon="126.396252"><ele>10.0</ele></trkpt>
      <trkpt lat="37.681484" lon="126.396795"><ele>10.0</ele></trkpt>
      <trkpt lat="37.681389" lon="126.397485"><ele>10.0</ele></trkpt>
      <trkpt lat="37.681355" lon="126.397789"><ele>10.0</ele></trkpt>
      <trkpt lat="37.681426" lon="126.397802"><ele>10.0</ele></trkpt>
      <trkpt lat="37.681355" lon="126.397789"><ele>6.5</ele></trkpt>
      <trkpt lat="37.681347" lon="126.397872"><ele>6.5</ele></trkpt>
      <trkpt lat="37.681330" lon="126.398029"><ele>6.8</ele></trkpt>
      <trkpt lat="37.681300" lon="126.398185"><ele>7.3</ele></trkpt>
      <trkpt lat="37.681219" lon="126.398436"><ele>7.5</ele></trkpt>
      <trkpt lat="37.681169" lon="126.398540"><ele>7.8</ele></trkpt>
      <trkpt lat="37.681087" lon="126.398682"><ele>8.0</ele></trkpt>
      <trkpt lat="37.681002" lon="126.398808"><ele>8.0</ele></trkpt>
      <trkpt lat="37.680910" lon="126.398922"><ele>8.3</ele></trkpt>
      <trkpt lat="37.680823" lon="126.399019"><ele>8.3</ele></trkpt>
      <trkpt lat="37.680725" lon="126.399090"><ele>8.8</ele></trkpt>
      <trkpt lat="37.680616" lon="126.399157"><ele>9.0</ele></trkpt>
      <trkpt lat="37.680486" lon="126.399221"><ele>10.0</ele></trkpt>
      <trkpt lat="37.680197" lon="126.399324"><ele>12.0</ele></trkpt>
      <trkpt lat="37.679297" lon="126.399644"><ele>10.0</ele></trkpt>
      <trkpt lat="37.679102" lon="126.399731"><ele>9.8</ele></trkpt>
      <trkpt lat="37.678937" lon="126.399817"><ele>9.3</ele></trkpt>
      <trkpt lat="37.678578" lon="126.400037"><ele>8.8</ele></trkpt>
      <trkpt lat="37.678424" lon="126.400143"><ele>8.3</ele></trkpt>
      <trkpt lat="37.678272" lon="126.400270"><ele>8.0</ele></trkpt>
      <trkpt lat="37.677992" lon="126.400545"><ele>7.3</ele></trkpt>
      <trkpt lat="37.677846" lon="126.400715"><ele>7.0</ele></trkpt>
      <trkpt lat="37.677713" lon="126.400889"><ele>6.8</ele></trkpt>
      <trkpt lat="37.677613" lon="126.401030"><ele>6.8</ele></trkpt>
      <trkpt lat="37.677416" lon="126.401345"><ele>0.0</ele></trkpt>
      <trkpt lat="37.677174" lon="126.401809"><ele>0.0</ele></trkpt>
      <trkpt lat="37.677163" lon="126.401800"><ele>0.0</ele></trkpt>
      <trkpt lat="37.677174" lon="126.401809"><ele>4.8</ele></trkpt>
      <trkpt lat="37.676796" lon="126.402538"><ele>4.8</ele></trkpt>
      <trkpt lat="37.676507" lon="126.403072"><ele>4.8</ele></trkpt>
      <trkpt lat="37.676306" lon="126.403324"><ele>4.8</ele></trkpt>
      <trkpt lat="37.676194" lon="126.403442"><ele>4.8</ele></trkpt>
      <trkpt lat="37.676076" lon="126.403547"><ele>4.8</ele></trkpt>
      <trkpt lat="37.675961" lon="126.403630"><ele>4.8</ele></trkpt>
      <trkpt lat="37.675840" lon="126.403703"><ele>4.8</ele></trkpt>
      <trkpt lat="37.675615" lon="126.403807"><ele>4.8</ele></trkpt>
      <trkpt lat="37.675342" lon="126.403883"><ele>4.8</ele></trkpt>
      <trkpt lat="37.674560" lon="126.404031"><ele>4.8</ele></trkpt>
      <trkpt lat="37.674403" lon="126.404077"><ele>4.8</ele></trkpt>
      <trkpt lat="37.674294" lon="126.404120"><ele>4.8</ele></trkpt>
      <trkpt lat="37.674175" lon="126.404177"><ele>4.8</ele></trkpt>
      <trkpt lat="37.674056" lon="126.404249"><ele>4.8</ele></trkpt>
      <trkpt lat="37.673835" lon="126.404425"><ele>4.8</ele></trkpt>
      <trkpt lat="37.673595" lon="126.404667"><ele>5.0</ele></trkpt>
      <trkpt lat="37.673361" lon="126.404866"><ele>5.0</ele></trkpt>
      <trkpt lat="37.673227" lon="126.404960"><ele>5.0</ele></trkpt>
      <trkpt lat="37.672935" lon="126.405129"><ele>5.3</ele></trkpt>
      <trkpt lat="37.672806" lon="126.405189"><ele>5.3</ele></trkpt>
      <trkpt lat="37.672666" lon="126.405244"><ele>5.3</ele></trkpt>
      <trkpt lat="37.672503" lon="126.405295"><ele>5.3</ele></trkpt>
      <trkpt lat="37.672048" lon="126.405397"><ele>0.0</ele></trkpt>
      <trkpt lat="37.671535" lon="126.405504"><ele>0.0</ele></trkpt>
      <trkpt lat="37.670781" lon="126.405662"><ele>0.0</ele></trkpt>
      <trkpt lat="37.670363" lon="126.405760"><ele>0.0</ele></trkpt>
      <trkpt lat="37.669602" lon="126.405922"><ele>0.0</ele></trkpt>
      <trkpt lat="37.669376" lon="126.405979"><ele>0.0</ele></trkpt>
      <trkpt lat="37.669221" lon="126.406027"><ele>0.0</ele></trkpt>
      <trkpt lat="37.669170" lon="126.406047"><ele>0.0</ele></trkpt>
      <trkpt lat="37.669167" lon="126.406034"><ele>0.0</ele></trkpt>
      <trkpt lat="37.669170" lon="126.406047"><ele>40.3</ele></trkpt>
      <trkpt lat="37.669050" lon="126.406097"><ele>40.3</ele></trkpt>
      <trkpt lat="37.668873" lon="126.406182"><ele>40.3</ele></trkpt>
      <trkpt lat="37.668489" lon="126.406413"><ele>40.3</ele></trkpt>
      <trkpt lat="37.668208" lon="126.406628"><ele>40.3</ele></trkpt>
      <trkpt lat="37.668018" lon="126.406794"><ele>45.3</ele></trkpt>
      <trkpt lat="37.667423" lon="126.407366"><ele>54.3</ele></trkpt>
      <trkpt lat="37.666782" lon="126.408044"><ele>55.5</ele></trkpt>
      <trkpt lat="37.666576" lon="126.408230"><ele>56.0</ele></trkpt>
      <trkpt lat="37.666469" lon="126.408315"><ele>55.8</ele></trkpt>
      <trkpt lat="37.666336" lon="126.408405"><ele>55.0</ele></trkpt>
      <trkpt lat="37.666197" lon="126.408521"><ele>54.8</ele></trkpt>
      <trkpt lat="37.665920" lon="126.408680"><ele>52.3</ele></trkpt>
      <trkpt lat="37.665590" lon="126.408773"><ele>46.5</ele></trkpt>
      <trkpt lat="37.665408" lon="126.408807"><ele>42.5</ele></trkpt>
      <trkpt lat="37.665100" lon="126.408828"><ele>35.0</ele></trkpt>
      <trkpt lat="37.664945" lon="126.408821"><ele>31.3</ele></trkpt>
      <trkpt lat="37.664502" lon="126.408769"><ele>20.8</ele></trkpt>
      <trkpt lat="37.663877" lon="126.408618"><ele>10.0</ele></trkpt>
      <trkpt lat="37.663261" lon="126.408452"><ele>5.8</ele></trkpt>
      <trkpt lat="37.663108" lon="126.408432"><ele>5.8</ele></trkpt>
      <trkpt lat="37.662956" lon="126.408427"><ele>5.8</ele></trkpt>
      <trkpt lat="37.662823" lon="126.408437"><ele>6.0</ele></trkpt>
      <trkpt lat="37.662686" lon="126.408463"><ele>6.3</ele></trkpt>
      <trkpt lat="37.662555" lon="126.408499"><ele>6.5</ele></trkpt>
      <trkpt lat="37.662401" lon="126.408554"><ele>6.5</ele></trkpt>
      <trkpt lat="37.661362" lon="126.408995"><ele>5.0</ele></trkpt>
      <trkpt lat="37.660838" lon="126.409263"><ele>5.0</ele></trkpt>
      <trkpt lat="37.659507" lon="126.409931"><ele>4.5</ele></trkpt>
      <trkpt lat="37.659368" lon="126.409972"><ele>4.3</ele></trkpt>
      <trkpt lat="37.659223" lon="126.409998"><ele>4.0</ele></trkpt>
      <trkpt lat="37.659051" lon="126.410004"><ele>3.5</ele></trkpt>
      <trkpt lat="37.658892" lon="126.409988"><ele>3.3</ele></trkpt>
      <trkpt lat="37.658737" lon="126.409944"><ele>3.0</ele></trkpt>
      <trkpt lat="37.658592" lon="126.409882"><ele>2.8</ele></trkpt>
      <trkpt lat="37.658459" lon="126.409809"><ele>2.8</ele></trkpt>
      <trkpt lat="37.658387" lon="126.409753"><ele>3.5</ele></trkpt>
      <trkpt lat="37.658416" lon="126.409698"><ele>3.5</ele></trkpt>
      <trkpt lat="37.658387" lon="126.409753"><ele>3.0</ele></trkpt>
      <trkpt lat="37.658248" lon="126.409643"><ele>3.5</ele></trkpt>
      <trkpt lat="37.658147" lon="126.409583"><ele>3.8</ele></trkpt>
      <trkpt lat="37.658008" lon="126.409518"><ele>4.3</ele></trkpt>
      <trkpt lat="37.657880" lon="126.409474"><ele>4.8</ele></trkpt>
      <trkpt lat="37.657774" lon="126.409454"><ele>5.0</ele></trkpt>
      <trkpt lat="37.657680" lon="126.409444"><ele>5.3</ele></trkpt>
      <trkpt lat="37.657587" lon="126.409446"><ele>5.3</ele></trkpt>
      <trkpt lat="37.657467" lon="126.409464"><ele>5.5</ele></trkpt>
      <trkpt lat="37.656848" lon="126.409598"><ele>5.5</ele></trkpt>
      <trkpt lat="37.654906" lon="126.410033"><ele>5.8</ele></trkpt>
      <trkpt lat="37.654722" lon="126.410079"><ele>5.8</ele></trkpt>
      <trkpt lat="37.654507" lon="126.410143"><ele>5.8</ele></trkpt>
      <trkpt lat="37.654312" lon="126.410216"><ele>5.8</ele></trkpt>
      <trkpt lat="37.652441" lon="126.411030"><ele>6.0</ele></trkpt>
      <trkpt lat="37.652298" lon="126.411085"><ele>6.3</ele></trkpt>
      <trkpt lat="37.652173" lon="126.411117"><ele>6.0</ele></trkpt>
      <trkpt lat="37.651902" lon="126.411155"><ele>5.3</ele></trkpt>
      <trkpt lat="37.651761" lon="126.411159"><ele>4.8</ele></trkpt>
      <trkpt lat="37.651647" lon="126.411150"><ele>4.5</ele></trkpt>
      <trkpt lat="37.651379" lon="126.411087"><ele>4.5</ele></trkpt>
      <trkpt lat="37.650148" lon="126.410632"><ele>6.3</ele></trkpt>
      <trkpt lat="37.650001" lon="126.410564"><ele>6.5</ele></trkpt>
      <trkpt lat="37.649869" lon="126.410490"><ele>6.5</ele></trkpt>
      <trkpt lat="37.649740" lon="126.410408"><ele>6.5</ele></trkpt>
      <trkpt lat="37.649602" lon="126.410307"><ele>6.5</ele></trkpt>
      <trkpt lat="37.649378" lon="126.410081"><ele>6.0</ele></trkpt>
      <trkpt lat="37.648928" lon="126.409447"><ele>5.3</ele></trkpt>
      <trkpt lat="37.648754" lon="126.409226"><ele>5.0</ele></trkpt>
      <trkpt lat="37.648741" lon="126.409244"><ele>5.0</ele></trkpt>
      <trkpt lat="37.648754" lon="126.409226"><ele>5.0</ele></trkpt>
      <trkpt lat="37.648729" lon="126.409193"><ele>5.0</ele></trkpt>
      <trkpt lat="37.647339" lon="126.407495"><ele>6.0</ele></trkpt>
      <trkpt lat="37.647144" lon="126.407247"><ele>6.5</ele></trkpt>
      <trkpt lat="37.646903" lon="126.406912"><ele>7.5</ele></trkpt>
      <trkpt lat="37.646758" lon="126.406697"><ele>8.5</ele></trkpt>
      <trkpt lat="37.646461" lon="126.406306"><ele>8.0</ele></trkpt>
      <trkpt lat="37.646312" lon="126.406115"><ele>7.3</ele></trkpt>
      <trkpt lat="37.646239" lon="126.406037"><ele>6.8</ele></trkpt>
      <trkpt lat="37.646088" lon="126.405899"><ele>6.0</ele></trkpt>
      <trkpt lat="37.645999" lon="126.405838"><ele>5.8</ele></trkpt>
      <trkpt lat="37.645218" lon="126.405293"><ele>5.3</ele></trkpt>
      <trkpt lat="37.644977" lon="126.405115"><ele>5.3</ele></trkpt>
      <trkpt lat="37.644745" lon="126.404973"><ele>5.3</ele></trkpt>
      <trkpt lat="37.644573" lon="126.404869"><ele>5.5</ele></trkpt>
      <trkpt lat="37.644362" lon="126.404728"><ele>5.5</ele></trkpt>
      <trkpt lat="37.644178" lon="126.404594"><ele>5.8</ele></trkpt>
      <trkpt lat="37.644011" lon="126.404462"><ele>5.8</ele></trkpt>
      <trkpt lat="37.643848" lon="126.404315"><ele>5.8</ele></trkpt>
      <trkpt lat="37.643708" lon="126.404186"><ele>5.8</ele></trkpt>
      <trkpt lat="37.643411" lon="126.403880"><ele>6.0</ele></trkpt>
      <trkpt lat="37.643165" lon="126.403612"><ele>6.3</ele></trkpt>
      <trkpt lat="37.643038" lon="126.403464"><ele>6.3</ele></trkpt>
      <trkpt lat="37.642912" lon="126.403296"><ele>6.3</ele></trkpt>
      <trkpt lat="37.642810" lon="126.403147"><ele>6.5</ele></trkpt>
      <trkpt lat="37.642586" lon="126.402765"><ele>6.5</ele></trkpt>
      <trkpt lat="37.642499" lon="126.402592"><ele>6.5</ele></trkpt>
      <trkpt lat="37.642254" lon="126.402041"><ele>0.0</ele></trkpt>
      <trkpt lat="37.642051" lon="126.401670"><ele>0.0</ele></trkpt>
      <trkpt lat="37.641940" lon="126.401483"><ele>0.0</ele></trkpt>
      <trkpt lat="37.641439" lon="126.400760"><ele>0.0</ele></trkpt>
      <trkpt lat="37.641337" lon="126.400589"><ele>0.0</ele></trkpt>
      <trkpt lat="37.641136" lon="126.400228"><ele>0.0</ele></trkpt>
      <trkpt lat="37.641105" lon="126.400244"><ele>0.0</ele></trkpt>
      <trkpt lat="37.641133" lon="126.400222"><ele>0.0</ele></trkpt>
      <trkpt lat="37.641041" lon="126.400022"><ele>0.0</ele></trkpt>
      <trkpt lat="37.640699" lon="126.399122"><ele>0.0</ele></trkpt>
      <trkpt lat="37.640576" lon="126.398857"><ele>0.0</ele></trkpt>
      <trkpt lat="37.640455" lon="126.398655"><ele>0.0</ele></trkpt>
      <trkpt lat="37.640282" lon="126.398463"><ele>0.0</ele></trkpt>
      <trkpt lat="37.640193" lon="126.398376"><ele>0.0</ele></trkpt>
      <trkpt lat="37.640166" lon="126.398357"><ele>0.0</ele></trkpt>
      <trkpt lat="37.640152" lon="126.398392"><ele>0.0</ele></trkpt>
      <trkpt lat="37.640166" lon="126.398357"><ele>6.8</ele></trkpt>
      <trkpt lat="37.640193" lon="126.398376"><ele>6.8</ele></trkpt>
      <trkpt lat="37.640282" lon="126.398463"><ele>6.8</ele></trkpt>
      <trkpt lat="37.640455" lon="126.398655"><ele>6.8</ele></trkpt>
      <trkpt lat="37.640576" lon="126.398857"><ele>6.8</ele></trkpt>
      <trkpt lat="37.640699" lon="126.399122"><ele>6.8</ele></trkpt>
      <trkpt lat="37.641041" lon="126.400022"><ele>6.8</ele></trkpt>
      <trkpt lat="37.641136" lon="126.400228"><ele>6.8</ele></trkpt>
      <trkpt lat="37.641337" lon="126.400589"><ele>6.8</ele></trkpt>
      <trkpt lat="37.641439" lon="126.400760"><ele>6.8</ele></trkpt>
      <trkpt lat="37.641940" lon="126.401483"><ele>6.8</ele></trkpt>
      <trkpt lat="37.642051" lon="126.401670"><ele>6.8</ele></trkpt>
      <trkpt lat="37.642254" lon="126.402041"><ele>6.8</ele></trkpt>
      <trkpt lat="37.642499" lon="126.402592"><ele>6.8</ele></trkpt>
      <trkpt lat="37.642586" lon="126.402765"><ele>0.0</ele></trkpt>
      <trkpt lat="37.642810" lon="126.403147"><ele>0.0</ele></trkpt>
      <trkpt lat="37.642912" lon="126.403296"><ele>0.0</ele></trkpt>
      <trkpt lat="37.643033" lon="126.403458"><ele>0.0</ele></trkpt>
      <trkpt lat="37.643029" lon="126.403465"><ele>0.0</ele></trkpt>
      <trkpt lat="37.643033" lon="126.403458"><ele>5.3</ele></trkpt>
      <trkpt lat="37.643038" lon="126.403464"><ele>5.3</ele></trkpt>
      <trkpt lat="37.643165" lon="126.403612"><ele>5.3</ele></trkpt>
      <trkpt lat="37.643411" lon="126.403880"><ele>5.3</ele></trkpt>
      <trkpt lat="37.643708" lon="126.404186"><ele>5.3</ele></trkpt>
      <trkpt lat="37.643848" lon="126.404315"><ele>5.3</ele></trkpt>
      <trkpt lat="37.644011" lon="126.404462"><ele>5.3</ele></trkpt>
      <trkpt lat="37.644178" lon="126.404594"><ele>5.3</ele></trkpt>
      <trkpt lat="37.644362" lon="126.404728"><ele>5.3</ele></trkpt>
      <trkpt lat="37.644573" lon="126.404869"><ele>5.3</ele></trkpt>
      <trkpt lat="37.644745" lon="126.404973"><ele>5.3</ele></trkpt>
      <trkpt lat="37.644977" lon="126.405115"><ele>5.3</ele></trkpt>
      <trkpt lat="37.645218" lon="126.405293"><ele>5.5</ele></trkpt>
      <trkpt lat="37.645999" lon="126.405838"><ele>6.0</ele></trkpt>
      <trkpt lat="37.646088" lon="126.405899"><ele>6.0</ele></trkpt>
      <trkpt lat="37.646239" lon="126.406037"><ele>6.8</ele></trkpt>
      <trkpt lat="37.646262" lon="126.406061"><ele>7.3</ele></trkpt>
      <trkpt lat="37.646260" lon="126.406066"><ele>7.3</ele></trkpt>
      <trkpt lat="37.646262" lon="126.406061"><ele>6.8</ele></trkpt>
      <trkpt lat="37.646312" lon="126.406115"><ele>7.3</ele></trkpt>
      <trkpt lat="37.646461" lon="126.406306"><ele>8.0</ele></trkpt>
      <trkpt lat="37.646758" lon="126.406697"><ele>8.5</ele></trkpt>
      <trkpt lat="37.646903" lon="126.406912"><ele>7.5</ele></trkpt>
      <trkpt lat="37.647144" lon="126.407247"><ele>6.5</ele></trkpt>
      <trkpt lat="37.647339" lon="126.407495"><ele>6.0</ele></trkpt>
      <trkpt lat="37.648521" lon="126.408938"><ele>5.0</ele></trkpt>
      <trkpt lat="37.648518" lon="126.408944"><ele>5.0</ele></trkpt>
      <trkpt lat="37.648521" lon="126.408938"><ele>5.0</ele></trkpt>
      <trkpt lat="37.648729" lon="126.409193"><ele>5.0</ele></trkpt>
      <trkpt lat="37.648928" lon="126.409447"><ele>5.3</ele></trkpt>
      <trkpt lat="37.649378" lon="126.410081"><ele>6.0</ele></trkpt>
      <trkpt lat="37.649602" lon="126.410307"><ele>6.5</ele></trkpt>
      <trkpt lat="37.649740" lon="126.410408"><ele>6.5</ele></trkpt>
      <trkpt lat="37.649869" lon="126.410490"><ele>6.5</ele></trkpt>
      <trkpt lat="37.650001" lon="126.410564"><ele>6.5</ele></trkpt>
      <trkpt lat="37.650148" lon="126.410632"><ele>6.3</ele></trkpt>
      <trkpt lat="37.651262" lon="126.411044"><ele>4.5</ele></trkpt>
      <trkpt lat="37.651257" lon="126.411073"><ele>4.5</ele></trkpt>
      <trkpt lat="37.651262" lon="126.411044"><ele>4.5</ele></trkpt>
      <trkpt lat="37.651379" lon="126.411087"><ele>4.5</ele></trkpt>
      <trkpt lat="37.651647" lon="126.411150"><ele>4.5</ele></trkpt>
      <trkpt lat="37.651761" lon="126.411159"><ele>4.8</ele></trkpt>
      <trkpt lat="37.651902" lon="126.411155"><ele>5.3</ele></trkpt>
      <trkpt lat="37.652173" lon="126.411117"><ele>6.0</ele></trkpt>
      <trkpt lat="37.652298" lon="126.411085"><ele>6.3</ele></trkpt>
      <trkpt lat="37.652441" lon="126.411030"><ele>6.0</ele></trkpt>
      <trkpt lat="37.654312" lon="126.410216"><ele>5.8</ele></trkpt>
      <trkpt lat="37.654507" lon="126.410143"><ele>5.8</ele></trkpt>
      <trkpt lat="37.654722" lon="126.410079"><ele>5.8</ele></trkpt>
      <trkpt lat="37.654906" lon="126.410033"><ele>5.8</ele></trkpt>
      <trkpt lat="37.656848" lon="126.409598"><ele>5.5</ele></trkpt>
      <trkpt lat="37.657467" lon="126.409464"><ele>5.5</ele></trkpt>
      <trkpt lat="37.657587" lon="126.409446"><ele>5.3</ele></trkpt>
      <trkpt lat="37.657680" lon="126.409444"><ele>5.3</ele></trkpt>
      <trkpt lat="37.657774" lon="126.409454"><ele>5.0</ele></trkpt>
      <trkpt lat="37.657880" lon="126.409474"><ele>4.8</ele></trkpt>
      <trkpt lat="37.658008" lon="126.409518"><ele>4.3</ele></trkpt>
      <trkpt lat="37.658147" lon="126.409583"><ele>3.8</ele></trkpt>
      <trkpt lat="37.658248" lon="126.409643"><ele>3.5</ele></trkpt>
      <trkpt lat="37.658459" lon="126.409809"><ele>2.8</ele></trkpt>
      <trkpt lat="37.658592" lon="126.409882"><ele>2.8</ele></trkpt>
      <trkpt lat="37.658737" lon="126.409944"><ele>3.0</ele></trkpt>
      <trkpt lat="37.658892" lon="126.409988"><ele>3.3</ele></trkpt>
      <trkpt lat="37.659051" lon="126.410004"><ele>3.5</ele></trkpt>
      <trkpt lat="37.659223" lon="126.409998"><ele>4.0</ele></trkpt>
      <trkpt lat="37.659368" lon="126.409972"><ele>4.3</ele></trkpt>
      <trkpt lat="37.659507" lon="126.409931"><ele>4.5</ele></trkpt>
      <trkpt lat="37.660838" lon="126.409263"><ele>5.0</ele></trkpt>
      <trkpt lat="37.661362" lon="126.408995"><ele>5.0</ele></trkpt>
      <trkpt lat="37.662401" lon="126.408554"><ele>6.5</ele></trkpt>
      <trkpt lat="37.662555" lon="126.408499"><ele>6.5</ele></trkpt>
      <trkpt lat="37.662686" lon="126.408463"><ele>6.3</ele></trkpt>
      <trkpt lat="37.662823" lon="126.408437"><ele>6.0</ele></trkpt>
      <trkpt lat="37.662956" lon="126.408427"><ele>5.8</ele></trkpt>
      <trkpt lat="37.663108" lon="126.408432"><ele>5.8</ele></trkpt>
      <trkpt lat="37.663261" lon="126.408452"><ele>5.8</ele></trkpt>
      <trkpt lat="37.663877" lon="126.408618"><ele>10.0</ele></trkpt>
      <trkpt lat="37.664502" lon="126.408769"><ele>20.8</ele></trkpt>
      <trkpt lat="37.664945" lon="126.408821"><ele>31.3</ele></trkpt>
      <trkpt lat="37.665100" lon="126.408828"><ele>35.0</ele></trkpt>
      <trkpt lat="37.665408" lon="126.408807"><ele>42.5</ele></trkpt>
      <trkpt lat="37.665590" lon="126.408773"><ele>46.5</ele></trkpt>
      <trkpt lat="37.665920" lon="126.408680"><ele>52.3</ele></trkpt>
      <trkpt lat="37.666197" lon="126.408521"><ele>54.8</ele></trkpt>
      <trkpt lat="37.666336" lon="126.408405"><ele>55.0</ele></trkpt>
      <trkpt lat="37.666469" lon="126.408315"><ele>55.8</ele></trkpt>
      <trkpt lat="37.666576" lon="126.408230"><ele>56.0</ele></trkpt>
      <trkpt lat="37.666782" lon="126.408044"><ele>55.5</ele></trkpt>
      <trkpt lat="37.667423" lon="126.407366"><ele>54.3</ele></trkpt>
      <trkpt lat="37.668018" lon="126.406794"><ele>45.3</ele></trkpt>
      <trkpt lat="37.668208" lon="126.406628"><ele>40.3</ele></trkpt>
      <trkpt lat="37.668489" lon="126.406413"><ele>0.0</ele></trkpt>
      <trkpt lat="37.668525" lon="126.406391"><ele>0.0</ele></trkpt>
      <trkpt lat="37.668531" lon="126.406406"><ele>0.0</ele></trkpt>
      <trkpt lat="37.668525" lon="126.406391"><ele>0.0</ele></trkpt>
      <trkpt lat="37.668873" lon="126.406182"><ele>0.0</ele></trkpt>
      <trkpt lat="37.669050" lon="126.406097"><ele>0.0</ele></trkpt>
      <trkpt lat="37.669221" lon="126.406027"><ele>0.0</ele></trkpt>
      <trkpt lat="37.669376" lon="126.405979"><ele>0.0</ele></trkpt>
      <trkpt lat="37.669602" lon="126.405922"><ele>0.0</ele></trkpt>
      <trkpt lat="37.670363" lon="126.405760"><ele>0.0</ele></trkpt>
      <trkpt lat="37.670781" lon="126.405662"><ele>0.0</ele></trkpt>
      <trkpt lat="37.671535" lon="126.405504"><ele>0.0</ele></trkpt>
      <trkpt lat="37.671878" lon="126.405432"><ele>0.0</ele></trkpt>
      <trkpt lat="37.671879" lon="126.405440"><ele>0.0</ele></trkpt>
      <trkpt lat="37.671878" lon="126.405432"><ele>5.3</ele></trkpt>
      <trkpt lat="37.672048" lon="126.405397"><ele>5.3</ele></trkpt>
      <trkpt lat="37.672503" lon="126.405295"><ele>5.3</ele></trkpt>
      <trkpt lat="37.672666" lon="126.405244"><ele>5.3</ele></trkpt>
      <trkpt lat="37.672806" lon="126.405189"><ele>5.3</ele></trkpt>
      <trkpt lat="37.672935" lon="126.405129"><ele>5.0</ele></trkpt>
      <trkpt lat="37.673227" lon="126.404960"><ele>5.0</ele></trkpt>
      <trkpt lat="37.673361" lon="126.404866"><ele>5.0</ele></trkpt>
      <trkpt lat="37.673595" lon="126.404667"><ele>4.8</ele></trkpt>
      <trkpt lat="37.673835" lon="126.404425"><ele>4.8</ele></trkpt>
      <trkpt lat="37.674056" lon="126.404249"><ele>4.8</ele></trkpt>
      <trkpt lat="37.674175" lon="126.404177"><ele>4.8</ele></trkpt>
      <trkpt lat="37.674294" lon="126.404120"><ele>0.0</ele></trkpt>
      <trkpt lat="37.674403" lon="126.404077"><ele>0.0</ele></trkpt>
      <trkpt lat="37.674560" lon="126.404031"><ele>0.0</ele></trkpt>
      <trkpt lat="37.675342" lon="126.403883"><ele>0.0</ele></trkpt>
      <trkpt lat="37.675615" lon="126.403807"><ele>0.0</ele></trkpt>
      <trkpt lat="37.675630" lon="126.403799"><ele>0.0</ele></trkpt>
      <trkpt lat="37.675628" lon="126.403791"><ele>0.0</ele></trkpt>
      <trkpt lat="37.675630" lon="126.403799"><ele>6.8</ele></trkpt>
      <trkpt lat="37.675840" lon="126.403703"><ele>6.8</ele></trkpt>
      <trkpt lat="37.675961" lon="126.403630"><ele>6.8</ele></trkpt>
      <trkpt lat="37.676076" lon="126.403547"><ele>6.8</ele></trkpt>
      <trkpt lat="37.676194" lon="126.403442"><ele>6.8</ele></trkpt>
      <trkpt lat="37.676306" lon="126.403324"><ele>6.8</ele></trkpt>
      <trkpt lat="37.676507" lon="126.403072"><ele>6.8</ele></trkpt>
      <trkpt lat="37.676796" lon="126.402538"><ele>6.8</ele></trkpt>
      <trkpt lat="37.677416" lon="126.401345"><ele>6.8</ele></trkpt>
      <trkpt lat="37.677613" lon="126.401030"><ele>6.8</ele></trkpt>
      <trkpt lat="37.677713" lon="126.400889"><ele>7.0</ele></trkpt>
      <trkpt lat="37.677846" lon="126.400715"><ele>7.5</ele></trkpt>
      <trkpt lat="37.677992" lon="126.400545"><ele>8.0</ele></trkpt>
      <trkpt lat="37.678272" lon="126.400270"><ele>9.0</ele></trkpt>
      <trkpt lat="37.678424" lon="126.400143"><ele>9.5</ele></trkpt>
      <trkpt lat="37.678578" lon="126.400037"><ele>9.8</ele></trkpt>
      <trkpt lat="37.678937" lon="126.399817"><ele>10.8</ele></trkpt>
      <trkpt lat="37.679102" lon="126.399731"><ele>11.3</ele></trkpt>
      <trkpt lat="37.679297" lon="126.399644"><ele>12.0</ele></trkpt>
      <trkpt lat="37.680197" lon="126.399324"><ele>12.0</ele></trkpt>
      <trkpt lat="37.680486" lon="126.399221"><ele>10.0</ele></trkpt>
      <trkpt lat="37.680616" lon="126.399157"><ele>9.0</ele></trkpt>
      <trkpt lat="37.680725" lon="126.399090"><ele>8.8</ele></trkpt>
      <trkpt lat="37.680823" lon="126.399019"><ele>8.3</ele></trkpt>
      <trkpt lat="37.680910" lon="126.398922"><ele>8.3</ele></trkpt>
      <trkpt lat="37.681077" lon="126.398779"><ele>8.3</ele></trkpt>
      <trkpt lat="37.681074" lon="126.398773"><ele>8.3</ele></trkpt>
      <trkpt lat="37.681077" lon="126.398779"><ele>8.3</ele></trkpt>
      <trkpt lat="37.681089" lon="126.398769"><ele>8.3</ele></trkpt>
      <trkpt lat="37.681150" lon="126.398745"><ele>8.3</ele></trkpt>
      <trkpt lat="37.681314" lon="126.398781"><ele>9.0</ele></trkpt>
      <trkpt lat="37.681442" lon="126.398844"><ele>9.5</ele></trkpt>
      <trkpt lat="37.681873" lon="126.399322"><ele>13.0</ele></trkpt>
      <trkpt lat="37.682086" lon="126.399655"><ele>15.3</ele></trkpt>
      <trkpt lat="37.682071" lon="126.399668"><ele>15.3</ele></trkpt>
      <trkpt lat="37.682087" lon="126.399659"><ele>15.0</ele></trkpt>
      <trkpt lat="37.682455" lon="126.400894"><ele>10.8</ele></trkpt>
      <trkpt lat="37.682497" lon="126.401099"><ele>10.0</ele></trkpt>
      <trkpt lat="37.682686" lon="126.402025"><ele>8.3</ele></trkpt>
      <trkpt lat="37.682791" lon="126.402402"><ele>8.8</ele></trkpt>
      <trkpt lat="37.682827" lon="126.402531"><ele>9.0</ele></trkpt>
      <trkpt lat="37.683148" lon="126.403309"><ele>10.5</ele></trkpt>
      <trkpt lat="37.683232" lon="126.403461"><ele>12.5</ele></trkpt>
      <trkpt lat="37.683222" lon="126.403472"><ele>12.5</ele></trkpt>
      <trkpt lat="37.683232" lon="126.403461"><ele>11.3</ele></trkpt>
      <trkpt lat="37.683371" lon="126.403712"><ele>12.5</ele></trkpt>
      <trkpt lat="37.683442" lon="126.403822"><ele>13.0</ele></trkpt>
      <trkpt lat="37.683506" lon="126.403903"><ele>13.0</ele></trkpt>
      <trkpt lat="37.683861" lon="126.404200"><ele>12.5</ele></trkpt>
      <trkpt lat="37.684303" lon="126.404817"><ele>11.8</ele></trkpt>
      <trkpt lat="37.684475" lon="126.405054"><ele>10.3</ele></trkpt>
      <trkpt lat="37.684677" lon="126.405287"><ele>8.3</ele></trkpt>
      <trkpt lat="37.685465" lon="126.405981"><ele>7.0</ele></trkpt>
      <trkpt lat="37.685788" lon="126.406311"><ele>6.8</ele></trkpt>
      <trkpt lat="37.686107" lon="126.406742"><ele>6.5</ele></trkpt>
      <trkpt lat="37.686127" lon="126.406777"><ele>6.5</ele></trkpt>
      <trkpt lat="37.686216" lon="126.406882"><ele>6.5</ele></trkpt>
      <trkpt lat="37.686250" lon="126.406934"><ele>6.5</ele></trkpt>
      <trkpt lat="37.687071" lon="126.408044"><ele>7.3</ele></trkpt>
      <trkpt lat="37.687156" lon="126.408254"><ele>7.8</ele></trkpt>
      <trkpt lat="37.687313" lon="126.409392"><ele>9.5</ele></trkpt>
      <trkpt lat="37.687412" lon="126.409881"><ele>11.8</ele></trkpt>
      <trkpt lat="37.687417" lon="126.409902"><ele>11.8</ele></trkpt>
      <trkpt lat="37.687444" lon="126.409989"><ele>12.3</ele></trkpt>
      <trkpt lat="37.687521" lon="126.410297"><ele>12.5</ele></trkpt>
      <trkpt lat="37.687693" lon="126.410737"><ele>12.3</ele></trkpt>
      <trkpt lat="37.688395" lon="126.412073"><ele>13.0</ele></trkpt>
      <trkpt lat="37.688494" lon="126.412272"><ele>13.5</ele></trkpt>
      <trkpt lat="37.688638" lon="126.412686"><ele>13.8</ele></trkpt>
      <trkpt lat="37.688689" lon="126.412972"><ele>13.5</ele></trkpt>
      <trkpt lat="37.688880" lon="126.414373"><ele>15.8</ele></trkpt>
      <trkpt lat="37.688895" lon="126.414792"><ele>16.5</ele></trkpt>
      <trkpt lat="37.688863" lon="126.415085"><ele>17.0</ele></trkpt>
      <trkpt lat="37.688819" lon="126.415330"><ele>17.3</ele></trkpt>
      <trkpt lat="37.688817" lon="126.415500"><ele>17.5</ele></trkpt>
      <trkpt lat="37.688948" lon="126.416357"><ele>19.8</ele></trkpt>
      <trkpt lat="37.688952" lon="126.417057"><ele>19.8</ele></trkpt>
      <trkpt lat="37.688987" lon="126.418790"><ele>26.0</ele></trkpt>
      <trkpt lat="37.689005" lon="126.418791"><ele>26.0</ele></trkpt>
      <trkpt lat="37.688987" lon="126.418790"><ele>25.5</ele></trkpt>
      <trkpt lat="37.688952" lon="126.417057"><ele>19.8</ele></trkpt>
      <trkpt lat="37.688948" lon="126.416357"><ele>19.8</ele></trkpt>
      <trkpt lat="37.688817" lon="126.415500"><ele>17.5</ele></trkpt>
      <trkpt lat="37.688819" lon="126.415330"><ele>17.3</ele></trkpt>
      <trkpt lat="37.688863" lon="126.415085"><ele>17.0</ele></trkpt>
      <trkpt lat="37.688886" lon="126.414871"><ele>16.5</ele></trkpt>
      <trkpt lat="37.688881" lon="126.414871"><ele>16.5</ele></trkpt>
      <trkpt lat="37.688886" lon="126.414871"><ele>16.5</ele></trkpt>
      <trkpt lat="37.688895" lon="126.414792"><ele>16.5</ele></trkpt>
      <trkpt lat="37.688880" lon="126.414373"><ele>15.8</ele></trkpt>
      <trkpt lat="37.688689" lon="126.412972"><ele>13.5</ele></trkpt>
      <trkpt lat="37.688638" lon="126.412686"><ele>13.8</ele></trkpt>
      <trkpt lat="37.688494" lon="126.412272"><ele>13.5</ele></trkpt>
      <trkpt lat="37.688395" lon="126.412073"><ele>13.0</ele></trkpt>
      <trkpt lat="37.688085" lon="126.411483"><ele>12.3</ele></trkpt>
      <trkpt lat="37.688077" lon="126.411492"><ele>12.3</ele></trkpt>
      <trkpt lat="37.688085" lon="126.411483"><ele>12.5</ele></trkpt>
      <trkpt lat="37.687693" lon="126.410737"><ele>12.3</ele></trkpt>
      <trkpt lat="37.687521" lon="126.410297"><ele>12.5</ele></trkpt>
      <trkpt lat="37.687444" lon="126.409989"><ele>12.3</ele></trkpt>
      <trkpt lat="37.687417" lon="126.409902"><ele>11.8</ele></trkpt>
      <trkpt lat="37.687412" lon="126.409881"><ele>11.8</ele></trkpt>
      <trkpt lat="37.687313" lon="126.409392"><ele>9.5</ele></trkpt>
      <trkpt lat="37.687156" lon="126.408254"><ele>7.8</ele></trkpt>
      <trkpt lat="37.687077" lon="126.408059"><ele>7.3</ele></trkpt>
      <trkpt lat="37.687064" lon="126.408069"><ele>7.3</ele></trkpt>
      <trkpt lat="37.687077" lon="126.408059"><ele>7.3</ele></trkpt>
      <trkpt lat="37.687071" lon="126.408044"><ele>7.3</ele></trkpt>
      <trkpt lat="37.686250" lon="126.406934"><ele>6.5</ele></trkpt>
      <trkpt lat="37.686216" lon="126.406882"><ele>6.5</ele></trkpt>
      <trkpt lat="37.686127" lon="126.406777"><ele>6.5</ele></trkpt>
      <trkpt lat="37.686107" lon="126.406742"><ele>6.5</ele></trkpt>
      <trkpt lat="37.685788" lon="126.406311"><ele>6.8</ele></trkpt>
      <trkpt lat="37.685465" lon="126.405981"><ele>7.0</ele></trkpt>
      <trkpt lat="37.684677" lon="126.405287"><ele>8.3</ele></trkpt>
      <trkpt lat="37.684475" lon="126.405054"><ele>10.3</ele></trkpt>
      <trkpt lat="37.684303" lon="126.404817"><ele>11.8</ele></trkpt>
      <trkpt lat="37.683861" lon="126.404200"><ele>12.5</ele></trkpt>
      <trkpt lat="37.683506" lon="126.403903"><ele>13.0</ele></trkpt>
      <trkpt lat="37.683442" lon="126.403822"><ele>13.0</ele></trkpt>
      <trkpt lat="37.683371" lon="126.403712"><ele>12.5</ele></trkpt>
      <trkpt lat="37.683311" lon="126.403604"><ele>10.5</ele></trkpt>
      <trkpt lat="37.683301" lon="126.403615"><ele>10.5</ele></trkpt>
      <trkpt lat="37.683311" lon="126.403604"><ele>11.8</ele></trkpt>
      <trkpt lat="37.683148" lon="126.403309"><ele>10.5</ele></trkpt>
      <trkpt lat="37.682827" lon="126.402531"><ele>9.0</ele></trkpt>
      <trkpt lat="37.682791" lon="126.402402"><ele>8.8</ele></trkpt>
      <trkpt lat="37.682686" lon="126.402025"><ele>8.3</ele></trkpt>
      <trkpt lat="37.682497" lon="126.401099"><ele>10.0</ele></trkpt>
      <trkpt lat="37.682455" lon="126.400894"><ele>10.8</ele></trkpt>
      <trkpt lat="37.682086" lon="126.399655"><ele>15.3</ele></trkpt>
      <trkpt lat="37.681873" lon="126.399322"><ele>13.0</ele></trkpt>
      <trkpt lat="37.681442" lon="126.398844"><ele>9.5</ele></trkpt>
      <trkpt lat="37.681185" lon="126.398557"><ele>7.8</ele></trkpt>
      <trkpt lat="37.681185" lon="126.398560"><ele>7.8</ele></trkpt>
      <trkpt lat="37.681185" lon="126.398557"><ele>7.8</ele></trkpt>
      <trkpt lat="37.681169" lon="126.398540"><ele>7.8</ele></trkpt>
      <trkpt lat="37.681219" lon="126.398436"><ele>7.5</ele></trkpt>
      <trkpt lat="37.681300" lon="126.398185"><ele>7.3</ele></trkpt>
      <trkpt lat="37.681330" lon="126.398029"><ele>6.8</ele></trkpt>
      <trkpt lat="37.681347" lon="126.397872"><ele>6.5</ele></trkpt>
      <trkpt lat="37.681389" lon="126.397485"><ele>0.0</ele></trkpt>
      <trkpt lat="37.681484" lon="126.396795"><ele>0.0</ele></trkpt>
      <trkpt lat="37.681561" lon="126.396252"><ele>0.0</ele></trkpt>
      <trkpt lat="37.681594" lon="126.396033"><ele>0.0</ele></trkpt>
      <trkpt lat="37.681630" lon="126.395858"><ele>0.0</ele></trkpt>
      <trkpt lat="37.681676" lon="126.395697"><ele>0.0</ele></trkpt>
      <trkpt lat="37.681725" lon="126.395569"><ele>0.0</ele></trkpt>
      <trkpt lat="37.681786" lon="126.395431"><ele>0.0</ele></trkpt>
      <trkpt lat="37.681859" lon="126.395291"><ele>0.0</ele></trkpt>
      <trkpt lat="37.681936" lon="126.395166"><ele>0.0</ele></trkpt>
      <trkpt lat="37.682028" lon="126.395034"><ele>0.0</ele></trkpt>
      <trkpt lat="37.682124" lon="126.394915"><ele>0.0</ele></trkpt>
      <trkpt lat="37.682132" lon="126.394925"><ele>0.0</ele></trkpt>
      <trkpt lat="37.682124" lon="126.394915"><ele>10.0</ele></trkpt>
      <trkpt lat="37.682148" lon="126.394886"><ele>10.0</ele></trkpt>
      <trkpt lat="37.682249" lon="126.394775"><ele>10.0</ele></trkpt>
      <trkpt lat="37.682368" lon="126.394664"><ele>10.0</ele></trkpt>
      <trkpt lat="37.682582" lon="126.394504"><ele>10.0</ele></trkpt>
      <trkpt lat="37.682904" lon="126.394291"><ele>11.5</ele></trkpt>
      <trkpt lat="37.683208" lon="126.394101"><ele>13.0</ele></trkpt>
      <trkpt lat="37.683543" lon="126.393867"><ele>14.8</ele></trkpt>
      <trkpt lat="37.683632" lon="126.393796"><ele>14.8</ele></trkpt>
      <trkpt lat="37.683823" lon="126.393616"><ele>16.5</ele></trkpt>
      <trkpt lat="37.683988" lon="126.393403"><ele>16.8</ele></trkpt>
      <trkpt lat="37.684080" lon="126.393247"><ele>16.8</ele></trkpt>
      <trkpt lat="37.684084" lon="126.393250"><ele>16.8</ele></trkpt>
      <trkpt lat="37.684080" lon="126.393247"><ele>19.0</ele></trkpt>
      <trkpt lat="37.684683" lon="126.392236"><ele>19.0</ele></trkpt>
      <trkpt lat="37.684776" lon="126.392094"><ele>19.0</ele></trkpt>
      <trkpt lat="37.685014" lon="126.391788"><ele>19.0</ele></trkpt>
      <trkpt lat="37.685111" lon="126.391679"><ele>19.5</ele></trkpt>
      <trkpt lat="37.685213" lon="126.391579"><ele>20.3</ele></trkpt>
      <trkpt lat="37.685417" lon="126.391431"><ele>21.8</ele></trkpt>
      <trkpt lat="37.685514" lon="126.391378"><ele>22.3</ele></trkpt>
      <trkpt lat="37.686024" lon="126.391169"><ele>25.5</ele></trkpt>
      <trkpt lat="37.686032" lon="126.391200"><ele>25.5</ele></trkpt>
      <trkpt lat="37.686024" lon="126.391169"><ele>20.0</ele></trkpt>
      <trkpt lat="37.687609" lon="126.390522"><ele>25.5</ele></trkpt>
      <trkpt lat="37.688976" lon="126.389997"><ele>38.5</ele></trkpt>
      <trkpt lat="37.689246" lon="126.389900"><ele>37.5</ele></trkpt>
      <trkpt lat="37.689519" lon="126.389847"><ele>35.5</ele></trkpt>
      <trkpt lat="37.689670" lon="126.389833"><ele>35.0</ele></trkpt>
      <trkpt lat="37.689828" lon="126.389833"><ele>34.5</ele></trkpt>
      <trkpt lat="37.689966" lon="126.389844"><ele>31.8</ele></trkpt>
      <trkpt lat="37.690113" lon="126.389869"><ele>29.0</ele></trkpt>
      <trkpt lat="37.690258" lon="126.389903"><ele>26.3</ele></trkpt>
      <trkpt lat="37.690432" lon="126.389959"><ele>22.8</ele></trkpt>
      <trkpt lat="37.690755" lon="126.390105"><ele>20.8</ele></trkpt>
      <trkpt lat="37.690899" lon="126.390186"><ele>19.8</ele></trkpt>
      <trkpt lat="37.691032" lon="126.390276"><ele>19.0</ele></trkpt>
      <trkpt lat="37.691449" lon="126.390613"><ele>16.3</ele></trkpt>
      <trkpt lat="37.691998" lon="126.391029"><ele>12.5</ele></trkpt>
      <trkpt lat="37.692922" lon="126.391702"><ele>6.5</ele></trkpt>
      <trkpt lat="37.693082" lon="126.391800"><ele>6.8</ele></trkpt>
      <trkpt lat="37.693239" lon="126.391881"><ele>6.8</ele></trkpt>
      <trkpt lat="37.693403" lon="126.391955"><ele>6.8</ele></trkpt>
      <trkpt lat="37.693486" lon="126.391981"><ele>6.8</ele></trkpt>
      <trkpt lat="37.693592" lon="126.392016"><ele>6.5</ele></trkpt>
      <trkpt lat="37.693763" lon="126.392057"><ele>6.5</ele></trkpt>
      <trkpt lat="37.693931" lon="126.392082"><ele>6.3</ele></trkpt>
      <trkpt lat="37.694114" lon="126.392085"><ele>6.0</ele></trkpt>
      <trkpt lat="37.694299" lon="126.392078"><ele>5.8</ele></trkpt>
      <trkpt lat="37.694509" lon="126.392047"><ele>5.3</ele></trkpt>
      <trkpt lat="37.694693" lon="126.392004"><ele>5.0</ele></trkpt>
      <trkpt lat="37.694866" lon="126.391941"><ele>4.8</ele></trkpt>
      <trkpt lat="37.695095" lon="126.391835"><ele>4.5</ele></trkpt>
      <trkpt lat="37.695117" lon="126.391874"><ele>4.5</ele></trkpt>
      <trkpt lat="37.695138" lon="126.391858"><ele>4.5</ele></trkpt>
      <trkpt lat="37.695117" lon="126.391874"><ele>4.5</ele></trkpt>
      <trkpt lat="37.695095" lon="126.391835"><ele>4.5</ele></trkpt>
      <trkpt lat="37.695255" lon="126.391734"><ele>4.5</ele></trkpt>
      <trkpt lat="37.695407" lon="126.391631"><ele>4.5</ele></trkpt>
      <trkpt lat="37.695653" lon="126.391420"><ele>4.3</ele></trkpt>
      <trkpt lat="37.695782" lon="126.391290"><ele>4.3</ele></trkpt>
      <trkpt lat="37.698333" lon="126.388441"><ele>4.3</ele></trkpt>
      <trkpt lat="37.698522" lon="126.388214"><ele>4.3</ele></trkpt>
      <trkpt lat="37.698685" lon="126.388001"><ele>4.3</ele></trkpt>
      <trkpt lat="37.698859" lon="126.387763"><ele>4.3</ele></trkpt>
      <trkpt lat="37.699016" lon="126.387525"><ele>4.3</ele></trkpt>
      <trkpt lat="37.699194" lon="126.387249"><ele>4.3</ele></trkpt>
      <trkpt lat="37.699356" lon="126.386976"><ele>4.3</ele></trkpt>
      <trkpt lat="37.699612" lon="126.386500"><ele>4.3</ele></trkpt>
      <trkpt lat="37.699994" lon="126.385615"><ele>4.3</ele></trkpt>
      <trkpt lat="37.700084" lon="126.385386"><ele>4.3</ele></trkpt>
      <trkpt lat="37.700187" lon="126.385075"><ele>4.3</ele></trkpt>
      <trkpt lat="37.700237" lon="126.384898"><ele>4.3</ele></trkpt>
      <trkpt lat="37.700189" lon="126.384877"><ele>4.3</ele></trkpt>
    </trkseg>
  </trk>
</gpx>