<?xml version="1.0" encoding="UTF-8"?>
<gpx version="1.1" creator="HTML GPX Creator" xmlns="http://www.topografix.com/GPX/1/1">
  <trk>
    <name>My Custom Route</name>
    <trkseg>
      <trkpt lat="34.85268366477081" lon="128.5813128948212">
        <ele>1.1</ele>
      </trkpt>
      <trkpt lat="34.852692" lon="128.581323">
        <ele>1.1</ele>
      </trkpt>
      <trkpt lat="34.853423" lon="128.580433">
        <ele>1.1</ele>
      </trkpt>
      <trkpt lat="34.853414421854914" lon="128.58042240142825">
        <ele>1.1</ele>
      </trkpt>
      <trkpt lat="34.853423" lon="128.580433">
        <ele>1.0</ele>
      </trkpt>
      <trkpt lat="34.853443" lon="128.580409">
        <ele>1.0</ele>
      </trkpt>
      <trkpt lat="34.852852" lon="128.579745">
        <ele>1.0</ele>
      </trkpt>
      <trkpt lat="34.852804" lon="128.579687">
        <ele>1.0</ele>
      </trkpt>
      <trkpt lat="34.852701" lon="128.579574">
        <ele>1.0</ele>
      </trkpt>
      <trkpt lat="34.852684" lon="128.579555">
        <ele>1.1</ele>
      </trkpt>
      <trkpt lat="34.852679262600034" lon="128.57956409454349">
        <ele>1.1</ele>
      </trkpt>
      <trkpt lat="34.852684" lon="128.579555">
        <ele>1.2</ele>
      </trkpt>
      <trkpt lat="34.852672" lon="128.579542">
        <ele>1.3</ele>
      </trkpt>
      <trkpt lat="34.853514" lon="128.578483">
        <ele>1.4</ele>
      </trkpt>
      <trkpt lat="34.853676" lon="128.578287">
        <ele>1.5</ele>
      </trkpt>
      <trkpt lat="34.85368295144181" lon="128.57825517654422">
        <ele>1.6</ele>
      </trkpt>
      <trkpt lat="34.853854633833144" lon="128.5777992010117">
        <ele>1.7</ele>
      </trkpt>
      <trkpt lat="34.853875" lon="128.577768">
        <ele>1.8</ele>
      </trkpt>
      <trkpt lat="34.853799" lon="128.57769">
        <ele>2.0</ele>
      </trkpt>
      <trkpt lat="34.853746" lon="128.577497">
        <ele>2.1</ele>
      </trkpt>
      <trkpt lat="34.853817" lon="128.576917">
        <ele>2.3</ele>
      </trkpt>
      <trkpt lat="34.853905" lon="128.57629">
        <ele>2.5</ele>
      </trkpt>
      <trkpt lat="34.853925" lon="128.57544">
        <ele>2.7</ele>
      </trkpt>
      <trkpt lat="34.853894252795676" lon="128.57543885707858">
        <ele>2.9</ele>
      </trkpt>
      <trkpt lat="34.853925" lon="128.57544">
        <ele>3.1</ele>
      </trkpt>
      <trkpt lat="34.853941" lon="128.574789">
        <ele>3.4</ele>
      </trkpt>
      <trkpt lat="34.853945" lon="128.574654">
        <ele>3.6</ele>
      </trkpt>
      <trkpt lat="34.854134" lon="128.574396">
        <ele>3.9</ele>
      </trkpt>
      <trkpt lat="34.854293" lon="128.573591">
        <ele>4.1</ele>
      </trkpt>
      <trkpt lat="34.854346" lon="128.573361">
        <ele>4.4</ele>
      </trkpt>
      <trkpt lat="34.854416" lon="128.572994">
        <ele>4.7</ele>
      </trkpt>
      <trkpt lat="34.854416" lon="128.572916">
        <ele>4.9</ele>
      </trkpt>
      <trkpt lat="34.854403" lon="128.572787">
        <ele>5.2</ele>
      </trkpt>
      <trkpt lat="34.854409" lon="128.572649">
        <ele>5.5</ele>
      </trkpt>
      <trkpt lat="34.85442" lon="128.572588">
        <ele>5.8</ele>
      </trkpt>
      <trkpt lat="34.854381" lon="128.572564">
        <ele>6.1</ele>
      </trkpt>
      <trkpt lat="34.85437408093795" lon="128.57258498668673">
        <ele>6.5</ele>
      </trkpt>
      <trkpt lat="34.854381" lon="128.572564">
        <ele>6.8</ele>
      </trkpt>
      <trkpt lat="34.854349" lon="128.572546">
        <ele>7.1</ele>
      </trkpt>
      <trkpt lat="34.853848" lon="128.57216">
        <ele>7.3</ele>
      </trkpt>
      <trkpt lat="34.853458" lon="128.571841">
        <ele>7.6</ele>
      </trkpt>
      <trkpt lat="34.853249" lon="128.571727">
        <ele>7.8</ele>
      </trkpt>
      <trkpt lat="34.852938" lon="128.571596">
        <ele>8.0</ele>
      </trkpt>
      <trkpt lat="34.852748" lon="128.571472">
        <ele>8.2</ele>
      </trkpt>
      <trkpt lat="34.852217" lon="128.570913">
        <ele>8.4</ele>
      </trkpt>
      <trkpt lat="34.852165" lon="128.570866">
        <ele>8.5</ele>
      </trkpt>
      <trkpt lat="34.85214219599806" lon="128.5709059238434">
        <ele>8.6</ele>
      </trkpt>
      <trkpt lat="34.852165" lon="128.570866">
        <ele>8.7</ele>
      </trkpt>
      <trkpt lat="34.851829" lon="128.570567">
        <ele>8.8</ele>
      </trkpt>
      <trkpt lat="34.851709" lon="128.570511">
        <ele>8.8</ele>
      </trkpt>
      <trkpt lat="34.85152" lon="128.570481">
        <ele>8.8</ele>
      </trkpt>
      <trkpt lat="34.851148" lon="128.570494">
        <ele>8.8</ele>
      </trkpt>
      <trkpt lat="34.850923" lon="128.570457">
        <ele>8.8</ele>
      </trkpt>
      <trkpt lat="34.850776" lon="128.570395">
        <ele>8.8</ele>
      </trkpt>
      <trkpt lat="34.850642" lon="128.570307">
        <ele>8.8</ele>
      </trkpt>
      <trkpt lat="34.850512" lon="128.570182">
        <ele>8.8</ele>
      </trkpt>
      <trkpt lat="34.850459" lon="128.57012">
        <ele>8.7</ele>
      </trkpt>
      <trkpt lat="34.850442" lon="128.570105">
        <ele>8.7</ele>
      </trkpt>
      <trkpt lat="34.850369" lon="128.570015">
        <ele>8.6</ele>
      </trkpt>
      <trkpt lat="34.850359" lon="128.570003">
        <ele>8.5</ele>
      </trkpt>
      <trkpt lat="34.849627" lon="128.569141">
        <ele>8.4</ele>
      </trkpt>
      <trkpt lat="34.849619696944146" lon="128.56915175914767">
        <ele>8.4</ele>
      </trkpt>
      <trkpt lat="34.849627" lon="128.569141">
        <ele>8.3</ele>
      </trkpt>
      <trkpt lat="34.849601" lon="128.569111">
        <ele>8.1</ele>
      </trkpt>
      <trkpt lat="34.849506" lon="128.568999">
        <ele>8.0</ele>
      </trkpt>
      <trkpt lat="34.848207" lon="128.567433">
        <ele>7.9</ele>
      </trkpt>
      <trkpt lat="34.848153" lon="128.567373">
        <ele>7.8</ele>
      </trkpt>
      <trkpt lat="34.84813169439929" lon="128.56740295886993">
        <ele>7.6</ele>
      </trkpt>
      <trkpt lat="34.848153" lon="128.567373">
        <ele>7.5</ele>
      </trkpt>
      <trkpt lat="34.84792" lon="128.567116">
        <ele>7.4</ele>
      </trkpt>
      <trkpt lat="34.847839" lon="128.567017">
        <ele>7.3</ele>
      </trkpt>
      <trkpt lat="34.847214" lon="128.566259">
        <ele>7.2</ele>
      </trkpt>
      <trkpt lat="34.84716" lon="128.566191">
        <ele>7.1</ele>
      </trkpt>
      <trkpt lat="34.847109" lon="128.566076">
        <ele>7.0</ele>
      </trkpt>
      <trkpt lat="34.84708" lon="128.56595">
        <ele>7.0</ele>
      </trkpt>
      <trkpt lat="34.847031" lon="128.565614">
        <ele>6.9</ele>
      </trkpt>
      <trkpt lat="34.84698" lon="128.56536">
        <ele>6.9</ele>
      </trkpt>
      <trkpt lat="34.84694" lon="128.56524">
        <ele>6.9</ele>
      </trkpt>
      <trkpt lat="34.84689" lon="128.56515">
        <ele>7.0</ele>
      </trkpt>
      <trkpt lat="34.846347" lon="128.564545">
        <ele>7.0</ele>
      </trkpt>
      <trkpt lat="34.84611" lon="128.564344">
        <ele>7.1</ele>
      </trkpt>
      <trkpt lat="34.846093351381995" lon="128.56437742710116">
        <ele>7.3</ele>
      </trkpt>
      <trkpt lat="34.84611" lon="128.564344">
        <ele>7.4</ele>
      </trkpt>
      <trkpt lat="34.84546" lon="128.56379">
        <ele>7.6</ele>
      </trkpt>
      <trkpt lat="34.845008" lon="128.563413">
        <ele>7.8</ele>
      </trkpt>
      <trkpt lat="34.84486" lon="128.56329">
        <ele>8.1</ele>
      </trkpt>
      <trkpt lat="34.844557" lon="128.563066">
        <ele>8.3</ele>
      </trkpt>
      <trkpt lat="34.844258" lon="128.562883">
        <ele>8.6</ele>
      </trkpt>
      <trkpt lat="34.844078" lon="128.562776">
        <ele>9.0</ele>
      </trkpt>
      <trkpt lat="34.843986" lon="128.562722">
        <ele>9.3</ele>
      </trkpt>
      <trkpt lat="34.843824" lon="128.562628">
        <ele>9.7</ele>
      </trkpt>
      <trkpt lat="34.843706" lon="128.562557">
        <ele>10.2</ele>
      </trkpt>
      <trkpt lat="34.843583" lon="128.562483">
        <ele>10.7</ele>
      </trkpt>
      <trkpt lat="34.84334" lon="128.56235">
        <ele>11.2</ele>
      </trkpt>
      <trkpt lat="34.843244" lon="128.562311">
        <ele>11.7</ele>
      </trkpt>
      <trkpt lat="34.843128" lon="128.562289">
        <ele>12.3</ele>
      </trkpt>
      <trkpt lat="34.842786" lon="128.56226">
        <ele>12.9</ele>
      </trkpt>
      <trkpt lat="34.842681" lon="128.562252">
        <ele>13.5</ele>
      </trkpt>
      <trkpt lat="34.842576" lon="128.562233">
        <ele>14.2</ele>
      </trkpt>
      <trkpt lat="34.842575660135246" lon="128.56224775314334">
        <ele>14.9</ele>
      </trkpt>
      <trkpt lat="34.842576" lon="128.562233">
        <ele>15.6</ele>
      </trkpt>
      <trkpt lat="34.842465" lon="128.562213">
        <ele>16.4</ele>
      </trkpt>
      <trkpt lat="34.842109" lon="128.562134">
        <ele>17.2</ele>
      </trkpt>
      <trkpt lat="34.841939" lon="128.562094">
        <ele>18.1</ele>
      </trkpt>
      <trkpt lat="34.841745" lon="128.562049">
        <ele>18.9</ele>
      </trkpt>
      <trkpt lat="34.841298" lon="128.561989">
        <ele>19.8</ele>
      </trkpt>
      <trkpt lat="34.841044" lon="128.56197">
        <ele>20.8</ele>
      </trkpt>
      <trkpt lat="34.840651" lon="128.561923">
        <ele>21.7</ele>
      </trkpt>
      <trkpt lat="34.840469" lon="128.561893">
        <ele>22.7</ele>
      </trkpt>
      <trkpt lat="34.840296" lon="128.561846">
        <ele>23.7</ele>
      </trkpt>
      <trkpt lat="34.84014" lon="128.561779">
        <ele>24.7</ele>
      </trkpt>
      <trkpt lat="34.839974" lon="128.561698">
        <ele>25.7</ele>
      </trkpt>
      <trkpt lat="34.83981" lon="128.561634">
        <ele>26.7</ele>
      </trkpt>
      <trkpt lat="34.839546" lon="128.561578">
        <ele>27.7</ele>
      </trkpt>
      <trkpt lat="34.83945" lon="128.561572">
        <ele>28.7</ele>
      </trkpt>
      <trkpt lat="34.839328" lon="128.561575">
        <ele>29.7</ele>
      </trkpt>
      <trkpt lat="34.838636" lon="128.561622">
        <ele>30.7</ele>
      </trkpt>
      <trkpt lat="34.838526" lon="128.561622">
        <ele>31.6</ele>
      </trkpt>
      <trkpt lat="34.838409" lon="128.56161">
        <ele>32.6</ele>
      </trkpt>
      <trkpt lat="34.83832" lon="128.561582">
        <ele>33.5</ele>
      </trkpt>
      <trkpt lat="34.83832253102712" lon="128.56157720088962">
        <ele>34.4</ele>
      </trkpt>
      <trkpt lat="34.83832" lon="128.561582">
        <ele>35.2</ele>
      </trkpt>
      <trkpt lat="34.838317" lon="128.561581">
        <ele>36.0</ele>
      </trkpt>
      <trkpt lat="34.838169" lon="128.561505">
        <ele>36.8</ele>
      </trkpt>
      <trkpt lat="34.838022" lon="128.561375">
        <ele>37.6</ele>
      </trkpt>
      <trkpt lat="34.83787" lon="128.561193">
        <ele>38.3</ele>
      </trkpt>
      <trkpt lat="34.837774" lon="128.561051">
        <ele>39.0</ele>
      </trkpt>
      <trkpt lat="34.837677" lon="128.560954">
        <ele>39.7</ele>
      </trkpt>
      <trkpt lat="34.837545" lon="128.560858">
        <ele>40.3</ele>
      </trkpt>
      <trkpt lat="34.83737" lon="128.560763">
        <ele>40.9</ele>
      </trkpt>
      <trkpt lat="34.837053" lon="128.560587">
        <ele>41.5</ele>
      </trkpt>
      <trkpt lat="34.836878" lon="128.560489">
        <ele>42.0</ele>
      </trkpt>
      <trkpt lat="34.836765" lon="128.560406">
        <ele>42.4</ele>
      </trkpt>
      <trkpt lat="34.836614" lon="128.560251">
        <ele>42.9</ele>
      </trkpt>
      <trkpt lat="34.836384" lon="128.559955">
        <ele>43.2</ele>
      </trkpt>
      <trkpt lat="34.836296" lon="128.559866">
        <ele>43.5</ele>
      </trkpt>
      <trkpt lat="34.836178" lon="128.559805">
        <ele>43.8</ele>
      </trkpt>
      <trkpt lat="34.835955" lon="128.559712">
        <ele>44.0</ele>
      </trkpt>
      <trkpt lat="34.835771" lon="128.559628">
        <ele>44.1</ele>
      </trkpt>
      <trkpt lat="34.835703" lon="128.55956">
        <ele>44.2</ele>
      </trkpt>
      <trkpt lat="34.835633" lon="128.559435">
        <ele>44.2</ele>
      </trkpt>
      <trkpt lat="34.835569" lon="128.559266">
        <ele>44.1</ele>
      </trkpt>
      <trkpt lat="34.835523" lon="128.559107">
        <ele>44.0</ele>
      </trkpt>
      <trkpt lat="34.83551781116473" lon="128.55910956859591">
        <ele>43.8</ele>
      </trkpt>
      <trkpt lat="34.835523" lon="128.559107">
        <ele>43.6</ele>
      </trkpt>
      <trkpt lat="34.835409" lon="128.558701">
        <ele>43.4</ele>
      </trkpt>
      <trkpt lat="34.835279" lon="128.55823">
        <ele>43.1</ele>
      </trkpt>
      <trkpt lat="34.835187" lon="128.557891">
        <ele>42.8</ele>
      </trkpt>
      <trkpt lat="34.835109" lon="128.557611">
        <ele>42.5</ele>
      </trkpt>
      <trkpt lat="34.834989" lon="128.557181">
        <ele>42.1</ele>
      </trkpt>
      <trkpt lat="34.834845" lon="128.556714">
        <ele>41.8</ele>
      </trkpt>
      <trkpt lat="34.834739" lon="128.556389">
        <ele>41.4</ele>
      </trkpt>
      <trkpt lat="34.834659" lon="128.556136">
        <ele>41.1</ele>
      </trkpt>
      <trkpt lat="34.834342" lon="128.555162">
        <ele>40.7</ele>
      </trkpt>
      <trkpt lat="34.834302" lon="128.555022">
        <ele>40.3</ele>
      </trkpt>
      <trkpt lat="34.834275" lon="128.554897">
        <ele>39.9</ele>
      </trkpt>
      <trkpt lat="34.834269" lon="128.554772">
        <ele>39.5</ele>
      </trkpt>
      <trkpt lat="34.834275" lon="128.554711">
        <ele>39.1</ele>
      </trkpt>
      <trkpt lat="34.834283" lon="128.554634">
        <ele>38.7</ele>
      </trkpt>
      <trkpt lat="34.83431" lon="128.554522">
        <ele>38.3</ele>
      </trkpt>
      <trkpt lat="34.834391" lon="128.5543">
        <ele>37.9</ele>
      </trkpt>
      <trkpt lat="34.834442" lon="128.554115">
        <ele>37.5</ele>
      </trkpt>
      <trkpt lat="34.834444" lon="128.55407">
        <ele>37.1</ele>
      </trkpt>
      <trkpt lat="34.83441262842909" lon="128.55406701564792">
        <ele>36.7</ele>
      </trkpt>
      <trkpt lat="34.834444" lon="128.55407">
        <ele>36.3</ele>
      </trkpt>
      <trkpt lat="34.834448" lon="128.554023">
        <ele>35.9</ele>
      </trkpt>
      <trkpt lat="34.834425" lon="128.553826">
        <ele>35.6</ele>
      </trkpt>
      <trkpt lat="34.834332" lon="128.553254">
        <ele>35.2</ele>
      </trkpt>
      <trkpt lat="34.834255" lon="128.552781">
        <ele>34.8</ele>
      </trkpt>
      <trkpt lat="34.834207" lon="128.552439">
        <ele>34.5</ele>
      </trkpt>
      <trkpt lat="34.834206" lon="128.552189">
        <ele>34.2</ele>
      </trkpt>
      <trkpt lat="34.834226" lon="128.551966">
        <ele>33.9</ele>
      </trkpt>
      <trkpt lat="34.834254" lon="128.551738">
        <ele>33.7</ele>
      </trkpt>
      <trkpt lat="34.834301" lon="128.551465">
        <ele>33.5</ele>
      </trkpt>
      <trkpt lat="34.834333" lon="128.551318">
        <ele>33.3</ele>
      </trkpt>
      <trkpt lat="34.834386" lon="128.551141">
        <ele>33.1</ele>
      </trkpt>
      <trkpt lat="34.834543" lon="128.550742">
        <ele>32.9</ele>
      </trkpt>
      <trkpt lat="34.834593" lon="128.55053">
        <ele>32.8</ele>
      </trkpt>
      <trkpt lat="34.834609" lon="128.55033">
        <ele>32.6</ele>
      </trkpt>
      <trkpt lat="34.834612" lon="128.550013">
        <ele>32.5</ele>
      </trkpt>
      <trkpt lat="34.834625" lon="128.549778">
        <ele>32.3</ele>
      </trkpt>
      <trkpt lat="34.834655" lon="128.549568">
        <ele>32.1</ele>
      </trkpt>
      <trkpt lat="34.834814" lon="128.548612">
        <ele>32.0</ele>
      </trkpt>
      <trkpt lat="34.834827" lon="128.548513">
        <ele>31.8</ele>
      </trkpt>
      <trkpt lat="34.834823" lon="128.548368">
        <ele>31.6</ele>
      </trkpt>
      <trkpt lat="34.83480891082374" lon="128.5483700045684">
        <ele>31.4</ele>
      </trkpt>
      <trkpt lat="34.834823" lon="128.548368">
        <ele>31.2</ele>
      </trkpt>
      <trkpt lat="34.834823" lon="128.548322">
        <ele>30.9</ele>
      </trkpt>
      <trkpt lat="34.834773" lon="128.547893">
        <ele>30.7</ele>
      </trkpt>
      <trkpt lat="34.834723" lon="128.547526">
        <ele>30.4</ele>
      </trkpt>
      <trkpt lat="34.834693" lon="128.547401">
        <ele>30.1</ele>
      </trkpt>
      <trkpt lat="34.834632" lon="128.547295">
        <ele>29.8</ele>
      </trkpt>
      <trkpt lat="34.834414" lon="128.547005">
        <ele>29.4</ele>
      </trkpt>
      <trkpt lat="34.834382" lon="128.546917">
        <ele>29.1</ele>
      </trkpt>
      <trkpt lat="34.834377" lon="128.546808">
        <ele>28.7</ele>
      </trkpt>
      <trkpt lat="34.834418" lon="128.546597">
        <ele>28.4</ele>
      </trkpt>
      <trkpt lat="34.834468" lon="128.546426">
        <ele>28.0</ele>
      </trkpt>
      <trkpt lat="34.834501" lon="128.546332">
        <ele>27.6</ele>
      </trkpt>
      <trkpt lat="34.834564" lon="128.546226">
        <ele>27.2</ele>
      </trkpt>
      <trkpt lat="34.834651" lon="128.546143">
        <ele>26.8</ele>
      </trkpt>
      <trkpt lat="34.83483" lon="128.546051">
        <ele>26.3</ele>
      </trkpt>
      <trkpt lat="34.835002" lon="128.545951">
        <ele>25.9</ele>
      </trkpt>
      <trkpt lat="34.835085" lon="128.54588">
        <ele>25.4</ele>
      </trkpt>
      <trkpt lat="34.835131" lon="128.545786">
        <ele>24.9</ele>
      </trkpt>
      <trkpt lat="34.835156" lon="128.545673">
        <ele>24.4</ele>
      </trkpt>
      <trkpt lat="34.835177" lon="128.545446">
        <ele>23.8</ele>
      </trkpt>
      <trkpt lat="34.835215" lon="128.545126">
        <ele>23.3</ele>
      </trkpt>
      <trkpt lat="34.835246" lon="128.544987">
        <ele>22.7</ele>
      </trkpt>
      <trkpt lat="34.835281" lon="128.544878">
        <ele>22.1</ele>
      </trkpt>
      <trkpt lat="34.835339" lon="128.544783">
        <ele>21.6</ele>
      </trkpt>
      <trkpt lat="34.835395" lon="128.54471">
        <ele>21.0</ele>
      </trkpt>
      <trkpt lat="34.835499" lon="128.544609">
        <ele>20.4</ele>
      </trkpt>
      <trkpt lat="34.836083" lon="128.54415">
        <ele>19.9</ele>
      </trkpt>
      <trkpt lat="34.83618" lon="128.544047">
        <ele>19.3</ele>
      </trkpt>
      <trkpt lat="34.836276" lon="128.543922">
        <ele>18.8</ele>
      </trkpt>
      <trkpt lat="34.836405" lon="128.543727">
        <ele>18.3</ele>
      </trkpt>
      <trkpt lat="34.836793" lon="128.543109">
        <ele>17.9</ele>
      </trkpt>
      <trkpt lat="34.836884" lon="128.542949">
        <ele>17.4</ele>
      </trkpt>
      <trkpt lat="34.836956" lon="128.542792">
        <ele>17.0</ele>
      </trkpt>
      <trkpt lat="34.836999" lon="128.542656">
        <ele>16.7</ele>
      </trkpt>
      <trkpt lat="34.83700163875728" lon="128.54265689849856">
        <ele>16.4</ele>
      </trkpt>
      <trkpt lat="34.836999" lon="128.542656">
        <ele>16.1</ele>
      </trkpt>
      <trkpt lat="34.837044" lon="128.54252">
        <ele>15.9</ele>
      </trkpt>
      <trkpt lat="34.837227" lon="128.541835">
        <ele>15.7</ele>
      </trkpt>
      <trkpt lat="34.837323" lon="128.541453">
        <ele>15.5</ele>
      </trkpt>
      <trkpt lat="34.837342" lon="128.541347">
        <ele>15.4</ele>
      </trkpt>
      <trkpt lat="34.837357" lon="128.541237">
        <ele>15.3</ele>
      </trkpt>
      <trkpt lat="34.83736" lon="128.54108">
        <ele>15.3</ele>
      </trkpt>
      <trkpt lat="34.837351" lon="128.540972">
        <ele>15.3</ele>
      </trkpt>
      <trkpt lat="34.837293" lon="128.540646">
        <ele>15.3</ele>
      </trkpt>
      <trkpt lat="34.837003" lon="128.539525">
        <ele>15.4</ele>
      </trkpt>
      <trkpt lat="34.836976" lon="128.539419">
        <ele>15.6</ele>
      </trkpt>
      <trkpt lat="34.836893" lon="128.539099">
        <ele>15.8</ele>
      </trkpt>
      <trkpt lat="34.836709" lon="128.538396">
        <ele>16.0</ele>
      </trkpt>
      <trkpt lat="34.836667" lon="128.538321">
        <ele>16.3</ele>
      </trkpt>
      <trkpt lat="34.836603" lon="128.538234">
        <ele>16.7</ele>
      </trkpt>
      <trkpt lat="34.836561" lon="128.538204">
        <ele>17.1</ele>
      </trkpt>
      <trkpt lat="34.836562685499366" lon="128.53820341610015">
        <ele>17.5</ele>
      </trkpt>
      <trkpt lat="34.836561" lon="128.538204">
        <ele>17.9</ele>
      </trkpt>
      <trkpt lat="34.836494" lon="128.538156">
        <ele>18.3</ele>
      </trkpt>
      <trkpt lat="34.836365" lon="128.538102">
        <ele>18.7</ele>
      </trkpt>
      <trkpt lat="34.836145" lon="128.538041">
        <ele>19.1</ele>
      </trkpt>
      <trkpt lat="34.835606" lon="128.537916">
        <ele>19.6</ele>
      </trkpt>
      <trkpt lat="34.835105" lon="128.537813">
        <ele>19.9</ele>
      </trkpt>
      <trkpt lat="34.834981" lon="128.537768">
        <ele>20.3</ele>
      </trkpt>
      <trkpt lat="34.834788" lon="128.537667">
        <ele>20.6</ele>
      </trkpt>
      <trkpt lat="34.834732" lon="128.537605">
        <ele>21.0</ele>
      </trkpt>
      <trkpt lat="34.834631" lon="128.53753">
        <ele>21.3</ele>
      </trkpt>
      <trkpt lat="34.834537" lon="128.53739">
        <ele>21.6</ele>
      </trkpt>
      <trkpt lat="34.834343" lon="128.536806">
        <ele>21.9</ele>
      </trkpt>
      <trkpt lat="34.83424" lon="128.5367">
        <ele>22.1</ele>
      </trkpt>
      <trkpt lat="34.834171" lon="128.536648">
        <ele>22.4</ele>
      </trkpt>
      <trkpt lat="34.834051" lon="128.536622">
        <ele>22.6</ele>
      </trkpt>
      <trkpt lat="34.834053068694196" lon="128.536621244442">
        <ele>22.8</ele>
      </trkpt>
      <trkpt lat="34.834051" lon="128.536622">
        <ele>22.9</ele>
      </trkpt>
      <trkpt lat="34.834006" lon="128.536612">
        <ele>23.0</ele>
      </trkpt>
      <trkpt lat="34.833667" lon="128.536725">
        <ele>23.1</ele>
      </trkpt>
      <trkpt lat="34.833165" lon="128.536949">
        <ele>23.1</ele>
      </trkpt>
      <trkpt lat="34.832734" lon="128.537175">
        <ele>23.1</ele>
      </trkpt>
      <trkpt lat="34.832343" lon="128.537454">
        <ele>23.0</ele>
      </trkpt>
      <trkpt lat="34.832158" lon="128.537625">
        <ele>22.8</ele>
      </trkpt>
      <trkpt lat="34.831901" lon="128.537833">
        <ele>22.6</ele>
      </trkpt>
      <trkpt lat="34.831618" lon="128.537924">
        <ele>22.3</ele>
      </trkpt>
      <trkpt lat="34.831393" lon="128.537933">
        <ele>21.9</ele>
      </trkpt>
      <trkpt lat="34.831208" lon="128.537855">
        <ele>21.5</ele>
      </trkpt>
      <trkpt lat="34.830804" lon="128.537504">
        <ele>21.0</ele>
      </trkpt>
      <trkpt lat="34.830513" lon="128.537331">
        <ele>20.4</ele>
      </trkpt>
      <trkpt lat="34.830147" lon="128.5372">
        <ele>19.8</ele>
      </trkpt>
      <trkpt lat="34.829563" lon="128.537193">
        <ele>19.2</ele>
      </trkpt>
      <trkpt lat="34.829171" lon="128.537291">
        <ele>18.6</ele>
      </trkpt>
      <trkpt lat="34.82916390869747" lon="128.53724956512454">
        <ele>17.9</ele>
      </trkpt>
      <trkpt lat="34.829171" lon="128.537291">
        <ele>17.3</ele>
      </trkpt>
      <trkpt lat="34.82903" lon="128.537327">
        <ele>16.8</ele>
      </trkpt>
      <trkpt lat="34.824367" lon="128.538766">
        <ele>16.2</ele>
      </trkpt>
      <trkpt lat="34.82436789050026" lon="128.5387666493772">
        <ele>15.7</ele>
      </trkpt>
      <trkpt lat="34.824367" lon="128.538766">
        <ele>15.2</ele>
      </trkpt>
      <trkpt lat="34.824204" lon="128.538817">
        <ele>14.7</ele>
      </trkpt>
      <trkpt lat="34.824142" lon="128.538821">
        <ele>14.2</ele>
      </trkpt>
      <trkpt lat="34.824" lon="128.538784">
        <ele>13.7</ele>
      </trkpt>
      <trkpt lat="34.823782" lon="128.538644">
        <ele>13.2</ele>
      </trkpt>
      <trkpt lat="34.823674" lon="128.538465">
        <ele>12.7</ele>
      </trkpt>
      <trkpt lat="34.823592" lon="128.53828">
        <ele>12.2</ele>
      </trkpt>
      <trkpt lat="34.823546" lon="128.538029">
        <ele>11.7</ele>
      </trkpt>
      <trkpt lat="34.823546" lon="128.537844">
        <ele>11.1</ele>
      </trkpt>
      <trkpt lat="34.823556" lon="128.53767">
        <ele>10.6</ele>
      </trkpt>
      <trkpt lat="34.823625" lon="128.537494">
        <ele>10.1</ele>
      </trkpt>
      <trkpt lat="34.823705" lon="128.537353">
        <ele>9.6</ele>
      </trkpt>
      <trkpt lat="34.823831" lon="128.5372">
        <ele>9.1</ele>
      </trkpt>
      <trkpt lat="34.823916" lon="128.537113">
        <ele>8.7</ele>
      </trkpt>
      <trkpt lat="34.823931" lon="128.537022">
        <ele>8.3</ele>
      </trkpt>
      <trkpt lat="34.82391808216395" lon="128.53701875071314">
        <ele>8.0</ele>
      </trkpt>
      <trkpt lat="34.823931" lon="128.537022">
        <ele>7.7</ele>
      </trkpt>
      <trkpt lat="34.823965" lon="128.536822">
        <ele>7.5</ele>
      </trkpt>
      <trkpt lat="34.82389" lon="128.536666">
        <ele>7.3</ele>
      </trkpt>
      <trkpt lat="34.823798" lon="128.536538">
        <ele>7.1</ele>
      </trkpt>
      <trkpt lat="34.823293" lon="128.536098">
        <ele>7.0</ele>
      </trkpt>
      <trkpt lat="34.82302" lon="128.535901">
        <ele>6.9</ele>
      </trkpt>
      <trkpt lat="34.82289" lon="128.535584">
        <ele>6.8</ele>
      </trkpt>
      <trkpt lat="34.822796" lon="128.535189">
        <ele>6.8</ele>
      </trkpt>
      <trkpt lat="34.822769882006924" lon="128.53520035743716">
        <ele>6.8</ele>
      </trkpt>
      <trkpt lat="34.822796" lon="128.535189">
        <ele>6.8</ele>
      </trkpt>
      <trkpt lat="34.82276" lon="128.535038">
        <ele>6.8</ele>
      </trkpt>
      <trkpt lat="34.822589" lon="128.534845">
        <ele>6.8</ele>
      </trkpt>
      <trkpt lat="34.82227" lon="128.534691">
        <ele>6.7</ele>
      </trkpt>
      <trkpt lat="34.821935" lon="128.534629">
        <ele>6.6</ele>
      </trkpt>
      <trkpt lat="34.821197" lon="128.534435">
        <ele>6.5</ele>
      </trkpt>
      <trkpt lat="34.820803" lon="128.534331">
        <ele>6.4</ele>
      </trkpt>
      <trkpt lat="34.820508" lon="128.534163">
        <ele>6.3</ele>
      </trkpt>
      <trkpt lat="34.820204" lon="128.533899">
        <ele>6.2</ele>
      </trkpt>
      <trkpt lat="34.819889" lon="128.533851">
        <ele>6.1</ele>
      </trkpt>
      <trkpt lat="34.819254" lon="128.533549">
        <ele>6.0</ele>
      </trkpt>
      <trkpt lat="34.818919" lon="128.533203">
        <ele>5.8</ele>
      </trkpt>
      <trkpt lat="34.818687" lon="128.532977">
        <ele>5.7</ele>
      </trkpt>
      <trkpt lat="34.818498" lon="128.532872">
        <ele>5.6</ele>
      </trkpt>
      <trkpt lat="34.818265" lon="128.532814">
        <ele>5.5</ele>
      </trkpt>
      <trkpt lat="34.817871" lon="128.53279">
        <ele>5.4</ele>
      </trkpt>
      <trkpt lat="34.817626" lon="128.532795">
        <ele>5.3</ele>
      </trkpt>
      <trkpt lat="34.81728" lon="128.532857">
        <ele>5.2</ele>
      </trkpt>
      <trkpt lat="34.816963" lon="128.532792">
        <ele>5.0</ele>
      </trkpt>
      <trkpt lat="34.81696020875498" lon="128.53282827671254">
        <ele>4.9</ele>
      </trkpt>
      <trkpt lat="34.816963" lon="128.532792">
        <ele>4.7</ele>
      </trkpt>
      <trkpt lat="34.816834" lon="128.532766">
        <ele>4.5</ele>
      </trkpt>
      <trkpt lat="34.816416" lon="128.532555">
        <ele>4.3</ele>
      </trkpt>
      <trkpt lat="34.816203" lon="128.532353">
        <ele>4.1</ele>
      </trkpt>
      <trkpt lat="34.815519" lon="128.532217">
        <ele>3.9</ele>
      </trkpt>
      <trkpt lat="34.815285" lon="128.532171">
        <ele>3.6</ele>
      </trkpt>
      <trkpt lat="34.814962" lon="128.532084">
        <ele>3.4</ele>
      </trkpt>
      <trkpt lat="34.814652" lon="128.531928">
        <ele>3.2</ele>
      </trkpt>
      <trkpt lat="34.814418" lon="128.531811">
        <ele>3.0</ele>
      </trkpt>
      <trkpt lat="34.81346" lon="128.531307">
        <ele>2.8</ele>
      </trkpt>
      <trkpt lat="34.813105" lon="128.531014">
        <ele>2.5</ele>
      </trkpt>
      <trkpt lat="34.812873" lon="128.530404">
        <ele>2.3</ele>
      </trkpt>
      <trkpt lat="34.812806" lon="128.530149">
        <ele>2.1</ele>
      </trkpt>
      <trkpt lat="34.812786" lon="128.52989">
        <ele>1.9</ele>
      </trkpt>
      <trkpt lat="34.812735" lon="128.529703">
        <ele>1.7</ele>
      </trkpt>
      <trkpt lat="34.812526" lon="128.529458">
        <ele>1.6</ele>
      </trkpt>
      <trkpt lat="34.812421" lon="128.52927">
        <ele>1.4</ele>
      </trkpt>
      <trkpt lat="34.81244735360354" lon="128.5292511001001">
        <ele>1.2</ele>
      </trkpt>
      <trkpt lat="34.812421" lon="128.52927">
        <ele>1.1</ele>
      </trkpt>
      <trkpt lat="34.812305" lon="128.529064">
        <ele>0.9</ele>
      </trkpt>
      <trkpt lat="34.812246" lon="128.528709">
        <ele>0.8</ele>
      </trkpt>
      <trkpt lat="34.812338" lon="128.528382">
        <ele>0.7</ele>
      </trkpt>
      <trkpt lat="34.812405" lon="128.528247">
        <ele>0.7</ele>
      </trkpt>
      <trkpt lat="34.812296" lon="128.527688">
        <ele>0.6</ele>
      </trkpt>
      <trkpt lat="34.81226" lon="128.527614">
        <ele>0.6</ele>
      </trkpt>
      <trkpt lat="34.811726" lon="128.526815">
        <ele>0.6</ele>
      </trkpt>
      <trkpt lat="34.811665" lon="128.526733">
        <ele>0.6</ele>
      </trkpt>
      <trkpt lat="34.81158" lon="128.526683">
        <ele>0.6</ele>
      </trkpt>
      <trkpt lat="34.811476" lon="128.52667">
        <ele>0.6</ele>
      </trkpt>
      <trkpt lat="34.811339" lon="128.526702">
        <ele>0.7</ele>
      </trkpt>
      <trkpt lat="34.811091" lon="128.526861">
        <ele>0.7</ele>
      </trkpt>
      <trkpt lat="34.810882" lon="128.526937">
        <ele>0.7</ele>
      </trkpt>
      <trkpt lat="34.810208" lon="128.526793">
        <ele>0.8</ele>
      </trkpt>
      <trkpt lat="34.810107" lon="128.526831">
        <ele>0.9</ele>
      </trkpt>
      <trkpt lat="34.81010806856728" lon="128.5268318653107">
        <ele>0.9</ele>
      </trkpt>
      <trkpt lat="34.810107" lon="128.526831">
        <ele>1.0</ele>
      </trkpt>
      <trkpt lat="34.809356" lon="128.527115">
        <ele>1.1</ele>
      </trkpt>
      <trkpt lat="34.8083" lon="128.527096">
        <ele>1.2</ele>
      </trkpt>
      <trkpt lat="34.807484" lon="128.526894">
        <ele>1.2</ele>
      </trkpt>
      <trkpt lat="34.806612" lon="128.526894">
        <ele>1.3</ele>
      </trkpt>
      <trkpt lat="34.8066119804181" lon="128.5268764820458">
        <ele>1.4</ele>
      </trkpt>
      <trkpt lat="34.806612" lon="128.526894">
        <ele>1.5</ele>
      </trkpt>
      <trkpt lat="34.806143" lon="128.526894">
        <ele>1.6</ele>
      </trkpt>
      <trkpt lat="34.805844" lon="128.52711">
        <ele>1.6</ele>
      </trkpt>
      <trkpt lat="34.805264" lon="128.527245">
        <ele>1.8</ele>
      </trkpt>
      <trkpt lat="34.804566" lon="128.527826">
        <ele>1.9</ele>
      </trkpt>
      <trkpt lat="34.80444" lon="128.527861">
        <ele>2.0</ele>
      </trkpt>
      <trkpt lat="34.803853" lon="128.528027">
        <ele>2.2</ele>
      </trkpt>
      <trkpt lat="34.80344" lon="128.527983">
        <ele>2.4</ele>
      </trkpt>
      <trkpt lat="34.80343855564792" lon="128.52802287113983">
        <ele>2.5</ele>
      </trkpt>
      <trkpt lat="34.80344" lon="128.527983">
        <ele>2.7</ele>
      </trkpt>
      <trkpt lat="34.803171" lon="128.527955">
        <ele>2.9</ele>
      </trkpt>
      <trkpt lat="34.80297" lon="128.527984">
        <ele>3.0</ele>
      </trkpt>
      <trkpt lat="34.80269" lon="128.528191">
        <ele>3.1</ele>
      </trkpt>
      <trkpt lat="34.802596" lon="128.52836">
        <ele>3.2</ele>
      </trkpt>
      <trkpt lat="34.802527" lon="128.528624">
        <ele>3.2</ele>
      </trkpt>
      <trkpt lat="34.802405" lon="128.529444">
        <ele>3.3</ele>
      </trkpt>
      <trkpt lat="34.802355" lon="128.529602">
        <ele>3.3</ele>
      </trkpt>
      <trkpt lat="34.802325042450306" lon="128.529589176178">
        <ele>3.3</ele>
      </trkpt>
      <trkpt lat="34.802355" lon="128.529602">
        <ele>3.4</ele>
      </trkpt>
      <trkpt lat="34.802251" lon="128.52994">
        <ele>3.4</ele>
      </trkpt>
      <trkpt lat="34.802215" lon="128.530229">
        <ele>3.4</ele>
      </trkpt>
      <trkpt lat="34.80229" lon="128.530828">
        <ele>3.5</ele>
      </trkpt>
      <trkpt lat="34.80224135000356" lon="128.53083908557895">
        <ele>3.5</ele>
      </trkpt>
      <trkpt lat="34.80229" lon="128.530828">
        <ele>3.5</ele>
      </trkpt>
      <trkpt lat="34.802343" lon="128.531244">
        <ele>3.6</ele>
      </trkpt>
      <trkpt lat="34.802596" lon="128.531892">
        <ele>3.6</ele>
      </trkpt>
      <trkpt lat="34.80254528532523" lon="128.53192269802096">
        <ele>3.6</ele>
      </trkpt>
      <trkpt lat="34.802596" lon="128.531892">
        <ele>3.7</ele>
      </trkpt>
      <trkpt lat="34.802616" lon="128.531944">
        <ele>3.7</ele>
      </trkpt>
      <trkpt lat="34.802699" lon="128.532211">
        <ele>3.8</ele>
      </trkpt>
      <trkpt lat="34.802642192003766" lon="128.53223919868472">
        <ele>3.8</ele>
      </trkpt>
      <trkpt lat="34.802699" lon="128.532211">
        <ele>3.8</ele>
      </trkpt>
      <trkpt lat="34.802616" lon="128.531944">
        <ele>3.8</ele>
      </trkpt>
      <trkpt lat="34.802343" lon="128.531244">
        <ele>3.8</ele>
      </trkpt>
      <trkpt lat="34.802215" lon="128.530229">
        <ele>3.7</ele>
      </trkpt>
      <trkpt lat="34.802251" lon="128.52994">
        <ele>3.7</ele>
      </trkpt>
      <trkpt lat="34.802405" lon="128.529444">
        <ele>3.5</ele>
      </trkpt>
      <trkpt lat="34.802527" lon="128.528624">
        <ele>3.4</ele>
      </trkpt>
      <trkpt lat="34.802596" lon="128.52836">
        <ele>3.3</ele>
      </trkpt>
      <trkpt lat="34.80269" lon="128.528191">
        <ele>3.1</ele>
      </trkpt>
      <trkpt lat="34.80297" lon="128.527984">
        <ele>2.9</ele>
      </trkpt>
      <trkpt lat="34.803011" lon="128.527978">
        <ele>2.7</ele>
      </trkpt>
      <trkpt lat="34.80301219827385" lon="128.52797985076907">
        <ele>2.6</ele>
      </trkpt>
      <trkpt lat="34.803011" lon="128.527978">
        <ele>2.4</ele>
      </trkpt>
      <trkpt lat="34.803171" lon="128.527955">
        <ele>2.3</ele>
      </trkpt>
      <trkpt lat="34.803853" lon="128.528027">
        <ele>2.2</ele>
      </trkpt>
      <trkpt lat="34.80444" lon="128.527861">
        <ele>2.1</ele>
      </trkpt>
      <trkpt lat="34.804566" lon="128.527826">
        <ele>2.0</ele>
      </trkpt>
      <trkpt lat="34.805264" lon="128.527245">
        <ele>1.9</ele>
      </trkpt>
      <trkpt lat="34.805844" lon="128.52711">
        <ele>1.8</ele>
      </trkpt>
      <trkpt lat="34.806143" lon="128.526894">
        <ele>1.6</ele>
      </trkpt>
      <trkpt lat="34.807484" lon="128.526894">
        <ele>1.5</ele>
      </trkpt>
      <trkpt lat="34.807744" lon="128.526958">
        <ele>1.4</ele>
      </trkpt>
      <trkpt lat="34.807734037202664" lon="128.52702498435977">
        <ele>1.3</ele>
      </trkpt>
      <trkpt lat="34.807744" lon="128.526958">
        <ele>1.2</ele>
      </trkpt>
      <trkpt lat="34.8083" lon="128.527096">
        <ele>1.1</ele>
      </trkpt>
      <trkpt lat="34.809356" lon="128.527115">
        <ele>1.0</ele>
      </trkpt>
      <trkpt lat="34.810208" lon="128.526793">
        <ele>0.9</ele>
      </trkpt>
      <trkpt lat="34.810882" lon="128.526937">
        <ele>0.9</ele>
      </trkpt>
      <trkpt lat="34.811091" lon="128.526861">
        <ele>0.8</ele>
      </trkpt>
      <trkpt lat="34.811339" lon="128.526702">
        <ele>0.7</ele>
      </trkpt>
      <trkpt lat="34.811476" lon="128.52667">
        <ele>0.7</ele>
      </trkpt>
      <trkpt lat="34.81158" lon="128.526683">
        <ele>0.6</ele>
      </trkpt>
      <trkpt lat="34.811665" lon="128.526733">
        <ele>0.6</ele>
      </trkpt>
      <trkpt lat="34.811726" lon="128.526815">
        <ele>0.6</ele>
      </trkpt>
      <trkpt lat="34.81226" lon="128.527614">
        <ele>0.6</ele>
      </trkpt>
      <trkpt lat="34.812296" lon="128.527688">
        <ele>0.6</ele>
      </trkpt>
      <trkpt lat="34.812307" lon="128.527744">
        <ele>0.6</ele>
      </trkpt>
      <trkpt lat="34.81231448796529" lon="128.52774381267585">
        <ele>0.6</ele>
      </trkpt>
      <trkpt lat="34.812307" lon="128.527744">
        <ele>0.7</ele>
      </trkpt>
      <trkpt lat="34.812405" lon="128.528247">
        <ele>0.8</ele>
      </trkpt>
      <trkpt lat="34.812338" lon="128.528382">
        <ele>0.8</ele>
      </trkpt>
      <trkpt lat="34.812246" lon="128.528709">
        <ele>0.9</ele>
      </trkpt>
      <trkpt lat="34.812305" lon="128.529064">
        <ele>0.9</ele>
      </trkpt>
      <trkpt lat="34.812526" lon="128.529458">
        <ele>1.0</ele>
      </trkpt>
      <trkpt lat="34.812735" lon="128.529703">
        <ele>1.0</ele>
      </trkpt>
      <trkpt lat="34.812786" lon="128.52989">
        <ele>1.1</ele>
      </trkpt>
      <trkpt lat="34.812806" lon="128.530149">
        <ele>1.2</ele>
      </trkpt>
      <trkpt lat="34.812873" lon="128.530404">
        <ele>1.2</ele>
      </trkpt>
      <trkpt lat="34.813105" lon="128.531014">
        <ele>1.3</ele>
      </trkpt>
      <trkpt lat="34.81346" lon="128.531307">
        <ele>1.3</ele>
      </trkpt>
      <trkpt lat="34.814418" lon="128.531811">
        <ele>1.4</ele>
      </trkpt>
      <trkpt lat="34.814652" lon="128.531928">
        <ele>1.4</ele>
      </trkpt>
      <trkpt lat="34.814819" lon="128.532012">
        <ele>1.5</ele>
      </trkpt>
      <trkpt lat="34.81479849236517" lon="128.53207826244395">
        <ele>1.6</ele>
      </trkpt>
      <trkpt lat="34.814819" lon="128.532012">
        <ele>1.6</ele>
      </trkpt>
      <trkpt lat="34.814962" lon="128.532084">
        <ele>1.7</ele>
      </trkpt>
      <trkpt lat="34.815285" lon="128.532171">
        <ele>1.7</ele>
      </trkpt>
      <trkpt lat="34.815519" lon="128.532217">
        <ele>1.8</ele>
      </trkpt>
      <trkpt lat="34.816203" lon="128.532353">
        <ele>1.8</ele>
      </trkpt>
      <trkpt lat="34.816416" lon="128.532555">
        <ele>1.9</ele>
      </trkpt>
      <trkpt lat="34.816834" lon="128.532766">
        <ele>2.0</ele>
      </trkpt>
      <trkpt lat="34.81728" lon="128.532857">
        <ele>2.1</ele>
      </trkpt>
      <trkpt lat="34.817626" lon="128.532795">
        <ele>2.2</ele>
      </trkpt>
      <trkpt lat="34.817871" lon="128.53279">
        <ele>2.3</ele>
      </trkpt>
      <trkpt lat="34.818265" lon="128.532814">
        <ele>2.4</ele>
      </trkpt>
      <trkpt lat="34.818498" lon="128.532872">
        <ele>2.6</ele>
      </trkpt>
      <trkpt lat="34.818687" lon="128.532977">
        <ele>2.7</ele>
      </trkpt>
      <trkpt lat="34.818883" lon="128.533167">
        <ele>2.9</ele>
      </trkpt>
      <trkpt lat="34.818929704541446" lon="128.5330975055695">
        <ele>3.2</ele>
      </trkpt>
      <trkpt lat="34.818883" lon="128.533167">
        <ele>3.4</ele>
      </trkpt>
      <trkpt lat="34.818919" lon="128.533203">
        <ele>3.7</ele>
      </trkpt>
      <trkpt lat="34.819254" lon="128.533549">
        <ele>4.0</ele>
      </trkpt>
      <trkpt lat="34.819889" lon="128.533851">
        <ele>4.3</ele>
      </trkpt>
      <trkpt lat="34.820204" lon="128.533899">
        <ele>4.7</ele>
      </trkpt>
      <trkpt lat="34.820508" lon="128.534163">
        <ele>5.0</ele>
      </trkpt>
      <trkpt lat="34.820803" lon="128.534331">
        <ele>5.4</ele>
      </trkpt>
      <trkpt lat="34.821197" lon="128.534435">
        <ele>5.7</ele>
      </trkpt>
      <trkpt lat="34.821935" lon="128.534629">
        <ele>6.1</ele>
      </trkpt>
      <trkpt lat="34.82227" lon="128.534691">
        <ele>6.5</ele>
      </trkpt>
      <trkpt lat="34.822589" lon="128.534845">
        <ele>7.0</ele>
      </trkpt>
      <trkpt lat="34.82276" lon="128.535038">
        <ele>7.4</ele>
      </trkpt>
      <trkpt lat="34.82289" lon="128.535584">
        <ele>8.0</ele>
      </trkpt>
      <trkpt lat="34.82302" lon="128.535901">
        <ele>8.5</ele>
      </trkpt>
      <trkpt lat="34.823293" lon="128.536098">
        <ele>9.1</ele>
      </trkpt>
      <trkpt lat="34.823413" lon="128.536202">
        <ele>9.7</ele>
      </trkpt>
      <trkpt lat="34.82339084151364" lon="128.53624233077005">
        <ele>10.4</ele>
      </trkpt>
      <trkpt lat="34.823413" lon="128.536202">
        <ele>11.1</ele>
      </trkpt>
      <trkpt lat="34.823798" lon="128.536538">
        <ele>11.8</ele>
      </trkpt>
      <trkpt lat="34.82389" lon="128.536666">
        <ele>12.5</ele>
      </trkpt>
      <trkpt lat="34.823965" lon="128.536822">
        <ele>13.2</ele>
      </trkpt>
      <trkpt lat="34.823916" lon="128.537113">
        <ele>13.9</ele>
      </trkpt>
      <trkpt lat="34.823831" lon="128.5372">
        <ele>14.6</ele>
      </trkpt>
      <trkpt lat="34.823705" lon="128.537353">
        <ele>15.4</ele>
      </trkpt>
      <trkpt lat="34.823625" lon="128.537494">
        <ele>16.1</ele>
      </trkpt>
      <trkpt lat="34.823556" lon="128.53767">
        <ele>16.8</ele>
      </trkpt>
      <trkpt lat="34.823546" lon="128.537844">
        <ele>17.5</ele>
      </trkpt>
      <trkpt lat="34.823546" lon="128.538029">
        <ele>18.1</ele>
      </trkpt>
      <trkpt lat="34.823577" lon="128.5382">
        <ele>18.8</ele>
      </trkpt>
      <trkpt lat="34.823522953529306" lon="128.538216436605">
        <ele>19.4</ele>
      </trkpt>
      <trkpt lat="34.823577" lon="128.5382">
        <ele>20.1</ele>
      </trkpt>
      <trkpt lat="34.823592" lon="128.53828">
        <ele>20.7</ele>
      </trkpt>
      <trkpt lat="34.823674" lon="128.538465">
        <ele>21.2</ele>
      </trkpt>
      <trkpt lat="34.823782" lon="128.538644">
        <ele>21.8</ele>
      </trkpt>
      <trkpt lat="34.824" lon="128.538784">
        <ele>22.3</ele>
      </trkpt>
      <trkpt lat="34.824142" lon="128.538821">
        <ele>22.8</ele>
      </trkpt>
      <trkpt lat="34.824204" lon="128.538817">
        <ele>23.3</ele>
      </trkpt>
      <trkpt lat="34.827526" lon="128.537791">
        <ele>23.9</ele>
      </trkpt>
      <trkpt lat="34.82752144360302" lon="128.5377658254905">
        <ele>24.4</ele>
      </trkpt>
      <trkpt lat="34.827526" lon="128.537791">
        <ele>24.9</ele>
      </trkpt>
      <trkpt lat="34.82903" lon="128.537327">
        <ele>25.4</ele>
      </trkpt>
      <trkpt lat="34.829563" lon="128.537193">
        <ele>25.9</ele>
      </trkpt>
      <trkpt lat="34.830147" lon="128.5372">
        <ele>26.3</ele>
      </trkpt>
      <trkpt lat="34.830513" lon="128.537331">
        <ele>26.6</ele>
      </trkpt>
      <trkpt lat="34.83049893786991" lon="128.53740416577486">
        <ele>26.8</ele>
      </trkpt>
      <trkpt lat="34.830524" lon="128.537338">
        <ele>27.0</ele>
      </trkpt>
      <trkpt lat="34.830804" lon="128.537504">
        <ele>27.2</ele>
      </trkpt>
      <trkpt lat="34.831208" lon="128.537855">
        <ele>27.2</ele>
      </trkpt>
      <trkpt lat="34.831393" lon="128.537933">
        <ele>27.2</ele>
      </trkpt>
      <trkpt lat="34.831618" lon="128.537924">
        <ele>27.2</ele>
      </trkpt>
      <trkpt lat="34.831901" lon="128.537833">
        <ele>27.1</ele>
      </trkpt>
      <trkpt lat="34.832158" lon="128.537625">
        <ele>27.0</ele>
      </trkpt>
      <trkpt lat="34.832343" lon="128.537454">
        <ele>26.8</ele>
      </trkpt>
      <trkpt lat="34.832734" lon="128.537175">
        <ele>26.6</ele>
      </trkpt>
      <trkpt lat="34.833165" lon="128.536949">
        <ele>26.4</ele>
      </trkpt>
      <trkpt lat="34.833667" lon="128.536725">
        <ele>26.1</ele>
      </trkpt>
      <trkpt lat="34.834006" lon="128.536612">
        <ele>25.8</ele>
      </trkpt>
      <trkpt lat="34.834171" lon="128.536648">
        <ele>25.4</ele>
      </trkpt>
      <trkpt lat="34.83424" lon="128.5367">
        <ele>25.0</ele>
      </trkpt>
      <trkpt lat="34.834343" lon="128.536806">
        <ele>24.6</ele>
      </trkpt>
      <trkpt lat="34.834397" lon="128.536968">
        <ele>24.2</ele>
      </trkpt>
      <trkpt lat="34.834350982016765" lon="128.53699207279348">
        <ele>23.8</ele>
      </trkpt>
      <trkpt lat="34.834397" lon="128.536968">
        <ele>23.4</ele>
      </trkpt>
      <trkpt lat="34.834537" lon="128.53739">
        <ele>22.9</ele>
      </trkpt>
      <trkpt lat="34.834631" lon="128.53753">
        <ele>22.5</ele>
      </trkpt>
      <trkpt lat="34.834732" lon="128.537605">
        <ele>22.0</ele>
      </trkpt>
      <trkpt lat="34.834788" lon="128.537667">
        <ele>21.5</ele>
      </trkpt>
      <trkpt lat="34.834981" lon="128.537768">
        <ele>21.0</ele>
      </trkpt>
      <trkpt lat="34.835105" lon="128.537813">
        <ele>20.5</ele>
      </trkpt>
      <trkpt lat="34.835606" lon="128.537916">
        <ele>20.0</ele>
      </trkpt>
      <trkpt lat="34.836145" lon="128.538041">
        <ele>19.5</ele>
      </trkpt>
      <trkpt lat="34.836365" lon="128.538102">
        <ele>18.9</ele>
      </trkpt>
      <trkpt lat="34.836399" lon="128.538116">
        <ele>18.4</ele>
      </trkpt>
      <trkpt lat="34.83640282727982" lon="128.5381078720093">
        <ele>18.0</ele>
      </trkpt>
      <trkpt lat="34.836399" lon="128.538116">
        <ele>17.6</ele>
      </trkpt>
      <trkpt lat="34.836494" lon="128.538156">
        <ele>17.2</ele>
      </trkpt>
      <trkpt lat="34.836603" lon="128.538234">
        <ele>16.8</ele>
      </trkpt>
      <trkpt lat="34.836667" lon="128.538321">
        <ele>16.5</ele>
      </trkpt>
      <trkpt lat="34.836709" lon="128.538396">
        <ele>16.3</ele>
      </trkpt>
      <trkpt lat="34.836893" lon="128.539099">
        <ele>16.1</ele>
      </trkpt>
      <trkpt lat="34.836976" lon="128.539419">
        <ele>15.9</ele>
      </trkpt>
      <trkpt lat="34.837003" lon="128.539525">
        <ele>15.8</ele>
      </trkpt>
      <trkpt lat="34.837293" lon="128.540646">
        <ele>15.8</ele>
      </trkpt>
      <trkpt lat="34.837351" lon="128.540972">
        <ele>15.8</ele>
      </trkpt>
      <trkpt lat="34.83736" lon="128.54108">
        <ele>15.9</ele>
      </trkpt>
      <trkpt lat="34.837357" lon="128.541237">
        <ele>16.0</ele>
      </trkpt>
      <trkpt lat="34.837342" lon="128.541347">
        <ele>16.1</ele>
      </trkpt>
      <trkpt lat="34.837323" lon="128.541453">
        <ele>16.3</ele>
      </trkpt>
      <trkpt lat="34.837227" lon="128.541835">
        <ele>16.5</ele>
      </trkpt>
      <trkpt lat="34.837044" lon="128.54252">
        <ele>16.7</ele>
      </trkpt>
      <trkpt lat="34.836956" lon="128.542792">
        <ele>17.0</ele>
      </trkpt>
      <trkpt lat="34.836884" lon="128.542949">
        <ele>17.3</ele>
      </trkpt>
      <trkpt lat="34.836793" lon="128.543109">
        <ele>17.6</ele>
      </trkpt>
      <trkpt lat="34.836405" lon="128.543727">
        <ele>18.0</ele>
      </trkpt>
      <trkpt lat="34.836276" lon="128.543922">
        <ele>18.4</ele>
      </trkpt>
      <trkpt lat="34.83618" lon="128.544047">
        <ele>18.9</ele>
      </trkpt>
      <trkpt lat="34.836083" lon="128.54415">
        <ele>19.4</ele>
      </trkpt>
      <trkpt lat="34.835499" lon="128.544609">
        <ele>19.8</ele>
      </trkpt>
      <trkpt lat="34.835395" lon="128.54471">
        <ele>20.3</ele>
      </trkpt>
      <trkpt lat="34.835339" lon="128.544783">
        <ele>20.9</ele>
      </trkpt>
      <trkpt lat="34.835281" lon="128.544878">
        <ele>21.4</ele>
      </trkpt>
      <trkpt lat="34.835246" lon="128.544987">
        <ele>21.9</ele>
      </trkpt>
      <trkpt lat="34.835233" lon="128.545045">
        <ele>22.4</ele>
      </trkpt>
      <trkpt lat="34.83521399746897" lon="128.5450387001038">
        <ele>22.9</ele>
      </trkpt>
      <trkpt lat="34.835233" lon="128.545045">
        <ele>23.5</ele>
      </trkpt>
      <trkpt lat="34.835215" lon="128.545126">
        <ele>24.0</ele>
      </trkpt>
      <trkpt lat="34.835177" lon="128.545446">
        <ele>24.5</ele>
      </trkpt>
      <trkpt lat="34.835156" lon="128.545673">
        <ele>25.0</ele>
      </trkpt>
      <trkpt lat="34.835131" lon="128.545786">
        <ele>25.5</ele>
      </trkpt>
      <trkpt lat="34.835085" lon="128.54588">
        <ele>25.9</ele>
      </trkpt>
      <trkpt lat="34.835002" lon="128.545951">
        <ele>26.4</ele>
      </trkpt>
      <trkpt lat="34.83483" lon="128.546051">
        <ele>26.8</ele>
      </trkpt>
      <trkpt lat="34.834651" lon="128.546143">
        <ele>27.1</ele>
      </trkpt>
      <trkpt lat="34.834564" lon="128.546226">
        <ele>27.5</ele>
      </trkpt>
      <trkpt lat="34.834501" lon="128.546332">
        <ele>27.9</ele>
      </trkpt>
      <trkpt lat="34.834468" lon="128.546426">
        <ele>28.2</ele>
      </trkpt>
      <trkpt lat="34.834418" lon="128.546597">
        <ele>28.5</ele>
      </trkpt>
      <trkpt lat="34.834377" lon="128.546808">
        <ele>28.8</ele>
      </trkpt>
      <trkpt lat="34.834382" lon="128.546917">
        <ele>29.1</ele>
      </trkpt>
      <trkpt lat="34.834414" lon="128.547005">
        <ele>29.4</ele>
      </trkpt>
      <trkpt lat="34.834632" lon="128.547295">
        <ele>29.7</ele>
      </trkpt>
      <trkpt lat="34.834693" lon="128.547401">
        <ele>30.0</ele>
      </trkpt>
      <trkpt lat="34.834723" lon="128.547526">
        <ele>30.3</ele>
      </trkpt>
      <trkpt lat="34.834773" lon="128.547893">
        <ele>30.5</ele>
      </trkpt>
      <trkpt lat="34.834823" lon="128.548322">
        <ele>30.7</ele>
      </trkpt>
      <trkpt lat="34.834827" lon="128.548513">
        <ele>30.9</ele>
      </trkpt>
      <trkpt lat="34.834814" lon="128.548612">
        <ele>31.1</ele>
      </trkpt>
      <trkpt lat="34.834655" lon="128.549568">
        <ele>31.2</ele>
      </trkpt>
      <trkpt lat="34.834625" lon="128.549778">
        <ele>31.4</ele>
      </trkpt>
      <trkpt lat="34.834612" lon="128.550013">
        <ele>31.6</ele>
      </trkpt>
      <trkpt lat="34.834609" lon="128.55033">
        <ele>31.7</ele>
      </trkpt>
      <trkpt lat="34.834593" lon="128.55053">
        <ele>31.9</ele>
      </trkpt>
      <trkpt lat="34.834543" lon="128.550742">
        <ele>32.1</ele>
      </trkpt>
      <trkpt lat="34.834386" lon="128.551141">
        <ele>32.3</ele>
      </trkpt>
      <trkpt lat="34.834333" lon="128.551318">
        <ele>32.4</ele>
      </trkpt>
      <trkpt lat="34.83433" lon="128.551327">
        <ele>32.6</ele>
      </trkpt>
      <trkpt lat="34.834324565421554" lon="128.5513257980347">
        <ele>32.9</ele>
      </trkpt>
      <trkpt lat="34.83433" lon="128.551327">
        <ele>33.1</ele>
      </trkpt>
      <trkpt lat="34.834301" lon="128.551465">
        <ele>33.4</ele>
      </trkpt>
      <trkpt lat="34.834254" lon="128.551738">
        <ele>33.7</ele>
      </trkpt>
      <trkpt lat="34.834226" lon="128.551966">
        <ele>34.0</ele>
      </trkpt>
      <trkpt lat="34.834206" lon="128.552189">
        <ele>34.4</ele>
      </trkpt>
      <trkpt lat="34.834207" lon="128.552439">
        <ele>34.8</ele>
      </trkpt>
      <trkpt lat="34.834255" lon="128.552781">
        <ele>35.2</ele>
      </trkpt>
      <trkpt lat="34.834332" lon="128.553254">
        <ele>35.7</ele>
      </trkpt>
      <trkpt lat="34.834425" lon="128.553826">
        <ele>36.1</ele>
      </trkpt>
      <trkpt lat="34.834448" lon="128.554023">
        <ele>36.6</ele>
      </trkpt>
      <trkpt lat="34.834442" lon="128.554115">
        <ele>37.0</ele>
      </trkpt>
      <trkpt lat="34.834391" lon="128.5543">
        <ele>37.5</ele>
      </trkpt>
      <trkpt lat="34.83431" lon="128.554522">
        <ele>38.0</ele>
      </trkpt>
      <trkpt lat="34.834283" lon="128.554634">
        <ele>38.4</ele>
      </trkpt>
      <trkpt lat="34.834275" lon="128.554711">
        <ele>38.8</ele>
      </trkpt>
      <trkpt lat="34.834269" lon="128.554772">
        <ele>39.3</ele>
      </trkpt>
      <trkpt lat="34.834275" lon="128.554897">
        <ele>39.7</ele>
      </trkpt>
      <trkpt lat="34.834302" lon="128.555022">
        <ele>40.1</ele>
      </trkpt>
      <trkpt lat="34.834342" lon="128.555162">
        <ele>40.6</ele>
      </trkpt>
      <trkpt lat="34.834659" lon="128.556136">
        <ele>41.0</ele>
      </trkpt>
      <trkpt lat="34.834739" lon="128.556389">
        <ele>41.4</ele>
      </trkpt>
      <trkpt lat="34.834845" lon="128.556714">
        <ele>41.8</ele>
      </trkpt>
      <trkpt lat="34.834989" lon="128.557181">
        <ele>42.2</ele>
      </trkpt>
      <trkpt lat="34.835109" lon="128.557611">
        <ele>42.5</ele>
      </trkpt>
      <trkpt lat="34.835187" lon="128.557891">
        <ele>42.9</ele>
      </trkpt>
      <trkpt lat="34.835279" lon="128.55823">
        <ele>43.2</ele>
      </trkpt>
      <trkpt lat="34.835409" lon="128.558701">
        <ele>43.5</ele>
      </trkpt>
      <trkpt lat="34.835425" lon="128.558759">
        <ele>43.8</ele>
      </trkpt>
      <trkpt lat="34.83539892767818" lon="128.55877161026004">
        <ele>44.0</ele>
      </trkpt>
      <trkpt lat="34.835425" lon="128.558759">
        <ele>44.1</ele>
      </trkpt>
      <trkpt lat="34.835569" lon="128.559266">
        <ele>44.2</ele>
      </trkpt>
      <trkpt lat="34.835633" lon="128.559435">
        <ele>44.3</ele>
      </trkpt>
      <trkpt lat="34.835703" lon="128.55956">
        <ele>44.2</ele>
      </trkpt>
      <trkpt lat="34.835771" lon="128.559628">
        <ele>44.1</ele>
      </trkpt>
      <trkpt lat="34.835955" lon="128.559712">
        <ele>44.0</ele>
      </trkpt>
      <trkpt lat="34.836178" lon="128.559805">
        <ele>43.7</ele>
      </trkpt>
      <trkpt lat="34.836296" lon="128.559866">
        <ele>43.4</ele>
      </trkpt>
      <trkpt lat="34.836384" lon="128.559955">
        <ele>43.0</ele>
      </trkpt>
      <trkpt lat="34.836614" lon="128.560251">
        <ele>42.6</ele>
      </trkpt>
      <trkpt lat="34.836765" lon="128.560406">
        <ele>42.1</ele>
      </trkpt>
      <trkpt lat="34.836878" lon="128.560489">
        <ele>41.5</ele>
      </trkpt>
      <trkpt lat="34.837053" lon="128.560587">
        <ele>40.9</ele>
      </trkpt>
      <trkpt lat="34.83737" lon="128.560763">
        <ele>40.3</ele>
      </trkpt>
      <trkpt lat="34.837545" lon="128.560858">
        <ele>39.6</ele>
      </trkpt>
      <trkpt lat="34.837677" lon="128.560954">
        <ele>38.9</ele>
      </trkpt>
      <trkpt lat="34.837774" lon="128.561051">
        <ele>38.1</ele>
      </trkpt>
      <trkpt lat="34.83787" lon="128.561193">
        <ele>37.3</ele>
      </trkpt>
      <trkpt lat="34.838022" lon="128.561375">
        <ele>36.5</ele>
      </trkpt>
      <trkpt lat="34.838169" lon="128.561505">
        <ele>35.6</ele>
      </trkpt>
      <trkpt lat="34.838317" lon="128.561581">
        <ele>34.8</ele>
      </trkpt>
      <trkpt lat="34.838409" lon="128.56161">
        <ele>33.8</ele>
      </trkpt>
      <trkpt lat="34.838526" lon="128.561622">
        <ele>32.9</ele>
      </trkpt>
      <trkpt lat="34.838636" lon="128.561622">
        <ele>31.9</ele>
      </trkpt>
      <trkpt lat="34.839328" lon="128.561575">
        <ele>30.9</ele>
      </trkpt>
      <trkpt lat="34.83945" lon="128.561572">
        <ele>29.9</ele>
      </trkpt>
      <trkpt lat="34.839546" lon="128.561578">
        <ele>28.9</ele>
      </trkpt>
      <trkpt lat="34.83981" lon="128.561634">
        <ele>27.8</ele>
      </trkpt>
      <trkpt lat="34.839974" lon="128.561698">
        <ele>26.8</ele>
      </trkpt>
      <trkpt lat="34.84014" lon="128.561779">
        <ele>25.7</ele>
      </trkpt>
      <trkpt lat="34.840296" lon="128.561846">
        <ele>24.6</ele>
      </trkpt>
      <trkpt lat="34.840469" lon="128.561893">
        <ele>23.6</ele>
      </trkpt>
      <trkpt lat="34.840651" lon="128.561923">
        <ele>22.5</ele>
      </trkpt>
      <trkpt lat="34.841044" lon="128.56197">
        <ele>21.4</ele>
      </trkpt>
      <trkpt lat="34.841298" lon="128.561989">
        <ele>20.4</ele>
      </trkpt>
      <trkpt lat="34.841394" lon="128.562001">
        <ele>19.4</ele>
      </trkpt>
      <trkpt lat="34.84139572501822" lon="128.5619902610779">
        <ele>18.4</ele>
      </trkpt>
      <trkpt lat="34.841394" lon="128.562001">
        <ele>17.5</ele>
      </trkpt>
      <trkpt lat="34.841745" lon="128.562049">
        <ele>16.6</ele>
      </trkpt>
      <trkpt lat="34.841939" lon="128.562094">
        <ele>15.7</ele>
      </trkpt>
      <trkpt lat="34.842109" lon="128.562134">
        <ele>14.8</ele>
      </trkpt>
      <trkpt lat="34.842465" lon="128.562213">
        <ele>14.0</ele>
      </trkpt>
      <trkpt lat="34.842681" lon="128.562252">
        <ele>13.3</ele>
      </trkpt>
      <trkpt lat="34.842786" lon="128.56226">
        <ele>12.5</ele>
      </trkpt>
      <trkpt lat="34.843128" lon="128.562289">
        <ele>11.8</ele>
      </trkpt>
      <trkpt lat="34.843244" lon="128.562311">
        <ele>11.2</ele>
      </trkpt>
      <trkpt lat="34.84334" lon="128.56235">
        <ele>10.5</ele>
      </trkpt>
      <trkpt lat="34.843583" lon="128.562483">
        <ele>9.9</ele>
      </trkpt>
      <trkpt lat="34.843706" lon="128.562557">
        <ele>9.4</ele>
      </trkpt>
      <trkpt lat="34.843824" lon="128.562628">
        <ele>8.9</ele>
      </trkpt>
      <trkpt lat="34.843986" lon="128.562722">
        <ele>8.4</ele>
      </trkpt>
      <trkpt lat="34.844078" lon="128.562776">
        <ele>8.0</ele>
      </trkpt>
      <trkpt lat="34.844258" lon="128.562883">
        <ele>7.6</ele>
      </trkpt>
      <trkpt lat="34.844557" lon="128.563066">
        <ele>7.2</ele>
      </trkpt>
      <trkpt lat="34.84486" lon="128.56329">
        <ele>6.9</ele>
      </trkpt>
      <trkpt lat="34.845008" lon="128.563413">
        <ele>6.6</ele>
      </trkpt>
      <trkpt lat="34.84546" lon="128.56379">
        <ele>6.3</ele>
      </trkpt>
      <trkpt lat="34.846347" lon="128.564545">
        <ele>6.1</ele>
      </trkpt>
      <trkpt lat="34.84689" lon="128.56515">
        <ele>5.9</ele>
      </trkpt>
      <trkpt lat="34.84694" lon="128.56524">
        <ele>5.8</ele>
      </trkpt>
      <trkpt lat="34.84698" lon="128.56536">
        <ele>5.7</ele>
      </trkpt>
      <trkpt lat="34.847031" lon="128.565614">
        <ele>5.6</ele>
      </trkpt>
      <trkpt lat="34.84708" lon="128.56595">
        <ele>5.6</ele>
      </trkpt>
      <trkpt lat="34.847109" lon="128.566076">
        <ele>5.6</ele>
      </trkpt>
      <trkpt lat="34.847125" lon="128.566112">
        <ele>5.7</ele>
      </trkpt>
      <trkpt lat="34.84716315757638" lon="128.56608867645267">
        <ele>5.8</ele>
      </trkpt>
      <trkpt lat="34.847125" lon="128.566112">
        <ele>5.9</ele>
      </trkpt>
      <trkpt lat="34.84716" lon="128.566191">
        <ele>6.0</ele>
      </trkpt>
      <trkpt lat="34.847214" lon="128.566259">
        <ele>6.1</ele>
      </trkpt>
      <trkpt lat="34.847839" lon="128.567017">
        <ele>6.2</ele>
      </trkpt>
      <trkpt lat="34.84792" lon="128.567116">
        <ele>6.3</ele>
      </trkpt>
      <trkpt lat="34.848207" lon="128.567433">
        <ele>6.4</ele>
      </trkpt>
      <trkpt lat="34.849506" lon="128.568999">
        <ele>6.5</ele>
      </trkpt>
      <trkpt lat="34.849601" lon="128.569111">
        <ele>6.6</ele>
      </trkpt>
      <trkpt lat="34.850359" lon="128.570003">
        <ele>6.7</ele>
      </trkpt>
      <trkpt lat="34.850369" lon="128.570015">
        <ele>6.8</ele>
      </trkpt>
      <trkpt lat="34.850442" lon="128.570105">
        <ele>6.9</ele>
      </trkpt>
      <trkpt lat="34.850459" lon="128.57012">
        <ele>6.9</ele>
      </trkpt>
      <trkpt lat="34.850512" lon="128.570182">
        <ele>7.0</ele>
      </trkpt>
      <trkpt lat="34.850642" lon="128.570307">
        <ele>7.0</ele>
      </trkpt>
      <trkpt lat="34.850776" lon="128.570395">
        <ele>7.1</ele>
      </trkpt>
      <trkpt lat="34.850923" lon="128.570457">
        <ele>7.1</ele>
      </trkpt>
      <trkpt lat="34.851148" lon="128.570494">
        <ele>7.1</ele>
      </trkpt>
      <trkpt lat="34.85152" lon="128.570481">
        <ele>7.1</ele>
      </trkpt>
      <trkpt lat="34.851709" lon="128.570511">
        <ele>7.0</ele>
      </trkpt>
      <trkpt lat="34.851829" lon="128.570567">
        <ele>7.0</ele>
      </trkpt>
      <trkpt lat="34.852217" lon="128.570913">
        <ele>7.0</ele>
      </trkpt>
      <trkpt lat="34.85242" lon="128.571126">
        <ele>6.9</ele>
      </trkpt>
      <trkpt lat="34.85240192536627" lon="128.57115268707278">
        <ele>6.8</ele>
      </trkpt>
      <trkpt lat="34.85242" lon="128.571126">
        <ele>6.7</ele>
      </trkpt>
      <trkpt lat="34.852748" lon="128.571472">
        <ele>6.6</ele>
      </trkpt>
      <trkpt lat="34.852938" lon="128.571596">
        <ele>6.4</ele>
      </trkpt>
      <trkpt lat="34.853249" lon="128.571727">
        <ele>6.2</ele>
      </trkpt>
      <trkpt lat="34.853458" lon="128.571841">
        <ele>6.0</ele>
      </trkpt>
      <trkpt lat="34.853848" lon="128.57216">
        <ele>5.7</ele>
      </trkpt>
      <trkpt lat="34.854349" lon="128.572546">
        <ele>5.5</ele>
      </trkpt>
      <trkpt lat="34.85442" lon="128.572588">
        <ele>5.2</ele>
      </trkpt>
      <trkpt lat="34.854409" lon="128.572649">
        <ele>4.9</ele>
      </trkpt>
      <trkpt lat="34.854403" lon="128.572787">
        <ele>4.7</ele>
      </trkpt>
      <trkpt lat="34.854416" lon="128.572916">
        <ele>4.4</ele>
      </trkpt>
      <trkpt lat="34.854416" lon="128.572994">
        <ele>4.2</ele>
      </trkpt>
      <trkpt lat="34.854346" lon="128.573361">
        <ele>4.0</ele>
      </trkpt>
      <trkpt lat="34.854293" lon="128.573591">
        <ele>3.7</ele>
      </trkpt>
      <trkpt lat="34.854134" lon="128.574396">
        <ele>3.5</ele>
      </trkpt>
      <trkpt lat="34.853945" lon="128.574654">
        <ele>3.3</ele>
      </trkpt>
      <trkpt lat="34.853941" lon="128.574789">
        <ele>3.1</ele>
      </trkpt>
      <trkpt lat="34.853905" lon="128.57629">
        <ele>2.9</ele>
      </trkpt>
      <trkpt lat="34.853817" lon="128.576917">
        <ele>2.7</ele>
      </trkpt>
      <trkpt lat="34.853752" lon="128.577446">
        <ele>2.6</ele>
      </trkpt>
      <trkpt lat="34.8537753958509" lon="128.57745051383975">
        <ele>2.4</ele>
      </trkpt>
      <trkpt lat="34.853752" lon="128.577446">
        <ele>2.3</ele>
      </trkpt>
      <trkpt lat="34.853746" lon="128.577497">
        <ele>2.1</ele>
      </trkpt>
      <trkpt lat="34.853799" lon="128.57769">
        <ele>2.0</ele>
      </trkpt>
      <trkpt lat="34.853868" lon="128.577762">
        <ele>1.9</ele>
      </trkpt>
      <trkpt lat="34.85386343804869" lon="128.57777237892154">
        <ele>1.8</ele>
      </trkpt>
      <trkpt lat="34.85370496202483" lon="128.57825517654422">
        <ele>1.7</ele>
      </trkpt>
      <trkpt lat="34.853707" lon="128.578282">
        <ele>1.6</ele>
      </trkpt>
      <trkpt lat="34.853676" lon="128.578287">
        <ele>1.5</ele>
      </trkpt>
      <trkpt lat="34.853514" lon="128.578483">
        <ele>1.5</ele>
      </trkpt>
      <trkpt lat="34.852672" lon="128.579542">
        <ele>1.4</ele>
      </trkpt>
      <trkpt lat="34.852701" lon="128.579574">
        <ele>1.3</ele>
      </trkpt>
      <trkpt lat="34.852716" lon="128.57959">
        <ele>1.3</ele>
      </trkpt>
      <trkpt lat="34.852745295136934" lon="128.57955336570743">
        <ele>1.2</ele>
      </trkpt>
      <trkpt lat="34.852716" lon="128.57959">
        <ele>1.2</ele>
      </trkpt>
      <trkpt lat="34.852804" lon="128.579687">
        <ele>1.2</ele>
      </trkpt>
      <trkpt lat="34.852852" lon="128.579745">
        <ele>1.2</ele>
      </trkpt>
      <trkpt lat="34.853443" lon="128.580409">
        <ele>1.2</ele>
      </trkpt>
      <trkpt lat="34.853455" lon="128.580424">
        <ele>1.3</ele>
      </trkpt>
      <trkpt lat="34.853449638899846" lon="128.5804331302643">
        <ele>1.3</ele>
      </trkpt>
      <trkpt lat="34.853455" lon="128.580424">
        <ele>1.3</ele>
      </trkpt>
      <trkpt lat="34.853443" lon="128.580409">
        <ele>1.3</ele>
      </trkpt>
      <trkpt lat="34.852758" lon="128.581242">
        <ele>1.4</ele>
      </trkpt>
      <trkpt lat="34.85277170813687" lon="128.5812592506409">
        <ele>1.4</ele>
      </trkpt>
    </trkseg>
  </trk>
</gpx>