<?xml version="1.0" encoding="UTF-8"?>
<gpx version="1.1" creator="HTML GPX Creator" xmlns="http://www.topografix.com/GPX/1/1">
  <trk>
    <name>My Custom Route</name>
    <trkseg>
      <trkpt lat="34.85293018595836" lon="128.58163475990298">
        <ele>0.0</ele>
      </trkpt>
      <trkpt lat="34.852682" lon="128.581335">
        <ele>0.0</ele>
      </trkpt>
      <trkpt lat="34.852669" lon="128.581349">
        <ele>0.0</ele>
      </trkpt>
      <trkpt lat="34.852666056086285" lon="128.58134508132937">
        <ele>0.0</ele>
      </trkpt>
      <trkpt lat="34.85267" lon="128.58135">
        <ele>1.8</ele>
      </trkpt>
      <trkpt lat="34.853434" lon="128.580419">
        <ele>1.8</ele>
      </trkpt>
      <trkpt lat="34.85342762824854" lon="128.5804116725922">
        <ele>1.8</ele>
      </trkpt>
      <trkpt lat="34.853434" lon="128.580419">
        <ele>1.8</ele>
      </trkpt>
      <trkpt lat="34.853443" lon="128.580409">
        <ele>1.8</ele>
      </trkpt>
      <trkpt lat="34.852852" lon="128.579745">
        <ele>0.0</ele>
      </trkpt>
      <trkpt lat="34.852804" lon="128.579687">
        <ele>0.0</ele>
      </trkpt>
      <trkpt lat="34.852701" lon="128.579574">
        <ele>0.0</ele>
      </trkpt>
      <trkpt lat="34.852672" lon="128.579542">
        <ele>0.0</ele>
      </trkpt>
      <trkpt lat="34.852668" lon="128.579546">
        <ele>0.0</ele>
      </trkpt>
      <trkpt lat="34.85267045825777" lon="128.5795480012894">
        <ele>0.0</ele>
      </trkpt>
      <trkpt lat="34.852668" lon="128.579546">
        <ele>3.3</ele>
      </trkpt>
      <trkpt lat="34.852672" lon="128.579542">
        <ele>3.3</ele>
      </trkpt>
      <trkpt lat="34.853514" lon="128.578483">
        <ele>3.3</ele>
      </trkpt>
      <trkpt lat="34.853676" lon="128.578287">
        <ele>3.3</ele>
      </trkpt>
      <trkpt lat="34.853687353558875" lon="128.57829272747043">
        <ele>3.3</ele>
      </trkpt>
      <trkpt lat="34.85385903594104" lon="128.5777831077576">
        <ele>0.0</ele>
      </trkpt>
      <trkpt lat="34.85387" lon="128.577764">
        <ele>0.0</ele>
      </trkpt>
      <trkpt lat="34.853799" lon="128.57769">
        <ele>0.0</ele>
      </trkpt>
      <trkpt lat="34.853746" lon="128.577497">
        <ele>0.0</ele>
      </trkpt>
      <trkpt lat="34.853817" lon="128.576917">
        <ele>0.0</ele>
      </trkpt>
      <trkpt lat="34.853905" lon="128.57629">
        <ele>0.0</ele>
      </trkpt>
      <trkpt lat="34.853926" lon="128.57538">
        <ele>0.0</ele>
      </trkpt>
      <trkpt lat="34.85392506753108" lon="128.57537984848025">
        <ele>0.0</ele>
      </trkpt>
      <trkpt lat="34.853926" lon="128.57538">
        <ele>0.0</ele>
      </trkpt>
      <trkpt lat="34.853941" lon="128.574789">
        <ele>0.0</ele>
      </trkpt>
      <trkpt lat="34.853945" lon="128.574654">
        <ele>0.0</ele>
      </trkpt>
      <trkpt lat="34.854134" lon="128.574396">
        <ele>0.0</ele>
      </trkpt>
      <trkpt lat="34.854293" lon="128.573591">
        <ele>0.0</ele>
      </trkpt>
      <trkpt lat="34.854346" lon="128.573361">
        <ele>0.0</ele>
      </trkpt>
      <trkpt lat="34.854416" lon="128.572994">
        <ele>0.0</ele>
      </trkpt>
      <trkpt lat="34.854416" lon="128.572916">
        <ele>0.0</ele>
      </trkpt>
      <trkpt lat="34.854403" lon="128.572787">
        <ele>0.0</ele>
      </trkpt>
      <trkpt lat="34.854409" lon="128.572649">
        <ele>0.0</ele>
      </trkpt>
      <trkpt lat="34.85442" lon="128.572588">
        <ele>0.0</ele>
      </trkpt>
      <trkpt lat="34.854404" lon="128.572578">
        <ele>0.0</ele>
      </trkpt>
      <trkpt lat="34.85439609133606" lon="128.57260107994082">
        <ele>0.0</ele>
      </trkpt>
      <trkpt lat="34.854404" lon="128.572578">
        <ele>15.5</ele>
      </trkpt>
      <trkpt lat="34.854349" lon="128.572546">
        <ele>15.5</ele>
      </trkpt>
      <trkpt lat="34.853848" lon="128.57216">
        <ele>15.5</ele>
      </trkpt>
      <trkpt lat="34.853458" lon="128.571841">
        <ele>15.5</ele>
      </trkpt>
      <trkpt lat="34.853249" lon="128.571727">
        <ele>15.5</ele>
      </trkpt>
      <trkpt lat="34.852938" lon="128.571596">
        <ele>15.5</ele>
      </trkpt>
      <trkpt lat="34.852748" lon="128.571472">
        <ele>15.5</ele>
      </trkpt>
      <trkpt lat="34.852416" lon="128.571123">
        <ele>15.5</ele>
      </trkpt>
      <trkpt lat="34.852388718808" lon="128.57116341590884">
        <ele>15.5</ele>
      </trkpt>
      <trkpt lat="34.852416" lon="128.571123">
        <ele>13.0</ele>
      </trkpt>
      <trkpt lat="34.852217" lon="128.570913">
        <ele>13.0</ele>
      </trkpt>
      <trkpt lat="34.851829" lon="128.570567">
        <ele>13.0</ele>
      </trkpt>
      <trkpt lat="34.851709" lon="128.570511">
        <ele>12.3</ele>
      </trkpt>
      <trkpt lat="34.85152" lon="128.570481">
        <ele>11.0</ele>
      </trkpt>
      <trkpt lat="34.851148" lon="128.570494">
        <ele>8.8</ele>
      </trkpt>
      <trkpt lat="34.850923" lon="128.570457">
        <ele>7.5</ele>
      </trkpt>
      <trkpt lat="34.850776" lon="128.570395">
        <ele>0.0</ele>
      </trkpt>
      <trkpt lat="34.850642" lon="128.570307">
        <ele>0.0</ele>
      </trkpt>
      <trkpt lat="34.850579" lon="128.570247">
        <ele>0.0</ele>
      </trkpt>
      <trkpt lat="34.8505573888688" lon="128.57028365135196">
        <ele>0.0</ele>
      </trkpt>
      <trkpt lat="34.850579" lon="128.570247">
        <ele>6.5</ele>
      </trkpt>
      <trkpt lat="34.850512" lon="128.570182">
        <ele>6.5</ele>
      </trkpt>
      <trkpt lat="34.850459" lon="128.57012">
        <ele>6.5</ele>
      </trkpt>
      <trkpt lat="34.850442" lon="128.570105">
        <ele>6.5</ele>
      </trkpt>
      <trkpt lat="34.850369" lon="128.570015">
        <ele>6.5</ele>
      </trkpt>
      <trkpt lat="34.850359" lon="128.570003">
        <ele>6.5</ele>
      </trkpt>
      <trkpt lat="34.849601" lon="128.569111">
        <ele>6.5</ele>
      </trkpt>
      <trkpt lat="34.849506" lon="128.568999">
        <ele>6.5</ele>
      </trkpt>
      <trkpt lat="34.848835" lon="128.568191">
        <ele>7.0</ele>
      </trkpt>
      <trkpt lat="34.84883607765607" lon="128.56819152832034">
        <ele>7.0</ele>
      </trkpt>
      <trkpt lat="34.848835" lon="128.568191">
        <ele>6.8</ele>
      </trkpt>
      <trkpt lat="34.848207" lon="128.567433">
        <ele>7.0</ele>
      </trkpt>
      <trkpt lat="34.84792" lon="128.567116">
        <ele>7.3</ele>
      </trkpt>
      <trkpt lat="34.847839" lon="128.567017">
        <ele>7.3</ele>
      </trkpt>
      <trkpt lat="34.84738" lon="128.56646">
        <ele>7.3</ele>
      </trkpt>
      <trkpt lat="34.84739648794419" lon="128.56644272804263">
        <ele>7.3</ele>
      </trkpt>
      <trkpt lat="34.84738" lon="128.56646">
        <ele>6.5</ele>
      </trkpt>
      <trkpt lat="34.847214" lon="128.566259">
        <ele>6.5</ele>
      </trkpt>
      <trkpt lat="34.84716" lon="128.566191">
        <ele>6.5</ele>
      </trkpt>
      <trkpt lat="34.847109" lon="128.566076">
        <ele>6.5</ele>
      </trkpt>
      <trkpt lat="34.84708" lon="128.56595">
        <ele>6.5</ele>
      </trkpt>
      <trkpt lat="34.847031" lon="128.565614">
        <ele>6.5</ele>
      </trkpt>
      <trkpt lat="34.84698" lon="128.56536">
        <ele>6.5</ele>
      </trkpt>
      <trkpt lat="34.84694" lon="128.56524">
        <ele>6.5</ele>
      </trkpt>
      <trkpt lat="34.84689" lon="128.56515">
        <ele>6.5</ele>
      </trkpt>
      <trkpt lat="34.846347" lon="128.564545">
        <ele>6.5</ele>
      </trkpt>
      <trkpt lat="34.846061" lon="128.564302">
        <ele>6.5</ele>
      </trkpt>
      <trkpt lat="34.84606253371351" lon="128.56430232524875">
        <ele>6.5</ele>
      </trkpt>
      <trkpt lat="34.846061" lon="128.564302">
        <ele>6.5</ele>
      </trkpt>
      <trkpt lat="34.84546" lon="128.56379">
        <ele>6.5</ele>
      </trkpt>
      <trkpt lat="34.845008" lon="128.563413">
        <ele>5.8</ele>
      </trkpt>
      <trkpt lat="34.84486" lon="128.56329">
        <ele>5.5</ele>
      </trkpt>
      <trkpt lat="34.844557" lon="128.563066">
        <ele>5.0</ele>
      </trkpt>
      <trkpt lat="34.844298" lon="128.562908">
        <ele>4.3</ele>
      </trkpt>
      <trkpt lat="34.84429710229665" lon="128.56291294097903">
        <ele>4.3</ele>
      </trkpt>
      <trkpt lat="34.844298" lon="128.562908">
        <ele>4.3</ele>
      </trkpt>
      <trkpt lat="34.844258" lon="128.562883">
        <ele>4.3</ele>
      </trkpt>
      <trkpt lat="34.844078" lon="128.562776">
        <ele>4.5</ele>
      </trkpt>
      <trkpt lat="34.843986" lon="128.562722">
        <ele>4.8</ele>
      </trkpt>
      <trkpt lat="34.843824" lon="128.562628">
        <ele>5.0</ele>
      </trkpt>
      <trkpt lat="34.843706" lon="128.562557">
        <ele>5.3</ele>
      </trkpt>
      <trkpt lat="34.843583" lon="128.562483">
        <ele>5.5</ele>
      </trkpt>
      <trkpt lat="34.84334" lon="128.56235">
        <ele>5.5</ele>
      </trkpt>
      <trkpt lat="34.843244" lon="128.562311">
        <ele>6.3</ele>
      </trkpt>
      <trkpt lat="34.843128" lon="128.562289">
        <ele>6.8</ele>
      </trkpt>
      <trkpt lat="34.842786" lon="128.56226">
        <ele>8.3</ele>
      </trkpt>
      <trkpt lat="34.842681" lon="128.562252">
        <ele>8.5</ele>
      </trkpt>
      <trkpt lat="34.842465" lon="128.562213">
        <ele>9.8</ele>
      </trkpt>
      <trkpt lat="34.842109" lon="128.562134">
        <ele>12.3</ele>
      </trkpt>
      <trkpt lat="34.84197" lon="128.562101">
        <ele>13.5</ele>
      </trkpt>
      <trkpt lat="34.84197248646109" lon="128.5620975494385">
        <ele>13.5</ele>
      </trkpt>
      <trkpt lat="34.84197" lon="128.562101">
        <ele>13.3</ele>
      </trkpt>
      <trkpt lat="34.841939" lon="128.562094">
        <ele>13.5</ele>
      </trkpt>
      <trkpt lat="34.841745" lon="128.562049">
        <ele>15.0</ele>
      </trkpt>
      <trkpt lat="34.841298" lon="128.561989">
        <ele>18.8</ele>
      </trkpt>
      <trkpt lat="34.841044" lon="128.56197">
        <ele>20.8</ele>
      </trkpt>
      <trkpt lat="34.840651" lon="128.561923">
        <ele>23.3</ele>
      </trkpt>
      <trkpt lat="34.840469" lon="128.561893">
        <ele>24.0</ele>
      </trkpt>
      <trkpt lat="34.840296" lon="128.561846">
        <ele>24.8</ele>
      </trkpt>
      <trkpt lat="34.84014" lon="128.561779">
        <ele>26.0</ele>
      </trkpt>
      <trkpt lat="34.839974" lon="128.561698">
        <ele>27.5</ele>
      </trkpt>
      <trkpt lat="34.83981" lon="128.561634">
        <ele>29.0</ele>
      </trkpt>
      <trkpt lat="34.839632" lon="128.561596">
        <ele>30.5</ele>
      </trkpt>
      <trkpt lat="34.83963899923419" lon="128.56156110763553">
        <ele>30.5</ele>
      </trkpt>
      <trkpt lat="34.839632" lon="128.561596">
        <ele>30.0</ele>
      </trkpt>
      <trkpt lat="34.839546" lon="128.561578">
        <ele>30.5</ele>
      </trkpt>
      <trkpt lat="34.83945" lon="128.561572">
        <ele>31.0</ele>
      </trkpt>
      <trkpt lat="34.839328" lon="128.561575">
        <ele>31.3</ele>
      </trkpt>
      <trkpt lat="34.838636" lon="128.561622">
        <ele>34.0</ele>
      </trkpt>
      <trkpt lat="34.838526" lon="128.561622">
        <ele>34.5</ele>
      </trkpt>
      <trkpt lat="34.838409" lon="128.56161">
        <ele>35.5</ele>
      </trkpt>
      <trkpt lat="34.838317" lon="128.561581">
        <ele>36.3</ele>
      </trkpt>
      <trkpt lat="34.838169" lon="128.561505">
        <ele>36.0</ele>
      </trkpt>
      <trkpt lat="34.838022" lon="128.561375">
        <ele>36.5</ele>
      </trkpt>
      <trkpt lat="34.83787" lon="128.561193">
        <ele>37.8</ele>
      </trkpt>
      <trkpt lat="34.837774" lon="128.561051">
        <ele>39.0</ele>
      </trkpt>
      <trkpt lat="34.837677" lon="128.560954">
        <ele>39.3</ele>
      </trkpt>
      <trkpt lat="34.837545" lon="128.560858">
        <ele>39.0</ele>
      </trkpt>
      <trkpt lat="34.83737" lon="128.560763">
        <ele>40.8</ele>
      </trkpt>
      <trkpt lat="34.837053" lon="128.560587">
        <ele>44.3</ele>
      </trkpt>
      <trkpt lat="34.836878" lon="128.560489">
        <ele>45.5</ele>
      </trkpt>
      <trkpt lat="34.836765" lon="128.560406">
        <ele>46.3</ele>
      </trkpt>
      <trkpt lat="34.836733" lon="128.560374">
        <ele>48.5</ele>
      </trkpt>
      <trkpt lat="34.83671544263864" lon="128.5604023933411">
        <ele>48.5</ele>
      </trkpt>
      <trkpt lat="34.836733" lon="128.560374">
        <ele>46.5</ele>
      </trkpt>
      <trkpt lat="34.836614" lon="128.560251">
        <ele>48.5</ele>
      </trkpt>
      <trkpt lat="34.836384" lon="128.559955">
        <ele>53.5</ele>
      </trkpt>
      <trkpt lat="34.836296" lon="128.559866">
        <ele>55.0</ele>
      </trkpt>
      <trkpt lat="34.836178" lon="128.559805">
        <ele>56.0</ele>
      </trkpt>
      <trkpt lat="34.835955" lon="128.559712">
        <ele>56.8</ele>
      </trkpt>
      <trkpt lat="34.835771" lon="128.559628">
        <ele>57.0</ele>
      </trkpt>
      <trkpt lat="34.835703" lon="128.55956">
        <ele>57.0</ele>
      </trkpt>
      <trkpt lat="34.835633" lon="128.559435">
        <ele>56.5</ele>
      </trkpt>
      <trkpt lat="34.835569" lon="128.559266">
        <ele>55.3</ele>
      </trkpt>
      <trkpt lat="34.835464" lon="128.558897">
        <ele>49.5</ele>
      </trkpt>
      <trkpt lat="34.83547378026378" lon="128.55889499187472">
        <ele>49.5</ele>
      </trkpt>
      <trkpt lat="34.835464" lon="128.558897">
        <ele>51.5</ele>
      </trkpt>
      <trkpt lat="34.835409" lon="128.558701">
        <ele>49.5</ele>
      </trkpt>
      <trkpt lat="34.835279" lon="128.55823">
        <ele>43.0</ele>
      </trkpt>
      <trkpt lat="34.835187" lon="128.557891">
        <ele>41.3</ele>
      </trkpt>
      <trkpt lat="34.835109" lon="128.557611">
        <ele>40.3</ele>
      </trkpt>
      <trkpt lat="34.834989" lon="128.557181">
        <ele>40.8</ele>
      </trkpt>
      <trkpt lat="34.834845" lon="128.556714">
        <ele>41.8</ele>
      </trkpt>
      <trkpt lat="34.834739" lon="128.556389">
        <ele>40.5</ele>
      </trkpt>
      <trkpt lat="34.834659" lon="128.556136">
        <ele>39.5</ele>
      </trkpt>
      <trkpt lat="34.83452" lon="128.555709">
        <ele>38.3</ele>
      </trkpt>
      <trkpt lat="34.834513900771306" lon="128.55571389198303">
        <ele>38.3</ele>
      </trkpt>
      <trkpt lat="34.83452" lon="128.555709">
        <ele>38.8</ele>
      </trkpt>
      <trkpt lat="34.834342" lon="128.555162">
        <ele>38.3</ele>
      </trkpt>
      <trkpt lat="34.834302" lon="128.555022">
        <ele>38.3</ele>
      </trkpt>
      <trkpt lat="34.834275" lon="128.554897">
        <ele>37.3</ele>
      </trkpt>
      <trkpt lat="34.834269" lon="128.554772">
        <ele>36.5</ele>
      </trkpt>
      <trkpt lat="34.834275" lon="128.554711">
        <ele>36.5</ele>
      </trkpt>
      <trkpt lat="34.834283" lon="128.554634">
        <ele>36.3</ele>
      </trkpt>
      <trkpt lat="34.83431" lon="128.554522">
        <ele>36.5</ele>
      </trkpt>
      <trkpt lat="34.834391" lon="128.5543">
        <ele>37.3</ele>
      </trkpt>
      <trkpt lat="34.834442" lon="128.554115">
        <ele>37.8</ele>
      </trkpt>
      <trkpt lat="34.834448" lon="128.554023">
        <ele>37.5</ele>
      </trkpt>
      <trkpt lat="34.834425" lon="128.553826">
        <ele>36.5</ele>
      </trkpt>
      <trkpt lat="34.834332" lon="128.553254">
        <ele>32.8</ele>
      </trkpt>
      <trkpt lat="34.834255" lon="128.552781">
        <ele>30.5</ele>
      </trkpt>
      <trkpt lat="34.834207" lon="128.552439">
        <ele>29.0</ele>
      </trkpt>
      <trkpt lat="34.834206" lon="128.552189">
        <ele>28.8</ele>
      </trkpt>
      <trkpt lat="34.834226" lon="128.551966">
        <ele>29.0</ele>
      </trkpt>
      <trkpt lat="34.834254" lon="128.551738">
        <ele>29.5</ele>
      </trkpt>
      <trkpt lat="34.834301" lon="128.551465">
        <ele>29.3</ele>
      </trkpt>
      <trkpt lat="34.834333" lon="128.551318">
        <ele>29.3</ele>
      </trkpt>
      <trkpt lat="34.834386" lon="128.551141">
        <ele>29.8</ele>
      </trkpt>
      <trkpt lat="34.834396" lon="128.551115">
        <ele>32.3</ele>
      </trkpt>
      <trkpt lat="34.83439941898394" lon="128.55111658573153">
        <ele>32.3</ele>
      </trkpt>
      <trkpt lat="34.834396" lon="128.551115">
        <ele>29.8</ele>
      </trkpt>
      <trkpt lat="34.834543" lon="128.550742">
        <ele>32.3</ele>
      </trkpt>
      <trkpt lat="34.834593" lon="128.55053">
        <ele>33.0</ele>
      </trkpt>
      <trkpt lat="34.834609" lon="128.55033">
        <ele>32.5</ele>
      </trkpt>
      <trkpt lat="34.834612" lon="128.550013">
        <ele>31.5</ele>
      </trkpt>
      <trkpt lat="34.834625" lon="128.549778">
        <ele>31.3</ele>
      </trkpt>
      <trkpt lat="34.834655" lon="128.549568">
        <ele>31.8</ele>
      </trkpt>
      <trkpt lat="34.834814" lon="128.548612">
        <ele>34.5</ele>
      </trkpt>
      <trkpt lat="34.834827" lon="128.548513">
        <ele>34.8</ele>
      </trkpt>
      <trkpt lat="34.834823" lon="128.548322">
        <ele>34.3</ele>
      </trkpt>
      <trkpt lat="34.834773" lon="128.547893">
        <ele>34.8</ele>
      </trkpt>
      <trkpt lat="34.834723" lon="128.547526">
        <ele>35.0</ele>
      </trkpt>
      <trkpt lat="34.834693" lon="128.547401">
        <ele>34.5</ele>
      </trkpt>
      <trkpt lat="34.834632" lon="128.547295">
        <ele>33.0</ele>
      </trkpt>
      <trkpt lat="34.834414" lon="128.547005">
        <ele>29.0</ele>
      </trkpt>
      <trkpt lat="34.834382" lon="128.546917">
        <ele>28.8</ele>
      </trkpt>
      <trkpt lat="34.834377" lon="128.546808">
        <ele>29.3</ele>
      </trkpt>
      <trkpt lat="34.834416" lon="128.546607">
        <ele>29.8</ele>
      </trkpt>
      <trkpt lat="34.83439061268602" lon="128.54659974575046">
        <ele>29.8</ele>
      </trkpt>
      <trkpt lat="34.834416" lon="128.546607">
        <ele>29.5</ele>
      </trkpt>
      <trkpt lat="34.834418" lon="128.546597">
        <ele>29.8</ele>
      </trkpt>
      <trkpt lat="34.834468" lon="128.546426">
        <ele>28.8</ele>
      </trkpt>
      <trkpt lat="34.834501" lon="128.546332">
        <ele>28.3</ele>
      </trkpt>
      <trkpt lat="34.834564" lon="128.546226">
        <ele>27.8</ele>
      </trkpt>
      <trkpt lat="34.834651" lon="128.546143">
        <ele>28.0</ele>
      </trkpt>
      <trkpt lat="34.83483" lon="128.546051">
        <ele>29.3</ele>
      </trkpt>
      <trkpt lat="34.835002" lon="128.545951">
        <ele>30.3</ele>
      </trkpt>
      <trkpt lat="34.835085" lon="128.54588">
        <ele>30.8</ele>
      </trkpt>
      <trkpt lat="34.835131" lon="128.545786">
        <ele>30.3</ele>
      </trkpt>
      <trkpt lat="34.835156" lon="128.545673">
        <ele>29.5</ele>
      </trkpt>
      <trkpt lat="34.835177" lon="128.545446">
        <ele>27.0</ele>
      </trkpt>
      <trkpt lat="34.835215" lon="128.545126">
        <ele>23.8</ele>
      </trkpt>
      <trkpt lat="34.835246" lon="128.544987">
        <ele>22.5</ele>
      </trkpt>
      <trkpt lat="34.835281" lon="128.544878">
        <ele>22.8</ele>
      </trkpt>
      <trkpt lat="34.835339" lon="128.544783">
        <ele>23.0</ele>
      </trkpt>
      <trkpt lat="34.835395" lon="128.54471">
        <ele>23.0</ele>
      </trkpt>
      <trkpt lat="34.835499" lon="128.544609">
        <ele>23.0</ele>
      </trkpt>
      <trkpt lat="34.835897" lon="128.544295">
        <ele>18.8</ele>
      </trkpt>
      <trkpt lat="34.83589647594062" lon="128.54429304599765">
        <ele>18.8</ele>
      </trkpt>
      <trkpt lat="34.835897" lon="128.544295">
        <ele>20.0</ele>
      </trkpt>
      <trkpt lat="34.836083" lon="128.54415">
        <ele>18.8</ele>
      </trkpt>
      <trkpt lat="34.83618" lon="128.544047">
        <ele>18.0</ele>
      </trkpt>
      <trkpt lat="34.836276" lon="128.543922">
        <ele>16.8</ele>
      </trkpt>
      <trkpt lat="34.836405" lon="128.543727">
        <ele>15.3</ele>
      </trkpt>
      <trkpt lat="34.836793" lon="128.543109">
        <ele>12.8</ele>
      </trkpt>
      <trkpt lat="34.836884" lon="128.542949">
        <ele>12.8</ele>
      </trkpt>
      <trkpt lat="34.836956" lon="128.542792">
        <ele>12.5</ele>
      </trkpt>
      <trkpt lat="34.837044" lon="128.54252">
        <ele>12.3</ele>
      </trkpt>
      <trkpt lat="34.837227" lon="128.541835">
        <ele>13.3</ele>
      </trkpt>
      <trkpt lat="34.837323" lon="128.541453">
        <ele>12.8</ele>
      </trkpt>
      <trkpt lat="34.837342" lon="128.541347">
        <ele>12.3</ele>
      </trkpt>
      <trkpt lat="34.837357" lon="128.541237">
        <ele>11.8</ele>
      </trkpt>
      <trkpt lat="34.83736" lon="128.54108">
        <ele>10.8</ele>
      </trkpt>
      <trkpt lat="34.837351" lon="128.540972">
        <ele>10.0</ele>
      </trkpt>
      <trkpt lat="34.837293" lon="128.540646">
        <ele>8.8</ele>
      </trkpt>
      <trkpt lat="34.837167" lon="128.540159">
        <ele>7.0</ele>
      </trkpt>
      <trkpt lat="34.837177758951135" lon="128.54015707969668">
        <ele>7.0</ele>
      </trkpt>
      <trkpt lat="34.837167" lon="128.540159">
        <ele>7.8</ele>
      </trkpt>
      <trkpt lat="34.837003" lon="128.539525">
        <ele>7.0</ele>
      </trkpt>
      <trkpt lat="34.836976" lon="128.539419">
        <ele>7.0</ele>
      </trkpt>
      <trkpt lat="34.836893" lon="128.539099">
        <ele>6.8</ele>
      </trkpt>
      <trkpt lat="34.836709" lon="128.538396">
        <ele>7.8</ele>
      </trkpt>
      <trkpt lat="34.836667" lon="128.538321">
        <ele>8.3</ele>
      </trkpt>
      <trkpt lat="34.836603" lon="128.538234">
        <ele>10.5</ele>
      </trkpt>
      <trkpt lat="34.836494" lon="128.538156">
        <ele>12.8</ele>
      </trkpt>
      <trkpt lat="34.836365" lon="128.538102">
        <ele>14.5</ele>
      </trkpt>
      <trkpt lat="34.836145" lon="128.538041">
        <ele>17.0</ele>
      </trkpt>
      <trkpt lat="34.835606" lon="128.537916">
        <ele>21.5</ele>
      </trkpt>
      <trkpt lat="34.835105" lon="128.537813">
        <ele>22.5</ele>
      </trkpt>
      <trkpt lat="34.834981" lon="128.537768">
        <ele>23.3</ele>
      </trkpt>
      <trkpt lat="34.834788" lon="128.537667">
        <ele>23.0</ele>
      </trkpt>
      <trkpt lat="34.834732" lon="128.537605">
        <ele>23.5</ele>
      </trkpt>
      <trkpt lat="34.834631" lon="128.53753">
        <ele>23.3</ele>
      </trkpt>
      <trkpt lat="34.834537" lon="128.53739">
        <ele>24.3</ele>
      </trkpt>
      <trkpt lat="34.834373" lon="128.536898">
        <ele>30.8</ele>
      </trkpt>
      <trkpt lat="34.83435979063587" lon="128.53690624237063">
        <ele>30.8</ele>
      </trkpt>
      <trkpt lat="34.834373" lon="128.536898">
        <ele>29.5</ele>
      </trkpt>
      <trkpt lat="34.834343" lon="128.536806">
        <ele>30.8</ele>
      </trkpt>
      <trkpt lat="34.834289" lon="128.536615">
        <ele>32.0</ele>
      </trkpt>
      <trkpt lat="34.834231" lon="128.536505">
        <ele>31.3</ele>
      </trkpt>
      <trkpt lat="34.834006" lon="128.536612">
        <ele>29.8</ele>
      </trkpt>
      <trkpt lat="34.833667" lon="128.536725">
        <ele>30.8</ele>
      </trkpt>
      <trkpt lat="34.833165" lon="128.536949">
        <ele>31.3</ele>
      </trkpt>
      <trkpt lat="34.832734" lon="128.537175">
        <ele>34.3</ele>
      </trkpt>
      <trkpt lat="34.832343" lon="128.537454">
        <ele>35.3</ele>
      </trkpt>
      <trkpt lat="34.832322" lon="128.537472">
        <ele>35.5</ele>
      </trkpt>
      <trkpt lat="34.83232110655376" lon="128.53746950626376">
        <ele>35.5</ele>
      </trkpt>
      <trkpt lat="34.832322" lon="128.537472">
        <ele>35.3</ele>
      </trkpt>
      <trkpt lat="34.832158" lon="128.537625">
        <ele>35.5</ele>
      </trkpt>
      <trkpt lat="34.831901" lon="128.537833">
        <ele>35.3</ele>
      </trkpt>
      <trkpt lat="34.831618" lon="128.537924">
        <ele>37.0</ele>
      </trkpt>
      <trkpt lat="34.831393" lon="128.537933">
        <ele>34.0</ele>
      </trkpt>
      <trkpt lat="34.831208" lon="128.537855">
        <ele>34.0</ele>
      </trkpt>
      <trkpt lat="34.830804" lon="128.537504">
        <ele>34.5</ele>
      </trkpt>
      <trkpt lat="34.830513" lon="128.537331">
        <ele>34.5</ele>
      </trkpt>
      <trkpt lat="34.830147" lon="128.5372">
        <ele>34.8</ele>
      </trkpt>
      <trkpt lat="34.829563" lon="128.537193">
        <ele>0.0</ele>
      </trkpt>
      <trkpt lat="34.829448" lon="128.537221">
        <ele>0.0</ele>
      </trkpt>
      <trkpt lat="34.82944572765243" lon="128.5372066497803">
        <ele>0.0</ele>
      </trkpt>
      <trkpt lat="34.829448" lon="128.537221">
        <ele>0.0</ele>
      </trkpt>
      <trkpt lat="34.82903" lon="128.537327">
        <ele>0.0</ele>
      </trkpt>
      <trkpt lat="34.825857" lon="128.538306">
        <ele>0.0</ele>
      </trkpt>
      <trkpt lat="34.825861270944294" lon="128.5383224487305">
        <ele>0.0</ele>
      </trkpt>
      <trkpt lat="34.825857" lon="128.538306">
        <ele>16.3</ele>
      </trkpt>
      <trkpt lat="34.824204" lon="128.538817">
        <ele>16.3</ele>
      </trkpt>
      <trkpt lat="34.824142" lon="128.538821">
        <ele>16.3</ele>
      </trkpt>
      <trkpt lat="34.824" lon="128.538784">
        <ele>19.3</ele>
      </trkpt>
      <trkpt lat="34.823782" lon="128.538644">
        <ele>23.0</ele>
      </trkpt>
      <trkpt lat="34.823674" lon="128.538465">
        <ele>23.8</ele>
      </trkpt>
      <trkpt lat="34.823615" lon="128.538331">
        <ele>23.8</ele>
      </trkpt>
      <trkpt lat="34.82361540161998" lon="128.53833317756656">
        <ele>23.8</ele>
      </trkpt>
      <trkpt lat="34.823615" lon="128.538331">
        <ele>23.8</ele>
      </trkpt>
      <trkpt lat="34.823592" lon="128.53828">
        <ele>23.8</ele>
      </trkpt>
      <trkpt lat="34.823546" lon="128.538029">
        <ele>22.8</ele>
      </trkpt>
      <trkpt lat="34.823546" lon="128.537844">
        <ele>21.5</ele>
      </trkpt>
      <trkpt lat="34.823556" lon="128.53767">
        <ele>20.0</ele>
      </trkpt>
      <trkpt lat="34.823625" lon="128.537494">
        <ele>0.0</ele>
      </trkpt>
      <trkpt lat="34.823705" lon="128.537353">
        <ele>0.0</ele>
      </trkpt>
      <trkpt lat="34.823831" lon="128.5372">
        <ele>0.0</ele>
      </trkpt>
      <trkpt lat="34.823916" lon="128.537113">
        <ele>0.0</ele>
      </trkpt>
      <trkpt lat="34.824039" lon="128.536986">
        <ele>0.0</ele>
      </trkpt>
      <trkpt lat="34.823965" lon="128.536822">
        <ele>0.0</ele>
      </trkpt>
      <trkpt lat="34.823934" lon="128.536757">
        <ele>0.0</ele>
      </trkpt>
      <trkpt lat="34.823945680361405" lon="128.53675067424777">
        <ele>0.0</ele>
      </trkpt>
      <trkpt lat="34.823934" lon="128.536757">
        <ele>0.0</ele>
      </trkpt>
      <trkpt lat="34.82389" lon="128.536666">
        <ele>0.0</ele>
      </trkpt>
      <trkpt lat="34.823798" lon="128.536538">
        <ele>0.0</ele>
      </trkpt>
      <trkpt lat="34.823293" lon="128.536098">
        <ele>0.0</ele>
      </trkpt>
      <trkpt lat="34.82302" lon="128.535901">
        <ele>0.0</ele>
      </trkpt>
      <trkpt lat="34.82289" lon="128.535584">
        <ele>0.0</ele>
      </trkpt>
      <trkpt lat="34.82276" lon="128.535038">
        <ele>0.0</ele>
      </trkpt>
      <trkpt lat="34.822589" lon="128.534845">
        <ele>0.0</ele>
      </trkpt>
      <trkpt lat="34.82227" lon="128.534691">
        <ele>0.0</ele>
      </trkpt>
      <trkpt lat="34.822233" lon="128.534684">
        <ele>0.0</ele>
      </trkpt>
      <trkpt lat="34.822232620243064" lon="128.53469610214236">
        <ele>0.0</ele>
      </trkpt>
      <trkpt lat="34.822233" lon="128.534684">
        <ele>0.0</ele>
      </trkpt>
      <trkpt lat="34.821935" lon="128.534629">
        <ele>0.0</ele>
      </trkpt>
      <trkpt lat="34.821197" lon="128.534435">
        <ele>0.0</ele>
      </trkpt>
      <trkpt lat="34.820803" lon="128.534331">
        <ele>0.0</ele>
      </trkpt>
      <trkpt lat="34.820508" lon="128.534163">
        <ele>0.0</ele>
      </trkpt>
      <trkpt lat="34.820204" lon="128.533899">
        <ele>0.0</ele>
      </trkpt>
      <trkpt lat="34.819889" lon="128.533851">
        <ele>0.0</ele>
      </trkpt>
      <trkpt lat="34.819254" lon="128.533549">
        <ele>0.0</ele>
      </trkpt>
      <trkpt lat="34.818919" lon="128.533203">
        <ele>0.0</ele>
      </trkpt>
      <trkpt lat="34.818687" lon="128.532977">
        <ele>0.0</ele>
      </trkpt>
      <trkpt lat="34.818498" lon="128.532872">
        <ele>0.0</ele>
      </trkpt>
      <trkpt lat="34.818265" lon="128.532814">
        <ele>0.0</ele>
      </trkpt>
      <trkpt lat="34.818211" lon="128.53281">
        <ele>0.0</ele>
      </trkpt>
      <trkpt lat="34.818211853343556" lon="128.5328131914139">
        <ele>0.0</ele>
      </trkpt>
      <trkpt lat="34.818211" lon="128.53281">
        <ele>9.5</ele>
      </trkpt>
      <trkpt lat="34.817871" lon="128.53279">
        <ele>9.5</ele>
      </trkpt>
      <trkpt lat="34.817626" lon="128.532795">
        <ele>9.5</ele>
      </trkpt>
      <trkpt lat="34.81728" lon="128.532857">
        <ele>9.5</ele>
      </trkpt>
      <trkpt lat="34.816834" lon="128.532766">
        <ele>8.3</ele>
      </trkpt>
      <trkpt lat="34.816416" lon="128.532555">
        <ele>6.5</ele>
      </trkpt>
      <trkpt lat="34.816203" lon="128.532353">
        <ele>0.0</ele>
      </trkpt>
      <trkpt lat="34.815519" lon="128.532217">
        <ele>0.0</ele>
      </trkpt>
      <trkpt lat="34.815285" lon="128.532171">
        <ele>0.0</ele>
      </trkpt>
      <trkpt lat="34.814981" lon="128.532089">
        <ele>0.0</ele>
      </trkpt>
      <trkpt lat="34.81498364763933" lon="128.53208363056186">
        <ele>0.0</ele>
      </trkpt>
      <trkpt lat="34.814981" lon="128.532089">
        <ele>0.0</ele>
      </trkpt>
      <trkpt lat="34.814962" lon="128.532084">
        <ele>0.0</ele>
      </trkpt>
      <trkpt lat="34.814652" lon="128.531928">
        <ele>0.0</ele>
      </trkpt>
      <trkpt lat="34.814418" lon="128.531811">
        <ele>0.0</ele>
      </trkpt>
      <trkpt lat="34.81346" lon="128.531307">
        <ele>0.0</ele>
      </trkpt>
      <trkpt lat="34.813105" lon="128.531014">
        <ele>0.0</ele>
      </trkpt>
      <trkpt lat="34.812873" lon="128.530404">
        <ele>0.0</ele>
      </trkpt>
      <trkpt lat="34.812806" lon="128.530149">
        <ele>0.0</ele>
      </trkpt>
      <trkpt lat="34.812786" lon="128.52989">
        <ele>0.0</ele>
      </trkpt>
      <trkpt lat="34.812735" lon="128.529703">
        <ele>0.0</ele>
      </trkpt>
      <trkpt lat="34.812526" lon="128.529458">
        <ele>0.0</ele>
      </trkpt>
      <trkpt lat="34.812342" lon="128.529129">
        <ele>0.0</ele>
      </trkpt>
      <trkpt lat="34.812345513895586" lon="128.5291278489075">
        <ele>0.0</ele>
      </trkpt>
      <trkpt lat="34.812342" lon="128.529129">
        <ele>0.0</ele>
      </trkpt>
      <trkpt lat="34.812305" lon="128.529064">
        <ele>0.0</ele>
      </trkpt>
      <trkpt lat="34.812246" lon="128.528709">
        <ele>0.0</ele>
      </trkpt>
      <trkpt lat="34.812338" lon="128.528382">
        <ele>0.0</ele>
      </trkpt>
      <trkpt lat="34.812405" lon="128.528247">
        <ele>0.0</ele>
      </trkpt>
      <trkpt lat="34.812296" lon="128.527688">
        <ele>0.0</ele>
      </trkpt>
      <trkpt lat="34.81226" lon="128.527614">
        <ele>0.0</ele>
      </trkpt>
      <trkpt lat="34.811726" lon="128.526815">
        <ele>0.0</ele>
      </trkpt>
      <trkpt lat="34.811665" lon="128.526733">
        <ele>0.0</ele>
      </trkpt>
      <trkpt lat="34.81158" lon="128.526683">
        <ele>0.0</ele>
      </trkpt>
      <trkpt lat="34.811561" lon="128.52668">
        <ele>0.0</ele>
      </trkpt>
      <trkpt lat="34.81156153980897" lon="128.52668703870395">
        <ele>0.0</ele>
      </trkpt>
      <trkpt lat="34.811561" lon="128.52668">
        <ele>0.0</ele>
      </trkpt>
      <trkpt lat="34.811476" lon="128.52667">
        <ele>0.0</ele>
      </trkpt>
      <trkpt lat="34.811339" lon="128.526702">
        <ele>0.0</ele>
      </trkpt>
      <trkpt lat="34.811091" lon="128.526861">
        <ele>0.0</ele>
      </trkpt>
      <trkpt lat="34.810882" lon="128.526937">
        <ele>0.0</ele>
      </trkpt>
      <trkpt lat="34.810208" lon="128.526793">
        <ele>0.0</ele>
      </trkpt>
      <trkpt lat="34.809544" lon="128.527043">
        <ele>0.0</ele>
      </trkpt>
      <trkpt lat="34.80953989288896" lon="128.52702498435977">
        <ele>0.0</ele>
      </trkpt>
      <trkpt lat="34.809544" lon="128.527043">
        <ele>0.0</ele>
      </trkpt>
      <trkpt lat="34.809356" lon="128.527115">
        <ele>0.0</ele>
      </trkpt>
      <trkpt lat="34.8083" lon="128.527096">
        <ele>0.0</ele>
      </trkpt>
      <trkpt lat="34.807484" lon="128.526894">
        <ele>0.0</ele>
      </trkpt>
      <trkpt lat="34.806642" lon="128.526894">
        <ele>0.0</ele>
      </trkpt>
      <trkpt lat="34.80664169553194" lon="128.52689623832705">
        <ele>0.0</ele>
      </trkpt>
      <trkpt lat="34.806642" lon="128.526894">
        <ele>0.0</ele>
      </trkpt>
      <trkpt lat="34.806143" lon="128.526894">
        <ele>0.0</ele>
      </trkpt>
      <trkpt lat="34.805844" lon="128.52711">
        <ele>0.0</ele>
      </trkpt>
      <trkpt lat="34.805264" lon="128.527245">
        <ele>0.0</ele>
      </trkpt>
      <trkpt lat="34.804566" lon="128.527826">
        <ele>0.0</ele>
      </trkpt>
      <trkpt lat="34.80444" lon="128.527861">
        <ele>0.0</ele>
      </trkpt>
      <trkpt lat="34.803853" lon="128.528027">
        <ele>0.0</ele>
      </trkpt>
      <trkpt lat="34.803171" lon="128.527955">
        <ele>0.0</ele>
      </trkpt>
      <trkpt lat="34.80297" lon="128.527984">
        <ele>0.0</ele>
      </trkpt>
      <trkpt lat="34.802892" lon="128.528041">
        <ele>0.0</ele>
      </trkpt>
      <trkpt lat="34.80288886303501" lon="128.52803349494937">
        <ele>0.0</ele>
      </trkpt>
      <trkpt lat="34.802892" lon="128.528041">
        <ele>11.8</ele>
      </trkpt>
      <trkpt lat="34.80269" lon="128.528191">
        <ele>11.8</ele>
      </trkpt>
      <trkpt lat="34.802596" lon="128.52836">
        <ele>11.8</ele>
      </trkpt>
      <trkpt lat="34.802527" lon="128.528624">
        <ele>13.0</ele>
      </trkpt>
      <trkpt lat="34.802405" lon="128.529444">
        <ele>0.0</ele>
      </trkpt>
      <trkpt lat="34.802251" lon="128.52994">
        <ele>0.0</ele>
      </trkpt>
      <trkpt lat="34.802219" lon="128.530192">
        <ele>0.0</ele>
      </trkpt>
      <trkpt lat="34.80220611105321" lon="128.53018999099734">
        <ele>0.0</ele>
      </trkpt>
      <trkpt lat="34.802219" lon="128.530192">
        <ele>0.0</ele>
      </trkpt>
      <trkpt lat="34.802215" lon="128.530229">
        <ele>0.0</ele>
      </trkpt>
      <trkpt lat="34.802343" lon="128.531244">
        <ele>0.0</ele>
      </trkpt>
      <trkpt lat="34.802438" lon="128.531487">
        <ele>0.0</ele>
      </trkpt>
      <trkpt lat="34.80244837853276" lon="128.53148281574252">
        <ele>0.0</ele>
      </trkpt>
      <trkpt lat="34.802438" lon="128.531487">
        <ele>0.0</ele>
      </trkpt>
      <trkpt lat="34.802616" lon="128.531944">
        <ele>0.0</ele>
      </trkpt>
      <trkpt lat="34.802651" lon="128.532056">
        <ele>0.0</ele>
      </trkpt>
      <trkpt lat="34.80262897746339" lon="128.53206753730777">
        <ele>0.0</ele>
      </trkpt>
      <trkpt lat="34.802651" lon="128.532056">
        <ele>0.0</ele>
      </trkpt>
      <trkpt lat="34.80272" lon="128.532277">
        <ele>0.0</ele>
      </trkpt>
      <trkpt lat="34.802741" lon="128.532354">
        <ele>0.0</ele>
      </trkpt>
      <trkpt lat="34.80273909856835" lon="128.53235721588138">
        <ele>0.0</ele>
      </trkpt>
      <trkpt lat="34.802741" lon="128.532354">
        <ele>0.0</ele>
      </trkpt>
      <trkpt lat="34.802895" lon="128.532923">
        <ele>0.0</ele>
      </trkpt>
      <trkpt lat="34.802862434031255" lon="128.5329365730286">
        <ele>0.0</ele>
      </trkpt>
      <trkpt lat="34.802895" lon="128.532923">
        <ele>13.0</ele>
      </trkpt>
      <trkpt lat="34.80272" lon="128.532277">
        <ele>13.0</ele>
      </trkpt>
      <trkpt lat="34.802616" lon="128.531944">
        <ele>13.0</ele>
      </trkpt>
      <trkpt lat="34.802343" lon="128.531244">
        <ele>13.0</ele>
      </trkpt>
      <trkpt lat="34.802215" lon="128.530229">
        <ele>13.0</ele>
      </trkpt>
      <trkpt lat="34.802251" lon="128.52994">
        <ele>13.0</ele>
      </trkpt>
      <trkpt lat="34.802405" lon="128.529444">
        <ele>13.0</ele>
      </trkpt>
      <trkpt lat="34.802527" lon="128.528624">
        <ele>13.0</ele>
      </trkpt>
      <trkpt lat="34.802596" lon="128.52836">
        <ele>11.8</ele>
      </trkpt>
      <trkpt lat="34.80269" lon="128.528191">
        <ele>0.0</ele>
      </trkpt>
      <trkpt lat="34.802729" lon="128.528161">
        <ele>0.0</ele>
      </trkpt>
      <trkpt lat="34.802730288885385" lon="128.52816224098208">
        <ele>0.0</ele>
      </trkpt>
      <trkpt lat="34.802729" lon="128.528161">
        <ele>0.0</ele>
      </trkpt>
      <trkpt lat="34.80297" lon="128.527984">
        <ele>0.0</ele>
      </trkpt>
      <trkpt lat="34.803171" lon="128.527955">
        <ele>0.0</ele>
      </trkpt>
      <trkpt lat="34.803853" lon="128.528027">
        <ele>0.0</ele>
      </trkpt>
      <trkpt lat="34.80444" lon="128.527861">
        <ele>0.0</ele>
      </trkpt>
      <trkpt lat="34.804566" lon="128.527826">
        <ele>0.0</ele>
      </trkpt>
      <trkpt lat="34.805264" lon="128.527245">
        <ele>0.0</ele>
      </trkpt>
      <trkpt lat="34.805844" lon="128.52711">
        <ele>0.0</ele>
      </trkpt>
      <trkpt lat="34.806143" lon="128.526894">
        <ele>0.0</ele>
      </trkpt>
      <trkpt lat="34.807484" lon="128.526894">
        <ele>0.0</ele>
      </trkpt>
      <trkpt lat="34.808131" lon="128.527054">
        <ele>0.0</ele>
      </trkpt>
      <trkpt lat="34.80813044793823" lon="128.527067899704">
        <ele>0.0</ele>
      </trkpt>
      <trkpt lat="34.808131" lon="128.527054">
        <ele>0.0</ele>
      </trkpt>
      <trkpt lat="34.8083" lon="128.527096">
        <ele>0.0</ele>
      </trkpt>
      <trkpt lat="34.809356" lon="128.527115">
        <ele>0.0</ele>
      </trkpt>
      <trkpt lat="34.810208" lon="128.526793">
        <ele>0.0</ele>
      </trkpt>
      <trkpt lat="34.810882" lon="128.526937">
        <ele>0.0</ele>
      </trkpt>
      <trkpt lat="34.811091" lon="128.526861">
        <ele>0.0</ele>
      </trkpt>
      <trkpt lat="34.811339" lon="128.526702">
        <ele>0.0</ele>
      </trkpt>
      <trkpt lat="34.811476" lon="128.52667">
        <ele>0.0</ele>
      </trkpt>
      <trkpt lat="34.81158" lon="128.526683">
        <ele>0.0</ele>
      </trkpt>
      <trkpt lat="34.811665" lon="128.526733">
        <ele>0.0</ele>
      </trkpt>
      <trkpt lat="34.811726" lon="128.526815">
        <ele>0.0</ele>
      </trkpt>
      <trkpt lat="34.812043" lon="128.52729">
        <ele>0.0</ele>
      </trkpt>
      <trkpt lat="34.8120415983088" lon="128.52729320526126">
        <ele>0.0</ele>
      </trkpt>
      <trkpt lat="34.812043" lon="128.52729">
        <ele>0.0</ele>
      </trkpt>
      <trkpt lat="34.81226" lon="128.527614">
        <ele>0.0</ele>
      </trkpt>
      <trkpt lat="34.812296" lon="128.527688">
        <ele>0.0</ele>
      </trkpt>
      <trkpt lat="34.812405" lon="128.528247">
        <ele>0.0</ele>
      </trkpt>
      <trkpt lat="34.812338" lon="128.528382">
        <ele>0.0</ele>
      </trkpt>
      <trkpt lat="34.812246" lon="128.528709">
        <ele>0.0</ele>
      </trkpt>
      <trkpt lat="34.812305" lon="128.529064">
        <ele>0.0</ele>
      </trkpt>
      <trkpt lat="34.812526" lon="128.529458">
        <ele>0.0</ele>
      </trkpt>
      <trkpt lat="34.812735" lon="128.529703">
        <ele>0.0</ele>
      </trkpt>
      <trkpt lat="34.812786" lon="128.52989">
        <ele>0.0</ele>
      </trkpt>
      <trkpt lat="34.812806" lon="128.530149">
        <ele>0.0</ele>
      </trkpt>
      <trkpt lat="34.812873" lon="128.530404">
        <ele>0.0</ele>
      </trkpt>
      <trkpt lat="34.813105" lon="128.531014">
        <ele>0.0</ele>
      </trkpt>
      <trkpt lat="34.81346" lon="128.531307">
        <ele>0.0</ele>
      </trkpt>
      <trkpt lat="34.814345" lon="128.531773">
        <ele>0.0</ele>
      </trkpt>
      <trkpt lat="34.814349442294265" lon="128.5317671298981">
        <ele>0.0</ele>
      </trkpt>
      <trkpt lat="34.814345" lon="128.531773">
        <ele>6.5</ele>
      </trkpt>
      <trkpt lat="34.814418" lon="128.531811">
        <ele>6.5</ele>
      </trkpt>
      <trkpt lat="34.814652" lon="128.531928">
        <ele>6.5</ele>
      </trkpt>
      <trkpt lat="34.814962" lon="128.532084">
        <ele>6.5</ele>
      </trkpt>
      <trkpt lat="34.815285" lon="128.532171">
        <ele>6.5</ele>
      </trkpt>
      <trkpt lat="34.815519" lon="128.532217">
        <ele>6.5</ele>
      </trkpt>
      <trkpt lat="34.816203" lon="128.532353">
        <ele>6.5</ele>
      </trkpt>
      <trkpt lat="34.816416" lon="128.532555">
        <ele>6.5</ele>
      </trkpt>
      <trkpt lat="34.816834" lon="128.532766">
        <ele>8.3</ele>
      </trkpt>
      <trkpt lat="34.81728" lon="128.532857">
        <ele>9.5</ele>
      </trkpt>
      <trkpt lat="34.817626" lon="128.532795">
        <ele>0.0</ele>
      </trkpt>
      <trkpt lat="34.817871" lon="128.53279">
        <ele>0.0</ele>
      </trkpt>
      <trkpt lat="34.818265" lon="128.532814">
        <ele>0.0</ele>
      </trkpt>
      <trkpt lat="34.818498" lon="128.532872">
        <ele>0.0</ele>
      </trkpt>
      <trkpt lat="34.818687" lon="128.532977">
        <ele>0.0</ele>
      </trkpt>
      <trkpt lat="34.818919" lon="128.533203">
        <ele>0.0</ele>
      </trkpt>
      <trkpt lat="34.819057" lon="128.533345">
        <ele>0.0</ele>
      </trkpt>
      <trkpt lat="34.819044207835034" lon="128.53336572647098">
        <ele>0.0</ele>
      </trkpt>
      <trkpt lat="34.819057" lon="128.533345">
        <ele>0.0</ele>
      </trkpt>
      <trkpt lat="34.819254" lon="128.533549">
        <ele>0.0</ele>
      </trkpt>
      <trkpt lat="34.819889" lon="128.533851">
        <ele>0.0</ele>
      </trkpt>
      <trkpt lat="34.820204" lon="128.533899">
        <ele>0.0</ele>
      </trkpt>
      <trkpt lat="34.820508" lon="128.534163">
        <ele>0.0</ele>
      </trkpt>
      <trkpt lat="34.820803" lon="128.534331">
        <ele>0.0</ele>
      </trkpt>
      <trkpt lat="34.821197" lon="128.534435">
        <ele>0.0</ele>
      </trkpt>
      <trkpt lat="34.821935" lon="128.534629">
        <ele>0.0</ele>
      </trkpt>
      <trkpt lat="34.82227" lon="128.534691">
        <ele>0.0</ele>
      </trkpt>
      <trkpt lat="34.822589" lon="128.534845">
        <ele>0.0</ele>
      </trkpt>
      <trkpt lat="34.82276" lon="128.535038">
        <ele>0.0</ele>
      </trkpt>
      <trkpt lat="34.82289" lon="128.535584">
        <ele>0.0</ele>
      </trkpt>
      <trkpt lat="34.82302" lon="128.535901">
        <ele>0.0</ele>
      </trkpt>
      <trkpt lat="34.823293" lon="128.536098">
        <ele>0.0</ele>
      </trkpt>
      <trkpt lat="34.823798" lon="128.536538">
        <ele>0.0</ele>
      </trkpt>
      <trkpt lat="34.823809165308866" lon="128.53653073310855">
        <ele>0.0</ele>
      </trkpt>
      <trkpt lat="34.823799" lon="128.536539">
        <ele>20.0</ele>
      </trkpt>
      <trkpt lat="34.82389" lon="128.536666">
        <ele>20.0</ele>
      </trkpt>
      <trkpt lat="34.823965" lon="128.536822">
        <ele>20.0</ele>
      </trkpt>
      <trkpt lat="34.823916" lon="128.537113">
        <ele>20.0</ele>
      </trkpt>
      <trkpt lat="34.823831" lon="128.5372">
        <ele>20.0</ele>
      </trkpt>
      <trkpt lat="34.823705" lon="128.537353">
        <ele>20.0</ele>
      </trkpt>
      <trkpt lat="34.823625" lon="128.537494">
        <ele>20.0</ele>
      </trkpt>
      <trkpt lat="34.823556" lon="128.53767">
        <ele>20.0</ele>
      </trkpt>
      <trkpt lat="34.823546" lon="128.537844">
        <ele>21.5</ele>
      </trkpt>
      <trkpt lat="34.823546" lon="128.538029">
        <ele>22.8</ele>
      </trkpt>
      <trkpt lat="34.823592" lon="128.53828">
        <ele>23.8</ele>
      </trkpt>
      <trkpt lat="34.823674" lon="128.538465">
        <ele>23.8</ele>
      </trkpt>
      <trkpt lat="34.823757" lon="128.538602">
        <ele>23.0</ele>
      </trkpt>
      <trkpt lat="34.8237475132755" lon="128.5386121273041">
        <ele>23.0</ele>
      </trkpt>
      <trkpt lat="34.823757" lon="128.538602">
        <ele>23.0</ele>
      </trkpt>
      <trkpt lat="34.823782" lon="128.538644">
        <ele>23.0</ele>
      </trkpt>
      <trkpt lat="34.824" lon="128.538784">
        <ele>19.3</ele>
      </trkpt>
      <trkpt lat="34.824142" lon="128.538821">
        <ele>16.3</ele>
      </trkpt>
      <trkpt lat="34.824204" lon="128.538817">
        <ele>0.0</ele>
      </trkpt>
      <trkpt lat="34.82792" lon="128.537669">
        <ele>0.0</ele>
      </trkpt>
      <trkpt lat="34.8279309394296" lon="128.53772163391116">
        <ele>0.0</ele>
      </trkpt>
      <trkpt lat="34.82792" lon="128.537669">
        <ele>34.8</ele>
      </trkpt>
      <trkpt lat="34.82903" lon="128.537327">
        <ele>34.8</ele>
      </trkpt>
      <trkpt lat="34.829563" lon="128.537193">
        <ele>34.8</ele>
      </trkpt>
      <trkpt lat="34.830147" lon="128.5372">
        <ele>34.8</ele>
      </trkpt>
      <trkpt lat="34.830513" lon="128.537331">
        <ele>34.5</ele>
      </trkpt>
      <trkpt lat="34.830804" lon="128.537504">
        <ele>34.3</ele>
      </trkpt>
      <trkpt lat="34.831208" lon="128.537855">
        <ele>34.0</ele>
      </trkpt>
      <trkpt lat="34.831393" lon="128.537933">
        <ele>34.0</ele>
      </trkpt>
      <trkpt lat="34.831618" lon="128.537924">
        <ele>37.0</ele>
      </trkpt>
      <trkpt lat="34.831901" lon="128.537833">
        <ele>35.3</ele>
      </trkpt>
      <trkpt lat="34.832158" lon="128.537625">
        <ele>35.5</ele>
      </trkpt>
      <trkpt lat="34.832343" lon="128.537454">
        <ele>35.3</ele>
      </trkpt>
      <trkpt lat="34.832734" lon="128.537175">
        <ele>34.3</ele>
      </trkpt>
      <trkpt lat="34.833165" lon="128.536949">
        <ele>31.3</ele>
      </trkpt>
      <trkpt lat="34.833261" lon="128.536906">
        <ele>30.8</ele>
      </trkpt>
      <trkpt lat="34.833267801984206" lon="128.53692770004275">
        <ele>30.8</ele>
      </trkpt>
      <trkpt lat="34.833261" lon="128.536906">
        <ele>31.0</ele>
      </trkpt>
      <trkpt lat="34.833667" lon="128.536725">
        <ele>30.8</ele>
      </trkpt>
      <trkpt lat="34.834006" lon="128.536612">
        <ele>29.8</ele>
      </trkpt>
      <trkpt lat="34.834171" lon="128.536648">
        <ele>28.3</ele>
      </trkpt>
      <trkpt lat="34.83424" lon="128.5367">
        <ele>29.5</ele>
      </trkpt>
      <trkpt lat="34.834343" lon="128.536806">
        <ele>30.8</ele>
      </trkpt>
      <trkpt lat="34.834537" lon="128.53739">
        <ele>24.3</ele>
      </trkpt>
      <trkpt lat="34.834631" lon="128.53753">
        <ele>23.3</ele>
      </trkpt>
      <trkpt lat="34.834732" lon="128.537605">
        <ele>23.5</ele>
      </trkpt>
      <trkpt lat="34.834788" lon="128.537667">
        <ele>23.0</ele>
      </trkpt>
      <trkpt lat="34.834981" lon="128.537768">
        <ele>23.3</ele>
      </trkpt>
      <trkpt lat="34.835105" lon="128.537813">
        <ele>22.5</ele>
      </trkpt>
      <trkpt lat="34.835606" lon="128.537916">
        <ele>21.5</ele>
      </trkpt>
      <trkpt lat="34.836145" lon="128.538041">
        <ele>17.0</ele>
      </trkpt>
      <trkpt lat="34.836365" lon="128.538102">
        <ele>14.5</ele>
      </trkpt>
      <trkpt lat="34.836494" lon="128.538156">
        <ele>12.8</ele>
      </trkpt>
      <trkpt lat="34.836603" lon="128.538234">
        <ele>10.5</ele>
      </trkpt>
      <trkpt lat="34.836667" lon="128.538321">
        <ele>8.3</ele>
      </trkpt>
      <trkpt lat="34.836709" lon="128.538396">
        <ele>7.8</ele>
      </trkpt>
      <trkpt lat="34.836893" lon="128.539099">
        <ele>6.8</ele>
      </trkpt>
      <trkpt lat="34.836976" lon="128.539419">
        <ele>7.0</ele>
      </trkpt>
      <trkpt lat="34.837003" lon="128.539525">
        <ele>7.0</ele>
      </trkpt>
      <trkpt lat="34.83707" lon="128.539784">
        <ele>8.8</ele>
      </trkpt>
      <trkpt lat="34.83708089289114" lon="128.5397815704346">
        <ele>8.8</ele>
      </trkpt>
      <trkpt lat="34.83707" lon="128.539784">
        <ele>7.3</ele>
      </trkpt>
      <trkpt lat="34.837293" lon="128.540646">
        <ele>8.8</ele>
      </trkpt>
      <trkpt lat="34.837351" lon="128.540972">
        <ele>10.0</ele>
      </trkpt>
      <trkpt lat="34.83736" lon="128.54108">
        <ele>10.8</ele>
      </trkpt>
      <trkpt lat="34.837357" lon="128.541237">
        <ele>11.8</ele>
      </trkpt>
      <trkpt lat="34.837342" lon="128.541347">
        <ele>12.3</ele>
      </trkpt>
      <trkpt lat="34.837323" lon="128.541453">
        <ele>12.8</ele>
      </trkpt>
      <trkpt lat="34.837227" lon="128.541835">
        <ele>13.3</ele>
      </trkpt>
      <trkpt lat="34.837044" lon="128.54252">
        <ele>12.3</ele>
      </trkpt>
      <trkpt lat="34.836956" lon="128.542792">
        <ele>12.5</ele>
      </trkpt>
      <trkpt lat="34.836884" lon="128.542949">
        <ele>12.8</ele>
      </trkpt>
      <trkpt lat="34.836793" lon="128.543109">
        <ele>12.8</ele>
      </trkpt>
      <trkpt lat="34.836405" lon="128.543727">
        <ele>15.3</ele>
      </trkpt>
      <trkpt lat="34.836276" lon="128.543922">
        <ele>16.8</ele>
      </trkpt>
      <trkpt lat="34.83618" lon="128.544047">
        <ele>18.0</ele>
      </trkpt>
      <trkpt lat="34.836083" lon="128.54415">
        <ele>18.8</ele>
      </trkpt>
      <trkpt lat="34.835499" lon="128.544609">
        <ele>23.0</ele>
      </trkpt>
      <trkpt lat="34.835401" lon="128.544704">
        <ele>23.0</ele>
      </trkpt>
      <trkpt lat="34.83541654005738" lon="128.54472756385806">
        <ele>23.0</ele>
      </trkpt>
      <trkpt lat="34.835401" lon="128.544704">
        <ele>23.0</ele>
      </trkpt>
      <trkpt lat="34.835395" lon="128.54471">
        <ele>23.0</ele>
      </trkpt>
      <trkpt lat="34.835339" lon="128.544783">
        <ele>23.0</ele>
      </trkpt>
      <trkpt lat="34.835281" lon="128.544878">
        <ele>22.8</ele>
      </trkpt>
      <trkpt lat="34.835246" lon="128.544987">
        <ele>22.5</ele>
      </trkpt>
      <trkpt lat="34.835215" lon="128.545126">
        <ele>23.8</ele>
      </trkpt>
      <trkpt lat="34.835177" lon="128.545446">
        <ele>27.0</ele>
      </trkpt>
      <trkpt lat="34.835156" lon="128.545673">
        <ele>29.5</ele>
      </trkpt>
      <trkpt lat="34.835131" lon="128.545786">
        <ele>30.3</ele>
      </trkpt>
      <trkpt lat="34.835085" lon="128.54588">
        <ele>30.8</ele>
      </trkpt>
      <trkpt lat="34.835002" lon="128.545951">
        <ele>30.3</ele>
      </trkpt>
      <trkpt lat="34.83483" lon="128.546051">
        <ele>29.3</ele>
      </trkpt>
      <trkpt lat="34.834651" lon="128.546143">
        <ele>28.0</ele>
      </trkpt>
      <trkpt lat="34.834564" lon="128.546226">
        <ele>27.8</ele>
      </trkpt>
      <trkpt lat="34.834501" lon="128.546332">
        <ele>28.3</ele>
      </trkpt>
      <trkpt lat="34.834468" lon="128.546426">
        <ele>28.8</ele>
      </trkpt>
      <trkpt lat="34.834418" lon="128.546597">
        <ele>29.8</ele>
      </trkpt>
      <trkpt lat="34.834377" lon="128.546808">
        <ele>29.3</ele>
      </trkpt>
      <trkpt lat="34.834382" lon="128.546917">
        <ele>28.8</ele>
      </trkpt>
      <trkpt lat="34.834414" lon="128.547005">
        <ele>29.0</ele>
      </trkpt>
      <trkpt lat="34.834632" lon="128.547295">
        <ele>33.0</ele>
      </trkpt>
      <trkpt lat="34.834693" lon="128.547401">
        <ele>34.5</ele>
      </trkpt>
      <trkpt lat="34.834723" lon="128.547526">
        <ele>35.0</ele>
      </trkpt>
      <trkpt lat="34.834773" lon="128.547893">
        <ele>34.8</ele>
      </trkpt>
      <trkpt lat="34.834823" lon="128.548322">
        <ele>34.3</ele>
      </trkpt>
      <trkpt lat="34.834826" lon="128.54848">
        <ele>34.8</ele>
      </trkpt>
      <trkpt lat="34.834791298288124" lon="128.5484826564789">
        <ele>34.8</ele>
      </trkpt>
      <trkpt lat="34.834826" lon="128.54848">
        <ele>34.5</ele>
      </trkpt>
      <trkpt lat="34.834827" lon="128.548513">
        <ele>34.8</ele>
      </trkpt>
      <trkpt lat="34.834814" lon="128.548612">
        <ele>34.5</ele>
      </trkpt>
      <trkpt lat="34.834655" lon="128.549568">
        <ele>31.8</ele>
      </trkpt>
      <trkpt lat="34.834625" lon="128.549778">
        <ele>31.3</ele>
      </trkpt>
      <trkpt lat="34.834612" lon="128.550013">
        <ele>31.5</ele>
      </trkpt>
      <trkpt lat="34.834609" lon="128.55033">
        <ele>32.5</ele>
      </trkpt>
      <trkpt lat="34.834593" lon="128.55053">
        <ele>33.0</ele>
      </trkpt>
      <trkpt lat="34.834543" lon="128.550742">
        <ele>32.3</ele>
      </trkpt>
      <trkpt lat="34.834386" lon="128.551141">
        <ele>29.8</ele>
      </trkpt>
      <trkpt lat="34.834333" lon="128.551318">
        <ele>29.3</ele>
      </trkpt>
      <trkpt lat="34.834301" lon="128.551465">
        <ele>29.3</ele>
      </trkpt>
      <trkpt lat="34.834254" lon="128.551738">
        <ele>29.5</ele>
      </trkpt>
      <trkpt lat="34.834226" lon="128.551966">
        <ele>29.0</ele>
      </trkpt>
      <trkpt lat="34.834206" lon="128.552189">
        <ele>28.8</ele>
      </trkpt>
      <trkpt lat="34.834207" lon="128.552439">
        <ele>29.0</ele>
      </trkpt>
      <trkpt lat="34.834255" lon="128.552781">
        <ele>30.5</ele>
      </trkpt>
      <trkpt lat="34.834332" lon="128.553254">
        <ele>32.8</ele>
      </trkpt>
      <trkpt lat="34.834425" lon="128.553826">
        <ele>36.5</ele>
      </trkpt>
      <trkpt lat="34.834448" lon="128.554023">
        <ele>37.5</ele>
      </trkpt>
      <trkpt lat="34.834442" lon="128.554115">
        <ele>37.8</ele>
      </trkpt>
      <trkpt lat="34.834391" lon="128.5543">
        <ele>37.3</ele>
      </trkpt>
      <trkpt lat="34.83431" lon="128.554522">
        <ele>36.5</ele>
      </trkpt>
      <trkpt lat="34.834283" lon="128.554634">
        <ele>36.3</ele>
      </trkpt>
      <trkpt lat="34.834275" lon="128.554711">
        <ele>36.5</ele>
      </trkpt>
      <trkpt lat="34.834269" lon="128.554772">
        <ele>36.5</ele>
      </trkpt>
      <trkpt lat="34.834275" lon="128.554897">
        <ele>37.3</ele>
      </trkpt>
      <trkpt lat="34.834302" lon="128.555022">
        <ele>38.3</ele>
      </trkpt>
      <trkpt lat="34.834342" lon="128.555162">
        <ele>38.3</ele>
      </trkpt>
      <trkpt lat="34.834324565421554" lon="128.55517745018008">
        <ele>38.3</ele>
      </trkpt>
      <trkpt lat="34.834343" lon="128.555166">
        <ele>38.3</ele>
      </trkpt>
      <trkpt lat="34.834659" lon="128.556136">
        <ele>39.5</ele>
      </trkpt>
      <trkpt lat="34.834739" lon="128.556389">
        <ele>40.5</ele>
      </trkpt>
      <trkpt lat="34.834845" lon="128.556714">
        <ele>41.8</ele>
      </trkpt>
      <trkpt lat="34.834989" lon="128.557181">
        <ele>40.8</ele>
      </trkpt>
      <trkpt lat="34.835109" lon="128.557611">
        <ele>40.3</ele>
      </trkpt>
      <trkpt lat="34.835187" lon="128.557891">
        <ele>41.3</ele>
      </trkpt>
      <trkpt lat="34.835279" lon="128.55823">
        <ele>43.0</ele>
      </trkpt>
      <trkpt lat="34.835409" lon="128.558701">
        <ele>49.5</ele>
      </trkpt>
      <trkpt lat="34.835569" lon="128.559266">
        <ele>55.3</ele>
      </trkpt>
      <trkpt lat="34.835633" lon="128.559435">
        <ele>56.5</ele>
      </trkpt>
      <trkpt lat="34.835703" lon="128.55956">
        <ele>57.0</ele>
      </trkpt>
      <trkpt lat="34.835771" lon="128.559628">
        <ele>57.0</ele>
      </trkpt>
      <trkpt lat="34.835955" lon="128.559712">
        <ele>56.8</ele>
      </trkpt>
      <trkpt lat="34.836178" lon="128.559805">
        <ele>56.0</ele>
      </trkpt>
      <trkpt lat="34.836296" lon="128.559866">
        <ele>55.0</ele>
      </trkpt>
      <trkpt lat="34.836384" lon="128.559955">
        <ele>53.5</ele>
      </trkpt>
      <trkpt lat="34.836484" lon="128.560083">
        <ele>48.5</ele>
      </trkpt>
      <trkpt lat="34.83651730628137" lon="128.56004834175113">
        <ele>48.5</ele>
      </trkpt>
      <trkpt lat="34.836484" lon="128.560083">
        <ele>51.3</ele>
      </trkpt>
      <trkpt lat="34.836614" lon="128.560251">
        <ele>48.5</ele>
      </trkpt>
      <trkpt lat="34.836765" lon="128.560406">
        <ele>46.3</ele>
      </trkpt>
      <trkpt lat="34.836878" lon="128.560489">
        <ele>45.5</ele>
      </trkpt>
      <trkpt lat="34.837053" lon="128.560587">
        <ele>44.3</ele>
      </trkpt>
      <trkpt lat="34.83737" lon="128.560763">
        <ele>40.8</ele>
      </trkpt>
      <trkpt lat="34.837545" lon="128.560858">
        <ele>39.0</ele>
      </trkpt>
      <trkpt lat="34.837677" lon="128.560954">
        <ele>39.3</ele>
      </trkpt>
      <trkpt lat="34.837774" lon="128.561051">
        <ele>39.0</ele>
      </trkpt>
      <trkpt lat="34.83787" lon="128.561193">
        <ele>37.8</ele>
      </trkpt>
      <trkpt lat="34.838022" lon="128.561375">
        <ele>36.5</ele>
      </trkpt>
      <trkpt lat="34.838169" lon="128.561505">
        <ele>36.0</ele>
      </trkpt>
      <trkpt lat="34.838317" lon="128.561581">
        <ele>36.3</ele>
      </trkpt>
      <trkpt lat="34.838409" lon="128.56161">
        <ele>35.5</ele>
      </trkpt>
      <trkpt lat="34.838526" lon="128.561622">
        <ele>34.5</ele>
      </trkpt>
      <trkpt lat="34.838636" lon="128.561622">
        <ele>34.0</ele>
      </trkpt>
      <trkpt lat="34.839328" lon="128.561575">
        <ele>31.3</ele>
      </trkpt>
      <trkpt lat="34.83945" lon="128.561572">
        <ele>31.0</ele>
      </trkpt>
      <trkpt lat="34.839546" lon="128.561578">
        <ele>30.5</ele>
      </trkpt>
      <trkpt lat="34.83981" lon="128.561634">
        <ele>29.0</ele>
      </trkpt>
      <trkpt lat="34.839974" lon="128.561698">
        <ele>27.5</ele>
      </trkpt>
      <trkpt lat="34.84014" lon="128.561779">
        <ele>26.0</ele>
      </trkpt>
      <trkpt lat="34.840296" lon="128.561846">
        <ele>24.8</ele>
      </trkpt>
      <trkpt lat="34.840469" lon="128.561893">
        <ele>24.0</ele>
      </trkpt>
      <trkpt lat="34.840651" lon="128.561923">
        <ele>23.3</ele>
      </trkpt>
      <trkpt lat="34.841044" lon="128.56197">
        <ele>20.8</ele>
      </trkpt>
      <trkpt lat="34.841298" lon="128.561989">
        <ele>18.8</ele>
      </trkpt>
      <trkpt lat="34.841588" lon="128.562028">
        <ele>15.0</ele>
      </trkpt>
      <trkpt lat="34.841589446869634" lon="128.56203317642215">
        <ele>15.0</ele>
      </trkpt>
      <trkpt lat="34.841588" lon="128.562028">
        <ele>16.3</ele>
      </trkpt>
      <trkpt lat="34.841745" lon="128.562049">
        <ele>15.0</ele>
      </trkpt>
      <trkpt lat="34.841939" lon="128.562094">
        <ele>13.5</ele>
      </trkpt>
      <trkpt lat="34.842109" lon="128.562134">
        <ele>12.3</ele>
      </trkpt>
      <trkpt lat="34.842465" lon="128.562213">
        <ele>9.8</ele>
      </trkpt>
      <trkpt lat="34.842681" lon="128.562252">
        <ele>8.5</ele>
      </trkpt>
      <trkpt lat="34.842786" lon="128.56226">
        <ele>8.3</ele>
      </trkpt>
      <trkpt lat="34.843128" lon="128.562289">
        <ele>6.8</ele>
      </trkpt>
      <trkpt lat="34.843244" lon="128.562311">
        <ele>6.3</ele>
      </trkpt>
      <trkpt lat="34.84334" lon="128.56235">
        <ele>5.5</ele>
      </trkpt>
      <trkpt lat="34.843583" lon="128.562483">
        <ele>5.3</ele>
      </trkpt>
      <trkpt lat="34.843706" lon="128.562557">
        <ele>5.3</ele>
      </trkpt>
      <trkpt lat="34.843824" lon="128.562628">
        <ele>5.0</ele>
      </trkpt>
      <trkpt lat="34.843986" lon="128.562722">
        <ele>5.0</ele>
      </trkpt>
      <trkpt lat="34.844078" lon="128.562776">
        <ele>5.0</ele>
      </trkpt>
      <trkpt lat="34.844258" lon="128.562883">
        <ele>5.0</ele>
      </trkpt>
      <trkpt lat="34.844557" lon="128.563066">
        <ele>5.0</ele>
      </trkpt>
      <trkpt lat="34.84486" lon="128.56329">
        <ele>5.5</ele>
      </trkpt>
      <trkpt lat="34.845008" lon="128.563413">
        <ele>5.8</ele>
      </trkpt>
      <trkpt lat="34.84546" lon="128.56379">
        <ele>6.5</ele>
      </trkpt>
      <trkpt lat="34.846347" lon="128.564545">
        <ele>0.0</ele>
      </trkpt>
      <trkpt lat="34.84689" lon="128.56515">
        <ele>0.0</ele>
      </trkpt>
      <trkpt lat="34.84694" lon="128.56524">
        <ele>0.0</ele>
      </trkpt>
      <trkpt lat="34.8469078139314" lon="128.5652625560035">
        <ele>0.0</ele>
      </trkpt>
      <trkpt lat="34.846942" lon="128.565246">
        <ele>7.3</ele>
      </trkpt>
      <trkpt lat="34.84698" lon="128.56536">
        <ele>7.3</ele>
      </trkpt>
      <trkpt lat="34.847031" lon="128.565614">
        <ele>7.3</ele>
      </trkpt>
      <trkpt lat="34.84708" lon="128.56595">
        <ele>7.3</ele>
      </trkpt>
      <trkpt lat="34.847109" lon="128.566076">
        <ele>7.3</ele>
      </trkpt>
      <trkpt lat="34.84716" lon="128.566191">
        <ele>7.3</ele>
      </trkpt>
      <trkpt lat="34.847214" lon="128.566259">
        <ele>7.3</ele>
      </trkpt>
      <trkpt lat="34.847839" lon="128.567017">
        <ele>7.3</ele>
      </trkpt>
      <trkpt lat="34.84792" lon="128.567116">
        <ele>7.3</ele>
      </trkpt>
      <trkpt lat="34.848207" lon="128.567433">
        <ele>7.0</ele>
      </trkpt>
      <trkpt lat="34.849506" lon="128.568999">
        <ele>6.5</ele>
      </trkpt>
      <trkpt lat="34.849601" lon="128.569111">
        <ele>6.5</ele>
      </trkpt>
      <trkpt lat="34.850359" lon="128.570003">
        <ele>7.8</ele>
      </trkpt>
      <trkpt lat="34.850369" lon="128.570015">
        <ele>7.8</ele>
      </trkpt>
      <trkpt lat="34.850442" lon="128.570105">
        <ele>8.0</ele>
      </trkpt>
      <trkpt lat="34.850459" lon="128.57012">
        <ele>8.0</ele>
      </trkpt>
      <trkpt lat="34.850512" lon="128.570182">
        <ele>8.0</ele>
      </trkpt>
      <trkpt lat="34.850642" lon="128.570307">
        <ele>8.3</ele>
      </trkpt>
      <trkpt lat="34.850776" lon="128.570395">
        <ele>8.5</ele>
      </trkpt>
      <trkpt lat="34.850923" lon="128.570457">
        <ele>8.5</ele>
      </trkpt>
      <trkpt lat="34.850936" lon="128.570459">
        <ele>8.8</ele>
      </trkpt>
      <trkpt lat="34.850940386722115" lon="128.5704338550568">
        <ele>8.8</ele>
      </trkpt>
      <trkpt lat="34.850936" lon="128.570459">
        <ele>7.5</ele>
      </trkpt>
      <trkpt lat="34.851148" lon="128.570494">
        <ele>8.8</ele>
      </trkpt>
      <trkpt lat="34.85152" lon="128.570481">
        <ele>11.0</ele>
      </trkpt>
      <trkpt lat="34.851709" lon="128.570511">
        <ele>12.3</ele>
      </trkpt>
      <trkpt lat="34.851829" lon="128.570567">
        <ele>12.5</ele>
      </trkpt>
      <trkpt lat="34.852217" lon="128.570913">
        <ele>13.5</ele>
      </trkpt>
      <trkpt lat="34.852748" lon="128.571472">
        <ele>15.3</ele>
      </trkpt>
      <trkpt lat="34.852938" lon="128.571596">
        <ele>15.3</ele>
      </trkpt>
      <trkpt lat="34.853249" lon="128.571727">
        <ele>15.3</ele>
      </trkpt>
      <trkpt lat="34.853458" lon="128.571841">
        <ele>15.5</ele>
      </trkpt>
      <trkpt lat="34.853848" lon="128.57216">
        <ele>15.5</ele>
      </trkpt>
      <trkpt lat="34.854349" lon="128.572546">
        <ele>0.0</ele>
      </trkpt>
      <trkpt lat="34.85442" lon="128.572588">
        <ele>0.0</ele>
      </trkpt>
      <trkpt lat="34.854409" lon="128.572649">
        <ele>0.0</ele>
      </trkpt>
      <trkpt lat="34.854403" lon="128.572787">
        <ele>0.0</ele>
      </trkpt>
      <trkpt lat="34.854416" lon="128.572916">
        <ele>0.0</ele>
      </trkpt>
      <trkpt lat="34.854416" lon="128.572994">
        <ele>0.0</ele>
      </trkpt>
      <trkpt lat="34.854346" lon="128.573361">
        <ele>0.0</ele>
      </trkpt>
      <trkpt lat="34.854293" lon="128.573591">
        <ele>0.0</ele>
      </trkpt>
      <trkpt lat="34.854134" lon="128.574396">
        <ele>0.0</ele>
      </trkpt>
      <trkpt lat="34.853945" lon="128.574654">
        <ele>0.0</ele>
      </trkpt>
      <trkpt lat="34.853941" lon="128.574789">
        <ele>0.0</ele>
      </trkpt>
      <trkpt lat="34.853905" lon="128.576279">
        <ele>0.0</ele>
      </trkpt>
      <trkpt lat="34.85394261083739" lon="128.57628103203015">
        <ele>0.0</ele>
      </trkpt>
      <trkpt lat="34.853905" lon="128.576279">
        <ele>0.0</ele>
      </trkpt>
      <trkpt lat="34.853905" lon="128.57629">
        <ele>0.0</ele>
      </trkpt>
      <trkpt lat="34.853817" lon="128.576917">
        <ele>0.0</ele>
      </trkpt>
      <trkpt lat="34.853746" lon="128.577497">
        <ele>0.0</ele>
      </trkpt>
      <trkpt lat="34.853799" lon="128.57769">
        <ele>0.0</ele>
      </trkpt>
      <trkpt lat="34.853856" lon="128.577748">
        <ele>0.0</ele>
      </trkpt>
      <trkpt lat="34.85386337293986" lon="128.57774015373425">
        <ele>0.0</ele>
      </trkpt>
      <trkpt lat="34.85370489691587" lon="128.57829805320935">
        <ele>0.0</ele>
      </trkpt>
      <trkpt lat="34.853703" lon="128.578282">
        <ele>3.3</ele>
      </trkpt>
      <trkpt lat="34.853676" lon="128.578287">
        <ele>3.3</ele>
      </trkpt>
      <trkpt lat="34.853514" lon="128.578483">
        <ele>3.3</ele>
      </trkpt>
      <trkpt lat="34.852672" lon="128.579542">
        <ele>0.0</ele>
      </trkpt>
      <trkpt lat="34.852682" lon="128.579554">
        <ele>0.0</ele>
      </trkpt>
      <trkpt lat="34.852683599661034" lon="128.57955332702832">
        <ele>0.0</ele>
      </trkpt>
      <trkpt lat="34.852682" lon="128.579554">
        <ele>1.8</ele>
      </trkpt>
      <trkpt lat="34.852701" lon="128.579574">
        <ele>1.8</ele>
      </trkpt>
      <trkpt lat="34.852804" lon="128.579687">
        <ele>1.8</ele>
      </trkpt>
      <trkpt lat="34.852852" lon="128.579745">
        <ele>1.8</ele>
      </trkpt>
      <trkpt lat="34.853443" lon="128.580409">
        <ele>1.8</ele>
      </trkpt>
      <trkpt lat="34.853418" lon="128.580438">
        <ele>1.8</ele>
      </trkpt>
      <trkpt lat="34.8534231610084" lon="128.58044382042127">
        <ele>1.8</ele>
      </trkpt>
      <trkpt lat="34.853418" lon="128.580438">
        <ele>0.0</ele>
      </trkpt>
      <trkpt lat="34.852648" lon="128.581377">
        <ele>0.0</ele>
      </trkpt>
      <trkpt lat="34.8526483822882" lon="128.58137722915845">
        <ele>0.0</ele>
      </trkpt>
    </trkseg>
  </trk>
</gpx>