<?xml version="1.0" encoding="UTF-8"?>
<gpx version="1.1" creator="HTML GPX Creator" xmlns="http://www.topografix.com/GPX/1/1">
  <trk>
    <name>Gimcheon_marathon_half</name>
    <trkseg>
      <trkpt lat="36.14052604440035" lon="128.0878829956055">
        <ele>69.5</ele>
      </trkpt>
      <trkpt lat="36.140526" lon="128.087912">
        <ele>69.7</ele>
      </trkpt>
      <trkpt lat="36.139691" lon="128.087934">
        <ele>70.0</ele>
      </trkpt>
      <trkpt lat="36.137687" lon="128.087946">
        <ele>70.3</ele>
      </trkpt>
      <trkpt lat="36.1374" lon="128.087939">
        <ele>70.6</ele>
      </trkpt>
      <trkpt lat="36.137352" lon="128.087934">
        <ele>70.9</ele>
      </trkpt>
      <trkpt lat="36.13735484005949" lon="128.08790445327762">
        <ele>71.1</ele>
      </trkpt>
      <trkpt lat="36.137352" lon="128.087934">
        <ele>71.4</ele>
      </trkpt>
      <trkpt lat="36.1374" lon="128.087939">
        <ele>71.6</ele>
      </trkpt>
      <trkpt lat="36.1374" lon="128.087394">
        <ele>71.8</ele>
      </trkpt>
      <trkpt lat="36.137365" lon="128.086584">
        <ele>72.0</ele>
      </trkpt>
      <trkpt lat="36.137324" lon="128.086338">
        <ele>72.2</ele>
      </trkpt>
      <trkpt lat="36.137288" lon="128.086125">
        <ele>72.3</ele>
      </trkpt>
      <trkpt lat="36.137054" lon="128.085009">
        <ele>72.5</ele>
      </trkpt>
      <trkpt lat="36.136973" lon="128.084548">
        <ele>72.7</ele>
      </trkpt>
      <trkpt lat="36.136903" lon="128.084036">
        <ele>72.9</ele>
      </trkpt>
      <trkpt lat="36.136883" lon="128.083852">
        <ele>73.3</ele>
      </trkpt>
      <trkpt lat="36.136848" lon="128.083526">
        <ele>73.7</ele>
      </trkpt>
      <trkpt lat="36.136831" lon="128.083367">
        <ele>74.1</ele>
      </trkpt>
      <trkpt lat="36.136793" lon="128.082787">
        <ele>74.5</ele>
      </trkpt>
      <trkpt lat="36.136763" lon="128.08229">
        <ele>74.9</ele>
      </trkpt>
      <trkpt lat="36.136763" lon="128.082195">
        <ele>75.3</ele>
      </trkpt>
      <trkpt lat="36.136754" lon="128.08119">
        <ele>75.7</ele>
      </trkpt>
      <trkpt lat="36.136751" lon="128.08075">
        <ele>76.1</ele>
      </trkpt>
      <trkpt lat="36.136727" lon="128.080386">
        <ele>76.4</ele>
      </trkpt>
      <trkpt lat="36.136707" lon="128.080079">
        <ele>76.8</ele>
      </trkpt>
      <trkpt lat="36.13665" lon="128.079649">
        <ele>77.1</ele>
      </trkpt>
      <trkpt lat="36.136303" lon="128.078271">
        <ele>77.4</ele>
      </trkpt>
      <trkpt lat="36.135987" lon="128.077016">
        <ele>77.7</ele>
      </trkpt>
      <trkpt lat="36.135949" lon="128.077043">
        <ele>78.0</ele>
      </trkpt>
      <trkpt lat="36.13595115131495" lon="128.07704687118533">
        <ele>78.2</ele>
      </trkpt>
      <trkpt lat="36.135949" lon="128.077043">
        <ele>78.5</ele>
      </trkpt>
      <trkpt lat="36.135987" lon="128.077016">
        <ele>78.8</ele>
      </trkpt>
      <trkpt lat="36.135911" lon="128.076719">
        <ele>78.9</ele>
      </trkpt>
      <trkpt lat="36.136155" lon="128.075738">
        <ele>79.1</ele>
      </trkpt>
      <trkpt lat="36.13683" lon="128.073015">
        <ele>79.3</ele>
      </trkpt>
      <trkpt lat="36.13689" lon="128.072774">
        <ele>79.5</ele>
      </trkpt>
      <trkpt lat="36.136958" lon="128.0725">
        <ele>79.6</ele>
      </trkpt>
      <trkpt lat="36.137357" lon="128.070767">
        <ele>79.8</ele>
      </trkpt>
      <trkpt lat="36.137406" lon="128.070553">
        <ele>80.0</ele>
      </trkpt>
      <trkpt lat="36.137458" lon="128.070328">
        <ele>80.2</ele>
      </trkpt>
      <trkpt lat="36.137574" lon="128.069826">
        <ele>80.3</ele>
      </trkpt>
      <trkpt lat="36.137868" lon="128.06797">
        <ele>80.5</ele>
      </trkpt>
      <trkpt lat="36.137957" lon="128.067638">
        <ele>80.7</ele>
      </trkpt>
      <trkpt lat="36.138051" lon="128.067362">
        <ele>80.8</ele>
      </trkpt>
      <trkpt lat="36.138274" lon="128.066942">
        <ele>80.9</ele>
      </trkpt>
      <trkpt lat="36.138738" lon="128.06634">
        <ele>81.0</ele>
      </trkpt>
      <trkpt lat="36.139265" lon="128.065567">
        <ele>81.1</ele>
      </trkpt>
      <trkpt lat="36.139379" lon="128.065371">
        <ele>81.2</ele>
      </trkpt>
      <trkpt lat="36.139443" lon="128.065263">
        <ele>81.2</ele>
      </trkpt>
      <trkpt lat="36.139587" lon="128.064968">
        <ele>81.3</ele>
      </trkpt>
      <trkpt lat="36.13955563482415" lon="128.06494474411014">
        <ele>81.3</ele>
      </trkpt>
      <trkpt lat="36.139587" lon="128.064968">
        <ele>81.4</ele>
      </trkpt>
      <trkpt lat="36.139676" lon="128.06479">
        <ele>81.4</ele>
      </trkpt>
      <trkpt lat="36.139728" lon="128.064494">
        <ele>81.5</ele>
      </trkpt>
      <trkpt lat="36.139776" lon="128.064051">
        <ele>81.6</ele>
      </trkpt>
      <trkpt lat="36.139834" lon="128.063464">
        <ele>81.6</ele>
      </trkpt>
      <trkpt lat="36.139863" lon="128.063134">
        <ele>81.7</ele>
      </trkpt>
      <trkpt lat="36.139931" lon="128.062654">
        <ele>81.8</ele>
      </trkpt>
      <trkpt lat="36.140032" lon="128.062367">
        <ele>82.0</ele>
      </trkpt>
      <trkpt lat="36.140177" lon="128.061882">
        <ele>82.1</ele>
      </trkpt>
      <trkpt lat="36.140851" lon="128.060095">
        <ele>82.2</ele>
      </trkpt>
      <trkpt lat="36.14088" lon="128.060112">
        <ele>82.3</ele>
      </trkpt>
      <trkpt lat="36.140912" lon="128.060115">
        <ele>82.5</ele>
      </trkpt>
      <trkpt lat="36.140943" lon="128.060106">
        <ele>82.6</ele>
      </trkpt>
      <trkpt lat="36.14097" lon="128.060085">
        <ele>82.8</ele>
      </trkpt>
      <trkpt lat="36.14099" lon="128.060054">
        <ele>82.9</ele>
      </trkpt>
      <trkpt lat="36.141001" lon="128.060016">
        <ele>83.1</ele>
      </trkpt>
      <trkpt lat="36.141001" lon="128.059977">
        <ele>83.3</ele>
      </trkpt>
      <trkpt lat="36.140991" lon="128.059939">
        <ele>83.4</ele>
      </trkpt>
      <trkpt lat="36.14129" lon="128.059564">
        <ele>83.6</ele>
      </trkpt>
      <trkpt lat="36.141438" lon="128.059296">
        <ele>83.8</ele>
      </trkpt>
      <trkpt lat="36.141597" lon="128.058954">
        <ele>84.0</ele>
      </trkpt>
      <trkpt lat="36.141739" lon="128.058639">
        <ele>84.3</ele>
      </trkpt>
      <trkpt lat="36.14178" lon="128.058498">
        <ele>84.5</ele>
      </trkpt>
      <trkpt lat="36.141832" lon="128.058268">
        <ele>84.8</ele>
      </trkpt>
      <trkpt lat="36.141917" lon="128.057762">
        <ele>85.1</ele>
      </trkpt>
      <trkpt lat="36.141937" lon="128.057525">
        <ele>85.4</ele>
      </trkpt>
      <trkpt lat="36.142126" lon="128.054526">
        <ele>85.7</ele>
      </trkpt>
      <trkpt lat="36.142145" lon="128.054329">
        <ele>86.1</ele>
      </trkpt>
      <trkpt lat="36.142102934361965" lon="128.05432319641116">
        <ele>86.4</ele>
      </trkpt>
      <trkpt lat="36.142145" lon="128.054329">
        <ele>86.8</ele>
      </trkpt>
      <trkpt lat="36.142147" lon="128.054314">
        <ele>87.2</ele>
      </trkpt>
      <trkpt lat="36.14218" lon="128.054063">
        <ele>87.6</ele>
      </trkpt>
      <trkpt lat="36.142272" lon="128.053543">
        <ele>88.0</ele>
      </trkpt>
      <trkpt lat="36.14234" lon="128.053253">
        <ele>88.4</ele>
      </trkpt>
      <trkpt lat="36.142439" lon="128.052899">
        <ele>88.9</ele>
      </trkpt>
      <trkpt lat="36.142533" lon="128.052526">
        <ele>89.3</ele>
      </trkpt>
      <trkpt lat="36.142752" lon="128.051732">
        <ele>89.8</ele>
      </trkpt>
      <trkpt lat="36.142777" lon="128.05161">
        <ele>90.3</ele>
      </trkpt>
      <trkpt lat="36.142824" lon="128.051408">
        <ele>90.8</ele>
      </trkpt>
      <trkpt lat="36.14295" lon="128.050858">
        <ele>91.3</ele>
      </trkpt>
      <trkpt lat="36.143006" lon="128.050462">
        <ele>91.8</ele>
      </trkpt>
      <trkpt lat="36.143024" lon="128.050222">
        <ele>92.3</ele>
      </trkpt>
      <trkpt lat="36.142931" lon="128.04993">
        <ele>92.8</ele>
      </trkpt>
      <trkpt lat="36.142554" lon="128.048521">
        <ele>93.3</ele>
      </trkpt>
      <trkpt lat="36.142518" lon="128.048279">
        <ele>93.9</ele>
      </trkpt>
      <trkpt lat="36.142504" lon="128.048067">
        <ele>94.4</ele>
      </trkpt>
      <trkpt lat="36.142513" lon="128.047825">
        <ele>95.0</ele>
      </trkpt>
      <trkpt lat="36.142567" lon="128.047538">
        <ele>95.6</ele>
      </trkpt>
      <trkpt lat="36.143156" lon="128.045452">
        <ele>96.2</ele>
      </trkpt>
      <trkpt lat="36.143267" lon="128.045098">
        <ele>96.7</ele>
      </trkpt>
      <trkpt lat="36.143361" lon="128.044828">
        <ele>97.3</ele>
      </trkpt>
      <trkpt lat="36.143455" lon="128.044583">
        <ele>97.9</ele>
      </trkpt>
      <trkpt lat="36.143638" lon="128.044149">
        <ele>98.4</ele>
      </trkpt>
      <trkpt lat="36.143755" lon="128.043907">
        <ele>99.0</ele>
      </trkpt>
      <trkpt lat="36.144011" lon="128.043441">
        <ele>99.6</ele>
      </trkpt>
      <trkpt lat="36.144281" lon="128.043013">
        <ele>100.1</ele>
      </trkpt>
      <trkpt lat="36.144822" lon="128.042196">
        <ele>100.7</ele>
      </trkpt>
      <trkpt lat="36.146031" lon="128.040372">
        <ele>101.3</ele>
      </trkpt>
      <trkpt lat="36.146085" lon="128.040309">
        <ele>101.8</ele>
      </trkpt>
      <trkpt lat="36.146071011717574" lon="128.04028987884524">
        <ele>102.4</ele>
      </trkpt>
      <trkpt lat="36.146085" lon="128.040309">
        <ele>102.9</ele>
      </trkpt>
      <trkpt lat="36.146143" lon="128.040244">
        <ele>103.4</ele>
      </trkpt>
      <trkpt lat="36.146546" lon="128.039893">
        <ele>103.9</ele>
      </trkpt>
      <trkpt lat="36.146689" lon="128.039793">
        <ele>104.4</ele>
      </trkpt>
      <trkpt lat="36.146878" lon="128.039687">
        <ele>104.9</ele>
      </trkpt>
      <trkpt lat="36.147076" lon="128.039587">
        <ele>105.3</ele>
      </trkpt>
      <trkpt lat="36.147443" lon="128.039466">
        <ele>105.7</ele>
      </trkpt>
      <trkpt lat="36.147531" lon="128.039433">
        <ele>106.1</ele>
      </trkpt>
      <trkpt lat="36.147656" lon="128.039378">
        <ele>106.5</ele>
      </trkpt>
      <trkpt lat="36.147857" lon="128.039252">
        <ele>106.8</ele>
      </trkpt>
      <trkpt lat="36.147957" lon="128.039177">
        <ele>107.1</ele>
      </trkpt>
      <trkpt lat="36.148047" lon="128.039093">
        <ele>107.4</ele>
      </trkpt>
      <trkpt lat="36.148087" lon="128.039045">
        <ele>107.6</ele>
      </trkpt>
      <trkpt lat="36.148104" lon="128.038995">
        <ele>107.8</ele>
      </trkpt>
      <trkpt lat="36.14811561950296" lon="128.0390024185181">
        <ele>108.0</ele>
      </trkpt>
      <trkpt lat="36.148104" lon="128.038995">
        <ele>108.2</ele>
      </trkpt>
      <trkpt lat="36.148108" lon="128.038987">
        <ele>108.4</ele>
      </trkpt>
      <trkpt lat="36.148124" lon="128.038908">
        <ele>108.5</ele>
      </trkpt>
      <trkpt lat="36.148205" lon="128.038272">
        <ele>108.6</ele>
      </trkpt>
      <trkpt lat="36.148234" lon="128.038153">
        <ele>108.7</ele>
      </trkpt>
      <trkpt lat="36.14827" lon="128.038022">
        <ele>108.7</ele>
      </trkpt>
      <trkpt lat="36.148475" lon="128.037554">
        <ele>108.7</ele>
      </trkpt>
      <trkpt lat="36.148554" lon="128.037384">
        <ele>108.7</ele>
      </trkpt>
      <trkpt lat="36.150013" lon="128.034655">
        <ele>108.7</ele>
      </trkpt>
      <trkpt lat="36.151399" lon="128.032563">
        <ele>108.6</ele>
      </trkpt>
      <trkpt lat="36.152292" lon="128.031264">
        <ele>108.5</ele>
      </trkpt>
      <trkpt lat="36.152466" lon="128.031011">
        <ele>108.4</ele>
      </trkpt>
      <trkpt lat="36.153279" lon="128.029956">
        <ele>108.3</ele>
      </trkpt>
      <trkpt lat="36.153024" lon="128.029609">
        <ele>108.2</ele>
      </trkpt>
      <trkpt lat="36.152947" lon="128.029519">
        <ele>108.1</ele>
      </trkpt>
      <trkpt lat="36.152886" lon="128.029441">
        <ele>107.9</ele>
      </trkpt>
      <trkpt lat="36.152557" lon="128.029061">
        <ele>107.8</ele>
      </trkpt>
      <trkpt lat="36.15260317344249" lon="128.02900314331058">
        <ele>107.7</ele>
      </trkpt>
      <trkpt lat="36.152557" lon="128.029061">
        <ele>107.5</ele>
      </trkpt>
      <trkpt lat="36.152006" lon="128.028422">
        <ele>107.4</ele>
      </trkpt>
      <trkpt lat="36.151606" lon="128.027929">
        <ele>107.3</ele>
      </trkpt>
      <trkpt lat="36.151093" lon="128.027036">
        <ele>107.2</ele>
      </trkpt>
      <trkpt lat="36.150947" lon="128.026817">
        <ele>107.2</ele>
      </trkpt>
      <trkpt lat="36.150863" lon="128.026665">
        <ele>107.1</ele>
      </trkpt>
      <trkpt lat="36.150772" lon="128.026412">
        <ele>107.1</ele>
      </trkpt>
      <trkpt lat="36.150484" lon="128.025426">
        <ele>107.1</ele>
      </trkpt>
      <trkpt lat="36.150422" lon="128.025146">
        <ele>107.2</ele>
      </trkpt>
      <trkpt lat="36.150411" lon="128.025067">
        <ele>107.2</ele>
      </trkpt>
      <trkpt lat="36.150614" lon="128.025053">
        <ele>107.3</ele>
      </trkpt>
      <trkpt lat="36.151912" lon="128.025034">
        <ele>107.4</ele>
      </trkpt>
      <trkpt lat="36.152353" lon="128.025116">
        <ele>107.5</ele>
      </trkpt>
      <trkpt lat="36.152549" lon="128.025192">
        <ele>107.7</ele>
      </trkpt>
      <trkpt lat="36.152738" lon="128.025313">
        <ele>107.9</ele>
      </trkpt>
      <trkpt lat="36.152892" lon="128.025374">
        <ele>108.1</ele>
      </trkpt>
      <trkpt lat="36.153033" lon="128.025374">
        <ele>108.3</ele>
      </trkpt>
      <trkpt lat="36.153155" lon="128.025298">
        <ele>108.6</ele>
      </trkpt>
      <trkpt lat="36.153278" lon="128.025139">
        <ele>108.9</ele>
      </trkpt>
      <trkpt lat="36.15374" lon="128.024065">
        <ele>109.3</ele>
      </trkpt>
      <trkpt lat="36.154278" lon="128.02369">
        <ele>109.6</ele>
      </trkpt>
      <trkpt lat="36.154684" lon="128.023423">
        <ele>110.0</ele>
      </trkpt>
      <trkpt lat="36.155099" lon="128.023168">
        <ele>110.5</ele>
      </trkpt>
      <trkpt lat="36.155467" lon="128.022898">
        <ele>110.9</ele>
      </trkpt>
      <trkpt lat="36.15551388194179" lon="128.02299499511722">
        <ele>111.4</ele>
      </trkpt>
      <trkpt lat="36.155467" lon="128.022898">
        <ele>111.8</ele>
      </trkpt>
      <trkpt lat="36.155808" lon="128.02265">
        <ele>112.3</ele>
      </trkpt>
      <trkpt lat="36.15625" lon="128.02227">
        <ele>112.8</ele>
      </trkpt>
      <trkpt lat="36.15671" lon="128.02184">
        <ele>113.3</ele>
      </trkpt>
      <trkpt lat="36.15769" lon="128.0209">
        <ele>113.9</ele>
      </trkpt>
      <trkpt lat="36.15971" lon="128.01891">
        <ele>114.4</ele>
      </trkpt>
      <trkpt lat="36.1608" lon="128.01786">
        <ele>114.9</ele>
      </trkpt>
      <trkpt lat="36.16125" lon="128.0174">
        <ele>115.5</ele>
      </trkpt>
      <trkpt lat="36.16172" lon="128.01696">
        <ele>116.0</ele>
      </trkpt>
      <trkpt lat="36.16217" lon="128.01655">
        <ele>116.6</ele>
      </trkpt>
      <trkpt lat="36.16248" lon="128.01625">
        <ele>117.2</ele>
      </trkpt>
      <trkpt lat="36.163046" lon="128.01576">
        <ele>117.8</ele>
      </trkpt>
      <trkpt lat="36.16349" lon="128.01534">
        <ele>118.3</ele>
      </trkpt>
      <trkpt lat="36.16406" lon="128.01492">
        <ele>118.9</ele>
      </trkpt>
      <trkpt lat="36.164252" lon="128.014808">
        <ele>119.5</ele>
      </trkpt>
      <trkpt lat="36.164643" lon="128.014563">
        <ele>120.1</ele>
      </trkpt>
      <trkpt lat="36.164975" lon="128.014344">
        <ele>120.7</ele>
      </trkpt>
      <trkpt lat="36.16532" lon="128.01411">
        <ele>121.3</ele>
      </trkpt>
      <trkpt lat="36.165782" lon="128.013841">
        <ele>121.9</ele>
      </trkpt>
      <trkpt lat="36.166042" lon="128.013678">
        <ele>122.5</ele>
      </trkpt>
      <trkpt lat="36.166318" lon="128.0135">
        <ele>123.2</ele>
      </trkpt>
      <trkpt lat="36.167113" lon="128.013013">
        <ele>123.8</ele>
      </trkpt>
      <trkpt lat="36.167472" lon="128.012755">
        <ele>124.5</ele>
      </trkpt>
      <trkpt lat="36.167752" lon="128.012608">
        <ele>125.1</ele>
      </trkpt>
      <trkpt lat="36.167957" lon="128.012533">
        <ele>125.8</ele>
      </trkpt>
      <trkpt lat="36.168268" lon="128.012445">
        <ele>126.5</ele>
      </trkpt>
      <trkpt lat="36.168562" lon="128.012406">
        <ele>127.1</ele>
      </trkpt>
      <trkpt lat="36.168925" lon="128.01239">
        <ele>127.8</ele>
      </trkpt>
      <trkpt lat="36.169116" lon="128.012408">
        <ele>128.5</ele>
      </trkpt>
      <trkpt lat="36.169312" lon="128.012455">
        <ele>129.2</ele>
      </trkpt>
      <trkpt lat="36.169518" lon="128.012547">
        <ele>129.8</ele>
      </trkpt>
      <trkpt lat="36.169565" lon="128.012568">
        <ele>130.6</ele>
      </trkpt>
      <trkpt lat="36.169843" lon="128.012702">
        <ele>131.3</ele>
      </trkpt>
      <trkpt lat="36.169907" lon="128.012731">
        <ele>132.0</ele>
      </trkpt>
      <trkpt lat="36.16989258244813" lon="128.0127811431885">
        <ele>132.8</ele>
      </trkpt>
      <trkpt lat="36.169907" lon="128.012731">
        <ele>133.5</ele>
      </trkpt>
      <trkpt lat="36.17122" lon="128.01334">
        <ele>134.3</ele>
      </trkpt>
      <trkpt lat="36.171482" lon="128.013491">
        <ele>135.0</ele>
      </trkpt>
      <trkpt lat="36.172154" lon="128.013876">
        <ele>135.7</ele>
      </trkpt>
      <trkpt lat="36.172604" lon="128.014075">
        <ele>136.4</ele>
      </trkpt>
      <trkpt lat="36.172971" lon="128.014115">
        <ele>137.1</ele>
      </trkpt>
      <trkpt lat="36.173312" lon="128.014061">
        <ele>137.8</ele>
      </trkpt>
      <trkpt lat="36.173758" lon="128.013959">
        <ele>138.4</ele>
      </trkpt>
      <trkpt lat="36.174123" lon="128.013826">
        <ele>139.0</ele>
      </trkpt>
      <trkpt lat="36.17457" lon="128.01356">
        <ele>139.6</ele>
      </trkpt>
      <trkpt lat="36.17483" lon="128.01344">
        <ele>140.2</ele>
      </trkpt>
      <trkpt lat="36.17533" lon="128.01335">
        <ele>140.8</ele>
      </trkpt>
      <trkpt lat="36.17603" lon="128.01332">
        <ele>141.3</ele>
      </trkpt>
      <trkpt lat="36.17688" lon="128.0133">
        <ele>141.8</ele>
      </trkpt>
      <trkpt lat="36.17705" lon="128.01327">
        <ele>142.2</ele>
      </trkpt>
      <trkpt lat="36.17754" lon="128.01327">
        <ele>142.6</ele>
      </trkpt>
      <trkpt lat="36.17806" lon="128.01325">
        <ele>142.9</ele>
      </trkpt>
      <trkpt lat="36.1786" lon="128.0132">
        <ele>143.2</ele>
      </trkpt>
      <trkpt lat="36.17909" lon="128.01306">
        <ele>143.4</ele>
      </trkpt>
      <trkpt lat="36.17945" lon="128.01286">
        <ele>143.5</ele>
      </trkpt>
      <trkpt lat="36.18015" lon="128.0124">
        <ele>143.6</ele>
      </trkpt>
      <trkpt lat="36.180176" lon="128.012384">
        <ele>143.7</ele>
      </trkpt>
      <trkpt lat="36.18014662238743" lon="128.01230907440188">
        <ele>143.7</ele>
      </trkpt>
      <trkpt lat="36.180176" lon="128.012384">
        <ele>143.7</ele>
      </trkpt>
      <trkpt lat="36.18015" lon="128.0124">
        <ele>143.6</ele>
      </trkpt>
      <trkpt lat="36.17945" lon="128.01286">
        <ele>143.4</ele>
      </trkpt>
      <trkpt lat="36.17909" lon="128.01306">
        <ele>143.2</ele>
      </trkpt>
      <trkpt lat="36.1786" lon="128.0132">
        <ele>142.9</ele>
      </trkpt>
      <trkpt lat="36.17806" lon="128.01325">
        <ele>142.6</ele>
      </trkpt>
      <trkpt lat="36.17754" lon="128.01327">
        <ele>142.2</ele>
      </trkpt>
      <trkpt lat="36.17705" lon="128.01327">
        <ele>141.8</ele>
      </trkpt>
      <trkpt lat="36.17688" lon="128.0133">
        <ele>141.3</ele>
      </trkpt>
      <trkpt lat="36.17603" lon="128.01332">
        <ele>140.8</ele>
      </trkpt>
      <trkpt lat="36.17533" lon="128.01335">
        <ele>140.3</ele>
      </trkpt>
      <trkpt lat="36.17483" lon="128.01344">
        <ele>139.7</ele>
      </trkpt>
      <trkpt lat="36.17457" lon="128.01356">
        <ele>139.1</ele>
      </trkpt>
      <trkpt lat="36.174123" lon="128.013826">
        <ele>138.4</ele>
      </trkpt>
      <trkpt lat="36.173758" lon="128.013959">
        <ele>137.8</ele>
      </trkpt>
      <trkpt lat="36.173312" lon="128.014061">
        <ele>137.1</ele>
      </trkpt>
      <trkpt lat="36.172971" lon="128.014115">
        <ele>136.3</ele>
      </trkpt>
      <trkpt lat="36.172604" lon="128.014075">
        <ele>135.6</ele>
      </trkpt>
      <trkpt lat="36.172154" lon="128.013876">
        <ele>134.9</ele>
      </trkpt>
      <trkpt lat="36.171482" lon="128.013491">
        <ele>134.1</ele>
      </trkpt>
      <trkpt lat="36.17122" lon="128.01334">
        <ele>133.3</ele>
      </trkpt>
      <trkpt lat="36.169843" lon="128.012702">
        <ele>132.6</ele>
      </trkpt>
      <trkpt lat="36.169565" lon="128.012568">
        <ele>131.8</ele>
      </trkpt>
      <trkpt lat="36.169518" lon="128.012547">
        <ele>131.0</ele>
      </trkpt>
      <trkpt lat="36.169312" lon="128.012455">
        <ele>130.3</ele>
      </trkpt>
      <trkpt lat="36.169116" lon="128.012408">
        <ele>129.6</ele>
      </trkpt>
      <trkpt lat="36.168925" lon="128.01239">
        <ele>128.8</ele>
      </trkpt>
      <trkpt lat="36.168562" lon="128.012406">
        <ele>128.1</ele>
      </trkpt>
      <trkpt lat="36.168268" lon="128.012445">
        <ele>127.4</ele>
      </trkpt>
      <trkpt lat="36.167957" lon="128.012533">
        <ele>126.7</ele>
      </trkpt>
      <trkpt lat="36.167752" lon="128.012608">
        <ele>126.0</ele>
      </trkpt>
      <trkpt lat="36.167472" lon="128.012755">
        <ele>125.3</ele>
      </trkpt>
      <trkpt lat="36.167113" lon="128.013013">
        <ele>124.6</ele>
      </trkpt>
      <trkpt lat="36.166318" lon="128.0135">
        <ele>124.0</ele>
      </trkpt>
      <trkpt lat="36.166042" lon="128.013678">
        <ele>123.3</ele>
      </trkpt>
      <trkpt lat="36.165782" lon="128.013841">
        <ele>122.6</ele>
      </trkpt>
      <trkpt lat="36.16532" lon="128.01411">
        <ele>122.0</ele>
      </trkpt>
      <trkpt lat="36.165185" lon="128.014201">
        <ele>121.3</ele>
      </trkpt>
      <trkpt lat="36.16514617052384" lon="128.01411151885986">
        <ele>120.7</ele>
      </trkpt>
      <trkpt lat="36.165185" lon="128.014201">
        <ele>120.1</ele>
      </trkpt>
      <trkpt lat="36.164975" lon="128.014344">
        <ele>119.5</ele>
      </trkpt>
      <trkpt lat="36.164643" lon="128.014563">
        <ele>118.9</ele>
      </trkpt>
      <trkpt lat="36.164252" lon="128.014808">
        <ele>118.3</ele>
      </trkpt>
      <trkpt lat="36.16406" lon="128.01492">
        <ele>117.8</ele>
      </trkpt>
      <trkpt lat="36.16349" lon="128.01534">
        <ele>117.2</ele>
      </trkpt>
      <trkpt lat="36.163046" lon="128.01576">
        <ele>116.7</ele>
      </trkpt>
      <trkpt lat="36.16248" lon="128.01625">
        <ele>116.1</ele>
      </trkpt>
      <trkpt lat="36.16217" lon="128.01655">
        <ele>115.6</ele>
      </trkpt>
      <trkpt lat="36.16172" lon="128.01696">
        <ele>115.0</ele>
      </trkpt>
      <trkpt lat="36.16125" lon="128.0174">
        <ele>114.5</ele>
      </trkpt>
      <trkpt lat="36.1608" lon="128.01786">
        <ele>114.0</ele>
      </trkpt>
      <trkpt lat="36.15971" lon="128.01891">
        <ele>113.5</ele>
      </trkpt>
      <trkpt lat="36.15769" lon="128.0209">
        <ele>113.0</ele>
      </trkpt>
      <trkpt lat="36.15671" lon="128.02184">
        <ele>112.6</ele>
      </trkpt>
      <trkpt lat="36.15625" lon="128.02227">
        <ele>112.1</ele>
      </trkpt>
      <trkpt lat="36.155808" lon="128.02265">
        <ele>111.7</ele>
      </trkpt>
      <trkpt lat="36.155099" lon="128.023168">
        <ele>111.3</ele>
      </trkpt>
      <trkpt lat="36.154684" lon="128.023423">
        <ele>111.0</ele>
      </trkpt>
      <trkpt lat="36.154278" lon="128.02369">
        <ele>110.6</ele>
      </trkpt>
      <trkpt lat="36.154122" lon="128.023798">
        <ele>110.3</ele>
      </trkpt>
      <trkpt lat="36.15412784374999" lon="128.02381038665774">
        <ele>110.0</ele>
      </trkpt>
      <trkpt lat="36.154122" lon="128.023798">
        <ele>109.8</ele>
      </trkpt>
      <trkpt lat="36.15374" lon="128.024065">
        <ele>109.5</ele>
      </trkpt>
      <trkpt lat="36.153624" lon="128.024334">
        <ele>109.3</ele>
      </trkpt>
      <trkpt lat="36.153642724594924" lon="128.02434682846072">
        <ele>109.1</ele>
      </trkpt>
      <trkpt lat="36.15330054052874" lon="128.0251032114029">
        <ele>109.0</ele>
      </trkpt>
      <trkpt lat="36.15315760243872" lon="128.02530169487002">
        <ele>108.8</ele>
      </trkpt>
      <trkpt lat="36.1530319899627" lon="128.02537679672244">
        <ele>108.7</ele>
      </trkpt>
      <trkpt lat="36.15290637728547" lon="128.0253714323044">
        <ele>108.6</ele>
      </trkpt>
      <trkpt lat="36.1527157921496" lon="128.0253177881241">
        <ele>108.5</ele>
      </trkpt>
      <trkpt lat="36.152721" lon="128.025302">
        <ele>108.5</ele>
      </trkpt>
      <trkpt lat="36.152549" lon="128.025192">
        <ele>108.5</ele>
      </trkpt>
      <trkpt lat="36.152495" lon="128.025171">
        <ele>108.5</ele>
      </trkpt>
      <trkpt lat="36.15249921756933" lon="128.02516222000125">
        <ele>108.5</ele>
      </trkpt>
      <trkpt lat="36.15234761500725" lon="128.02512466907504">
        <ele>108.6</ele>
      </trkpt>
      <trkpt lat="36.15190580015478" lon="128.0250442028046">
        <ele>108.6</ele>
      </trkpt>
      <trkpt lat="36.150398413101826" lon="128.02508711814883">
        <ele>108.7</ele>
      </trkpt>
      <trkpt lat="36.15084456803556" lon="128.02666962146762">
        <ele>108.8</ele>
      </trkpt>
      <trkpt lat="36.151572271607584" lon="128.02790343761447">
        <ele>108.9</ele>
      </trkpt>
      <trkpt lat="36.15256852150007" lon="128.02905678749087">
        <ele>109.0</ele>
      </trkpt>
      <trkpt lat="36.15328754616768" lon="128.02995264530185">
        <ele>109.2</ele>
      </trkpt>
      <trkpt lat="36.15244723958106" lon="128.03103625774384">
        <ele>109.3</ele>
      </trkpt>
      <trkpt lat="36.151723875668516" lon="128.03207695484164">
        <ele>109.3</ele>
      </trkpt>
      <trkpt lat="36.1507059570658" lon="128.0336380004883">
        <ele>109.4</ele>
      </trkpt>
      <trkpt lat="36.149921934156346" lon="128.034844994545">
        <ele>109.5</ele>
      </trkpt>
      <trkpt lat="36.14898629434934" lon="128.03658306598666">
        <ele>109.5</ele>
      </trkpt>
      <trkpt lat="36.148475153073754" lon="128.03758621215823">
        <ele>109.5</ele>
      </trkpt>
      <trkpt lat="36.14825856678268" lon="128.03807437419894">
        <ele>109.4</ele>
      </trkpt>
      <trkpt lat="36.148256" lon="128.038072">
        <ele>109.3</ele>
      </trkpt>
      <trkpt lat="36.148234" lon="128.038153">
        <ele>109.2</ele>
      </trkpt>
      <trkpt lat="36.148205" lon="128.038272">
        <ele>109.1</ele>
      </trkpt>
      <trkpt lat="36.148124" lon="128.038908">
        <ele>108.9</ele>
      </trkpt>
      <trkpt lat="36.148108" lon="128.038987">
        <ele>108.8</ele>
      </trkpt>
      <trkpt lat="36.148087" lon="128.039045">
        <ele>108.6</ele>
      </trkpt>
      <trkpt lat="36.148048" lon="128.03909">
        <ele>108.4</ele>
      </trkpt>
      <trkpt lat="36.14805497512377" lon="128.03909897804263">
        <ele>108.2</ele>
      </trkpt>
      <trkpt lat="36.148048" lon="128.03909">
        <ele>108.0</ele>
      </trkpt>
      <trkpt lat="36.148047" lon="128.039093">
        <ele>107.7</ele>
      </trkpt>
      <trkpt lat="36.147957" lon="128.039177">
        <ele>107.4</ele>
      </trkpt>
      <trkpt lat="36.147857" lon="128.039252">
        <ele>107.1</ele>
      </trkpt>
      <trkpt lat="36.147656" lon="128.039378">
        <ele>106.7</ele>
      </trkpt>
      <trkpt lat="36.147531" lon="128.039433">
        <ele>106.3</ele>
      </trkpt>
      <trkpt lat="36.147443" lon="128.039466">
        <ele>106.0</ele>
      </trkpt>
      <trkpt lat="36.147076" lon="128.039587">
        <ele>105.5</ele>
      </trkpt>
      <trkpt lat="36.146878" lon="128.039687">
        <ele>105.1</ele>
      </trkpt>
      <trkpt lat="36.146689" lon="128.039793">
        <ele>104.6</ele>
      </trkpt>
      <trkpt lat="36.146546" lon="128.039893">
        <ele>104.1</ele>
      </trkpt>
      <trkpt lat="36.146143" lon="128.040244">
        <ele>103.6</ele>
      </trkpt>
      <trkpt lat="36.146031" lon="128.040372">
        <ele>103.1</ele>
      </trkpt>
      <trkpt lat="36.145978" lon="128.04045">
        <ele>102.6</ele>
      </trkpt>
      <trkpt lat="36.14598437461745" lon="128.04045617580414">
        <ele>102.0</ele>
      </trkpt>
      <trkpt lat="36.145978" lon="128.04045">
        <ele>101.5</ele>
      </trkpt>
      <trkpt lat="36.144822" lon="128.042196">
        <ele>101.0</ele>
      </trkpt>
      <trkpt lat="36.144281" lon="128.043013">
        <ele>100.5</ele>
      </trkpt>
      <trkpt lat="36.144011" lon="128.043441">
        <ele>99.9</ele>
      </trkpt>
      <trkpt lat="36.143755" lon="128.043907">
        <ele>99.4</ele>
      </trkpt>
      <trkpt lat="36.143639" lon="128.044145">
        <ele>98.9</ele>
      </trkpt>
      <trkpt lat="36.143649468729684" lon="128.0441522598267">
        <ele>98.5</ele>
      </trkpt>
      <trkpt lat="36.143639" lon="128.044145">
        <ele>98.0</ele>
      </trkpt>
      <trkpt lat="36.143638" lon="128.044149">
        <ele>97.5</ele>
      </trkpt>
      <trkpt lat="36.143455" lon="128.044583">
        <ele>97.0</ele>
      </trkpt>
      <trkpt lat="36.143361" lon="128.044828">
        <ele>96.5</ele>
      </trkpt>
      <trkpt lat="36.143267" lon="128.045098">
        <ele>96.1</ele>
      </trkpt>
      <trkpt lat="36.143156" lon="128.045452">
        <ele>95.6</ele>
      </trkpt>
      <trkpt lat="36.142567" lon="128.047538">
        <ele>95.1</ele>
      </trkpt>
      <trkpt lat="36.142513" lon="128.047825">
        <ele>94.6</ele>
      </trkpt>
      <trkpt lat="36.14251" lon="128.04789">
        <ele>94.2</ele>
      </trkpt>
      <trkpt lat="36.142518812146875" lon="128.04789125919345">
        <ele>93.8</ele>
      </trkpt>
      <trkpt lat="36.14251" lon="128.04789">
        <ele>93.3</ele>
      </trkpt>
      <trkpt lat="36.142504" lon="128.048067">
        <ele>92.9</ele>
      </trkpt>
      <trkpt lat="36.142518" lon="128.048279">
        <ele>92.5</ele>
      </trkpt>
      <trkpt lat="36.142554" lon="128.048521">
        <ele>92.1</ele>
      </trkpt>
      <trkpt lat="36.142931" lon="128.04993">
        <ele>91.8</ele>
      </trkpt>
      <trkpt lat="36.143024" lon="128.050222">
        <ele>91.4</ele>
      </trkpt>
      <trkpt lat="36.143022" lon="128.050239">
        <ele>91.1</ele>
      </trkpt>
      <trkpt lat="36.14303432425753" lon="128.0502408742905">
        <ele>90.7</ele>
      </trkpt>
      <trkpt lat="36.143022" lon="128.050239">
        <ele>90.4</ele>
      </trkpt>
      <trkpt lat="36.143006" lon="128.050462">
        <ele>90.1</ele>
      </trkpt>
      <trkpt lat="36.14295" lon="128.050858">
        <ele>89.7</ele>
      </trkpt>
      <trkpt lat="36.142824" lon="128.051408">
        <ele>89.4</ele>
      </trkpt>
      <trkpt lat="36.142777" lon="128.05161">
        <ele>89.1</ele>
      </trkpt>
      <trkpt lat="36.142752" lon="128.051732">
        <ele>88.8</ele>
      </trkpt>
      <trkpt lat="36.142533" lon="128.052526">
        <ele>88.5</ele>
      </trkpt>
      <trkpt lat="36.142439" lon="128.052899">
        <ele>88.1</ele>
      </trkpt>
      <trkpt lat="36.14234" lon="128.053253">
        <ele>87.8</ele>
      </trkpt>
      <trkpt lat="36.142272" lon="128.053543">
        <ele>87.5</ele>
      </trkpt>
      <trkpt lat="36.14218" lon="128.054063">
        <ele>87.2</ele>
      </trkpt>
      <trkpt lat="36.142147" lon="128.054314">
        <ele>86.9</ele>
      </trkpt>
      <trkpt lat="36.142127" lon="128.054515">
        <ele>86.6</ele>
      </trkpt>
      <trkpt lat="36.142128926788125" lon="128.05451631546023">
        <ele>86.3</ele>
      </trkpt>
      <trkpt lat="36.142127" lon="128.054515">
        <ele>86.0</ele>
      </trkpt>
      <trkpt lat="36.142126" lon="128.054526">
        <ele>85.8</ele>
      </trkpt>
      <trkpt lat="36.141937" lon="128.057525">
        <ele>85.5</ele>
      </trkpt>
      <trkpt lat="36.14194697962425" lon="128.057536482811">
        <ele>85.3</ele>
      </trkpt>
      <trkpt lat="36.141936" lon="128.057534">
        <ele>85.0</ele>
      </trkpt>
      <trkpt lat="36.141917" lon="128.057762">
        <ele>84.8</ele>
      </trkpt>
      <trkpt lat="36.141832" lon="128.058268">
        <ele>84.6</ele>
      </trkpt>
      <trkpt lat="36.14178" lon="128.058498">
        <ele>84.3</ele>
      </trkpt>
      <trkpt lat="36.141739" lon="128.058639">
        <ele>84.1</ele>
      </trkpt>
      <trkpt lat="36.141597" lon="128.058954">
        <ele>83.8</ele>
      </trkpt>
      <trkpt lat="36.141579" lon="128.058992">
        <ele>83.6</ele>
      </trkpt>
      <trkpt lat="36.14159174823101" lon="128.05900096893313">
        <ele>83.3</ele>
      </trkpt>
      <trkpt lat="36.141579" lon="128.058992">
        <ele>83.1</ele>
      </trkpt>
      <trkpt lat="36.141438" lon="128.059296">
        <ele>82.9</ele>
      </trkpt>
      <trkpt lat="36.14129" lon="128.059564">
        <ele>82.7</ele>
      </trkpt>
      <trkpt lat="36.140998" lon="128.059929">
        <ele>82.5</ele>
      </trkpt>
      <trkpt lat="36.141006912555284" lon="128.05993974208835">
        <ele>82.3</ele>
      </trkpt>
      <trkpt lat="36.140998" lon="128.059929">
        <ele>82.1</ele>
      </trkpt>
      <trkpt lat="36.140991" lon="128.059939">
        <ele>82.0</ele>
      </trkpt>
      <trkpt lat="36.140972" lon="128.059908">
        <ele>81.8</ele>
      </trkpt>
      <trkpt lat="36.140945" lon="128.059885">
        <ele>81.8</ele>
      </trkpt>
      <trkpt lat="36.140914" lon="128.059875">
        <ele>81.7</ele>
      </trkpt>
      <trkpt lat="36.140882" lon="128.059878">
        <ele>81.6</ele>
      </trkpt>
      <trkpt lat="36.140853" lon="128.059894">
        <ele>81.5</ele>
      </trkpt>
      <trkpt lat="36.140829" lon="128.05992">
        <ele>81.5</ele>
      </trkpt>
      <trkpt lat="36.140813" lon="128.059955">
        <ele>81.5</ele>
      </trkpt>
      <trkpt lat="36.140808" lon="128.059994">
        <ele>81.5</ele>
      </trkpt>
      <trkpt lat="36.140813" lon="128.060033">
        <ele>81.4</ele>
      </trkpt>
      <trkpt lat="36.140828" lon="128.060068">
        <ele>81.4</ele>
      </trkpt>
      <trkpt lat="36.140851" lon="128.060095">
        <ele>81.4</ele>
      </trkpt>
      <trkpt lat="36.140701" lon="128.060491">
        <ele>81.4</ele>
      </trkpt>
      <trkpt lat="36.14071232700828" lon="128.06049764156344">
        <ele>81.4</ele>
      </trkpt>
      <trkpt lat="36.140701" lon="128.060491">
        <ele>81.4</ele>
      </trkpt>
      <trkpt lat="36.140177" lon="128.061882">
        <ele>81.4</ele>
      </trkpt>
      <trkpt lat="36.140032" lon="128.062367">
        <ele>81.4</ele>
      </trkpt>
      <trkpt lat="36.139931" lon="128.062654">
        <ele>81.4</ele>
      </trkpt>
      <trkpt lat="36.139863" lon="128.063134">
        <ele>81.5</ele>
      </trkpt>
      <trkpt lat="36.13987621788676" lon="128.0631369352341">
        <ele>81.5</ele>
      </trkpt>
      <trkpt lat="36.139862" lon="128.063135">
        <ele>81.5</ele>
      </trkpt>
      <trkpt lat="36.139834" lon="128.063464">
        <ele>81.5</ele>
      </trkpt>
      <trkpt lat="36.139776" lon="128.064051">
        <ele>81.6</ele>
      </trkpt>
      <trkpt lat="36.139728" lon="128.064494">
        <ele>81.6</ele>
      </trkpt>
      <trkpt lat="36.139676" lon="128.06479">
        <ele>81.6</ele>
      </trkpt>
      <trkpt lat="36.139443" lon="128.065263">
        <ele>81.7</ele>
      </trkpt>
      <trkpt lat="36.139379" lon="128.065371">
        <ele>81.7</ele>
      </trkpt>
      <trkpt lat="36.139265" lon="128.065567">
        <ele>81.7</ele>
      </trkpt>
      <trkpt lat="36.139165" lon="128.065712">
        <ele>81.7</ele>
      </trkpt>
      <trkpt lat="36.139170066973186" lon="128.06571722030642">
        <ele>81.7</ele>
      </trkpt>
      <trkpt lat="36.139165" lon="128.065712">
        <ele>81.7</ele>
      </trkpt>
      <trkpt lat="36.138738" lon="128.06634">
        <ele>81.7</ele>
      </trkpt>
      <trkpt lat="36.138274" lon="128.066942">
        <ele>81.6</ele>
      </trkpt>
      <trkpt lat="36.138051" lon="128.067362">
        <ele>81.5</ele>
      </trkpt>
      <trkpt lat="36.137957" lon="128.067638">
        <ele>81.4</ele>
      </trkpt>
      <trkpt lat="36.137868" lon="128.06797">
        <ele>81.3</ele>
      </trkpt>
      <trkpt lat="36.137841" lon="128.068138">
        <ele>81.2</ele>
      </trkpt>
      <trkpt lat="36.13785738918452" lon="128.0681419372559">
        <ele>81.0</ele>
      </trkpt>
      <trkpt lat="36.137841" lon="128.068138">
        <ele>80.8</ele>
      </trkpt>
      <trkpt lat="36.137574" lon="128.069826">
        <ele>80.7</ele>
      </trkpt>
      <trkpt lat="36.137458" lon="128.070328">
        <ele>80.5</ele>
      </trkpt>
      <trkpt lat="36.137406" lon="128.070553">
        <ele>80.3</ele>
      </trkpt>
      <trkpt lat="36.137357" lon="128.070767">
        <ele>80.1</ele>
      </trkpt>
      <trkpt lat="36.136958" lon="128.0725">
        <ele>80.0</ele>
      </trkpt>
      <trkpt lat="36.1369" lon="128.072733">
        <ele>79.8</ele>
      </trkpt>
      <trkpt lat="36.13689994367955" lon="128.07273387908938">
        <ele>79.6</ele>
      </trkpt>
      <trkpt lat="36.1369" lon="128.072733">
        <ele>79.5</ele>
      </trkpt>
      <trkpt lat="36.13689" lon="128.072774">
        <ele>79.3</ele>
      </trkpt>
      <trkpt lat="36.13683" lon="128.073015">
        <ele>79.1</ele>
      </trkpt>
      <trkpt lat="36.136155" lon="128.075738">
        <ele>79.0</ele>
      </trkpt>
      <trkpt lat="36.135912" lon="128.076712">
        <ele>78.8</ele>
      </trkpt>
      <trkpt lat="36.13591649201596" lon="128.07671427726748">
        <ele>78.6</ele>
      </trkpt>
      <trkpt lat="36.135912" lon="128.076712">
        <ele>78.5</ele>
      </trkpt>
      <trkpt lat="36.135911" lon="128.076719">
        <ele>78.3</ele>
      </trkpt>
      <trkpt lat="36.135987" lon="128.077016">
        <ele>78.2</ele>
      </trkpt>
      <trkpt lat="36.136303" lon="128.078271">
        <ele>78.1</ele>
      </trkpt>
      <trkpt lat="36.13665" lon="128.079649">
        <ele>77.9</ele>
      </trkpt>
      <trkpt lat="36.136707" lon="128.080079">
        <ele>77.8</ele>
      </trkpt>
      <trkpt lat="36.136727" lon="128.080386">
        <ele>77.6</ele>
      </trkpt>
      <trkpt lat="36.136751" lon="128.08075">
        <ele>77.5</ele>
      </trkpt>
      <trkpt lat="36.136754" lon="128.08119">
        <ele>77.3</ele>
      </trkpt>
      <trkpt lat="36.136754" lon="128.081256">
        <ele>77.1</ele>
      </trkpt>
      <trkpt lat="36.136743978599334" lon="128.0812579393387">
        <ele>77.0</ele>
      </trkpt>
      <trkpt lat="36.136754" lon="128.081256">
        <ele>76.9</ele>
      </trkpt>
      <trkpt lat="36.136763" lon="128.082195">
        <ele>76.8</ele>
      </trkpt>
      <trkpt lat="36.136763" lon="128.08229">
        <ele>76.8</ele>
      </trkpt>
      <trkpt lat="36.136793" lon="128.082787">
        <ele>76.7</ele>
      </trkpt>
      <trkpt lat="36.136831" lon="128.083367">
        <ele>76.7</ele>
      </trkpt>
      <trkpt lat="36.136848" lon="128.083526">
        <ele>76.6</ele>
      </trkpt>
      <trkpt lat="36.136883" lon="128.083852">
        <ele>76.6</ele>
      </trkpt>
      <trkpt lat="36.136903" lon="128.084036">
        <ele>76.6</ele>
      </trkpt>
      <trkpt lat="36.136973" lon="128.084548">
        <ele>76.5</ele>
      </trkpt>
      <trkpt lat="36.13704" lon="128.084935">
        <ele>76.5</ele>
      </trkpt>
      <trkpt lat="36.137051576099225" lon="128.08493256568912">
        <ele>76.5</ele>
      </trkpt>
      <trkpt lat="36.13736350472685" lon="128.0865150690079">
        <ele>76.5</ele>
      </trkpt>
      <trkpt lat="36.137398163386706" lon="128.08793127536777">
        <ele>76.5</ele>
      </trkpt>
      <trkpt lat="36.13983289592782" lon="128.08794736862185">
        <ele>76.4</ele>
      </trkpt>
      <trkpt lat="36.14048705496132" lon="128.08791518211368">
        <ele>76.4</ele>
      </trkpt>
    </trkseg>
  </trk>
</gpx>