<?xml version="1.0" encoding="UTF-8"?>
<gpx version="1.1" creator="HTML GPX Creator" xmlns="http://www.topografix.com/GPX/1/1">
  <trk>
    <name>gochang_goindol_marathon</name>
    <trkseg>
      <trkpt lat="35.4324037518945" lon="126.72327160835268">
        <ele>59.9</ele>
      </trkpt>
      <trkpt lat="35.432398" lon="126.72325">
        <ele>60.1</ele>
      </trkpt>
      <trkpt lat="35.432453" lon="126.723231">
        <ele>60.2</ele>
      </trkpt>
      <trkpt lat="35.43238" lon="126.723066">
        <ele>60.4</ele>
      </trkpt>
      <trkpt lat="35.431855" lon="126.721886">
        <ele>60.5</ele>
      </trkpt>
      <trkpt lat="35.431452" lon="126.721013">
        <ele>60.6</ele>
      </trkpt>
      <trkpt lat="35.431082" lon="126.720214">
        <ele>60.7</ele>
      </trkpt>
      <trkpt lat="35.431011" lon="126.720065">
        <ele>60.8</ele>
      </trkpt>
      <trkpt lat="35.430868" lon="126.719768">
        <ele>60.9</ele>
      </trkpt>
      <trkpt lat="35.430863" lon="126.719642">
        <ele>61.0</ele>
      </trkpt>
      <trkpt lat="35.4308389444356" lon="126.71964526176454">
        <ele>61.0</ele>
      </trkpt>
      <trkpt lat="35.430863" lon="126.719642">
        <ele>61.1</ele>
      </trkpt>
      <trkpt lat="35.430861" lon="126.719574">
        <ele>61.2</ele>
      </trkpt>
      <trkpt lat="35.43117" lon="126.719373">
        <ele>61.2</ele>
      </trkpt>
      <trkpt lat="35.43122" lon="126.719325">
        <ele>61.3</ele>
      </trkpt>
      <trkpt lat="35.43121922167074" lon="126.71932339668275">
        <ele>61.4</ele>
      </trkpt>
      <trkpt lat="35.43122" lon="126.719325">
        <ele>61.5</ele>
      </trkpt>
      <trkpt lat="35.431454" lon="126.719109">
        <ele>61.7</ele>
      </trkpt>
      <trkpt lat="35.431818" lon="126.718684">
        <ele>61.8</ele>
      </trkpt>
      <trkpt lat="35.432671" lon="126.717837">
        <ele>62.0</ele>
      </trkpt>
      <trkpt lat="35.43267911989319" lon="126.71784818172456">
        <ele>62.1</ele>
      </trkpt>
      <trkpt lat="35.432671" lon="126.717837">
        <ele>62.3</ele>
      </trkpt>
      <trkpt lat="35.433181" lon="126.717332">
        <ele>62.5</ele>
      </trkpt>
      <trkpt lat="35.433287" lon="126.717235">
        <ele>62.8</ele>
      </trkpt>
      <trkpt lat="35.433493" lon="126.717006">
        <ele>63.0</ele>
      </trkpt>
      <trkpt lat="35.433592" lon="126.716897">
        <ele>63.3</ele>
      </trkpt>
      <trkpt lat="35.433757" lon="126.716713">
        <ele>63.7</ele>
      </trkpt>
      <trkpt lat="35.433798" lon="126.716667">
        <ele>64.0</ele>
      </trkpt>
      <trkpt lat="35.434042" lon="126.716396">
        <ele>64.4</ele>
      </trkpt>
      <trkpt lat="35.434521" lon="126.716014">
        <ele>64.9</ele>
      </trkpt>
      <trkpt lat="35.434612" lon="126.715935">
        <ele>65.3</ele>
      </trkpt>
      <trkpt lat="35.43460229870906" lon="126.71591699123384">
        <ele>65.8</ele>
      </trkpt>
      <trkpt lat="35.434612" lon="126.715935">
        <ele>66.3</ele>
      </trkpt>
      <trkpt lat="35.43479" lon="126.715782">
        <ele>66.7</ele>
      </trkpt>
      <trkpt lat="35.435008" lon="126.715681">
        <ele>67.2</ele>
      </trkpt>
      <trkpt lat="35.435122" lon="126.715588">
        <ele>67.6</ele>
      </trkpt>
      <trkpt lat="35.435218" lon="126.715509">
        <ele>68.1</ele>
      </trkpt>
      <trkpt lat="35.435709" lon="126.715177">
        <ele>68.6</ele>
      </trkpt>
      <trkpt lat="35.436118" lon="126.714892">
        <ele>69.1</ele>
      </trkpt>
      <trkpt lat="35.436331" lon="126.714753">
        <ele>69.6</ele>
      </trkpt>
      <trkpt lat="35.43632874965569" lon="126.71474754810335">
        <ele>70.0</ele>
      </trkpt>
      <trkpt lat="35.436331" lon="126.714753">
        <ele>70.5</ele>
      </trkpt>
      <trkpt lat="35.437305" lon="126.71412">
        <ele>70.9</ele>
      </trkpt>
      <trkpt lat="35.438555" lon="126.713277">
        <ele>71.4</ele>
      </trkpt>
      <trkpt lat="35.438757" lon="126.71314">
        <ele>71.8</ele>
      </trkpt>
      <trkpt lat="35.438763201122455" lon="126.7131543159485">
        <ele>72.2</ele>
      </trkpt>
      <trkpt lat="35.438757" lon="126.71314">
        <ele>72.5</ele>
      </trkpt>
      <trkpt lat="35.43943" lon="126.712687">
        <ele>72.8</ele>
      </trkpt>
      <trkpt lat="35.44059" lon="126.711901">
        <ele>73.2</ele>
      </trkpt>
      <trkpt lat="35.440799" lon="126.711725">
        <ele>73.4</ele>
      </trkpt>
      <trkpt lat="35.44080860792344" lon="126.71174347400667">
        <ele>73.7</ele>
      </trkpt>
      <trkpt lat="35.440799" lon="126.711725">
        <ele>73.8</ele>
      </trkpt>
      <trkpt lat="35.441253" lon="126.711346">
        <ele>74.0</ele>
      </trkpt>
      <trkpt lat="35.441706" lon="126.710811">
        <ele>74.2</ele>
      </trkpt>
      <trkpt lat="35.442195" lon="126.710146">
        <ele>74.2</ele>
      </trkpt>
      <trkpt lat="35.442468" lon="126.709904">
        <ele>74.3</ele>
      </trkpt>
      <trkpt lat="35.442622" lon="126.709703">
        <ele>74.2</ele>
      </trkpt>
      <trkpt lat="35.442604851805214" lon="126.70968353748323">
        <ele>74.1</ele>
      </trkpt>
      <trkpt lat="35.442622" lon="126.709703">
        <ele>73.9</ele>
      </trkpt>
      <trkpt lat="35.443049" lon="126.709149">
        <ele>73.6</ele>
      </trkpt>
      <trkpt lat="35.443883" lon="126.70808">
        <ele>73.3</ele>
      </trkpt>
      <trkpt lat="35.444086" lon="126.707845">
        <ele>72.8</ele>
      </trkpt>
      <trkpt lat="35.444587" lon="126.707175">
        <ele>72.3</ele>
      </trkpt>
      <trkpt lat="35.44458897728777" lon="126.70717835426332">
        <ele>71.7</ele>
      </trkpt>
      <trkpt lat="35.444587" lon="126.707175">
        <ele>71.1</ele>
      </trkpt>
      <trkpt lat="35.444695" lon="126.707032">
        <ele>70.4</ele>
      </trkpt>
      <trkpt lat="35.445428" lon="126.706113">
        <ele>69.6</ele>
      </trkpt>
      <trkpt lat="35.44584" lon="126.705572">
        <ele>68.9</ele>
      </trkpt>
      <trkpt lat="35.446254" lon="126.704982">
        <ele>68.1</ele>
      </trkpt>
      <trkpt lat="35.446293" lon="126.704905">
        <ele>67.3</ele>
      </trkpt>
      <trkpt lat="35.44629773338318" lon="126.70490920543672">
        <ele>66.4</ele>
      </trkpt>
      <trkpt lat="35.446293" lon="126.704905">
        <ele>65.6</ele>
      </trkpt>
      <trkpt lat="35.446644" lon="126.704231">
        <ele>64.8</ele>
      </trkpt>
      <trkpt lat="35.44686" lon="126.70371">
        <ele>63.9</ele>
      </trkpt>
      <trkpt lat="35.447042" lon="126.703195">
        <ele>63.1</ele>
      </trkpt>
      <trkpt lat="35.447185" lon="126.702576">
        <ele>62.4</ele>
      </trkpt>
      <trkpt lat="35.447236" lon="126.702257">
        <ele>61.6</ele>
      </trkpt>
      <trkpt lat="35.44724168538904" lon="126.70225918293">
        <ele>60.9</ele>
      </trkpt>
      <trkpt lat="35.447236" lon="126.702257">
        <ele>60.1</ele>
      </trkpt>
      <trkpt lat="35.447291" lon="126.701918">
        <ele>59.5</ele>
      </trkpt>
      <trkpt lat="35.447327" lon="126.701229">
        <ele>58.8</ele>
      </trkpt>
      <trkpt lat="35.447312" lon="126.700675">
        <ele>58.1</ele>
      </trkpt>
      <trkpt lat="35.447188" lon="126.699344">
        <ele>57.5</ele>
      </trkpt>
      <trkpt lat="35.44718487377587" lon="126.69934630393983">
        <ele>56.9</ele>
      </trkpt>
      <trkpt lat="35.447188" lon="126.699344">
        <ele>56.3</ele>
      </trkpt>
      <trkpt lat="35.447117" lon="126.698578">
        <ele>55.6</ele>
      </trkpt>
      <trkpt lat="35.447002" lon="126.697579">
        <ele>55.0</ele>
      </trkpt>
      <trkpt lat="35.446941" lon="126.697103">
        <ele>54.4</ele>
      </trkpt>
      <trkpt lat="35.44694451650718" lon="126.69710397720338">
        <ele>53.9</ele>
      </trkpt>
      <trkpt lat="35.446941" lon="126.697103">
        <ele>53.3</ele>
      </trkpt>
      <trkpt lat="35.44679" lon="126.695919">
        <ele>52.8</ele>
      </trkpt>
      <trkpt lat="35.446711" lon="126.695233">
        <ele>52.4</ele>
      </trkpt>
      <trkpt lat="35.446628" lon="126.694662">
        <ele>52.0</ele>
      </trkpt>
      <trkpt lat="35.446591" lon="126.69442">
        <ele>51.5</ele>
      </trkpt>
      <trkpt lat="35.4465686837029" lon="126.69442713260652">
        <ele>51.2</ele>
      </trkpt>
      <trkpt lat="35.446591" lon="126.69442">
        <ele>50.8</ele>
      </trkpt>
      <trkpt lat="35.446553" lon="126.694172">
        <ele>50.5</ele>
      </trkpt>
      <trkpt lat="35.446294" lon="126.693057">
        <ele>50.1</ele>
      </trkpt>
      <trkpt lat="35.44607" lon="126.692167">
        <ele>49.8</ele>
      </trkpt>
      <trkpt lat="35.44604426290352" lon="126.69217944145204">
        <ele>49.5</ele>
      </trkpt>
      <trkpt lat="35.44607" lon="126.692167">
        <ele>49.1</ele>
      </trkpt>
      <trkpt lat="35.44606" lon="126.692126">
        <ele>48.8</ele>
      </trkpt>
      <trkpt lat="35.445817" lon="126.691264">
        <ele>48.5</ele>
      </trkpt>
      <trkpt lat="35.445578" lon="126.690544">
        <ele>48.1</ele>
      </trkpt>
      <trkpt lat="35.445485" lon="126.690327">
        <ele>47.7</ele>
      </trkpt>
      <trkpt lat="35.445502357821084" lon="126.6903179883957">
        <ele>47.3</ele>
      </trkpt>
      <trkpt lat="35.445485" lon="126.690327">
        <ele>46.9</ele>
      </trkpt>
      <trkpt lat="35.445205" lon="126.689672">
        <ele>46.4</ele>
      </trkpt>
      <trkpt lat="35.444878" lon="126.688848">
        <ele>45.8</ele>
      </trkpt>
      <trkpt lat="35.444585" lon="126.688256">
        <ele>45.3</ele>
      </trkpt>
      <trkpt lat="35.444443" lon="126.687952">
        <ele>44.7</ele>
      </trkpt>
      <trkpt lat="35.44444475836136" lon="126.68795228004457">
        <ele>44.0</ele>
      </trkpt>
      <trkpt lat="35.444443" lon="126.687952">
        <ele>43.4</ele>
      </trkpt>
      <trkpt lat="35.44408" lon="126.687169">
        <ele>42.7</ele>
      </trkpt>
      <trkpt lat="35.443612" lon="126.686207">
        <ele>42.0</ele>
      </trkpt>
      <trkpt lat="35.443253" lon="126.685494">
        <ele>41.3</ele>
      </trkpt>
      <trkpt lat="35.44323855358566" lon="126.68550610542299">
        <ele>40.6</ele>
      </trkpt>
      <trkpt lat="35.443253" lon="126.685494">
        <ele>39.9</ele>
      </trkpt>
      <trkpt lat="35.443231" lon="126.685451">
        <ele>39.3</ele>
      </trkpt>
      <trkpt lat="35.443046" lon="126.685091">
        <ele>38.6</ele>
      </trkpt>
      <trkpt lat="35.442519" lon="126.684071">
        <ele>38.0</ele>
      </trkpt>
      <trkpt lat="35.44252618502922" lon="126.684068441391">
        <ele>37.3</ele>
      </trkpt>
      <trkpt lat="35.442519" lon="126.684071">
        <ele>36.7</ele>
      </trkpt>
      <trkpt lat="35.44199" lon="126.68305">
        <ele>36.1</ele>
      </trkpt>
      <trkpt lat="35.44199299707659" lon="126.68304920196535">
        <ele>35.6</ele>
      </trkpt>
      <trkpt lat="35.44199" lon="126.68305">
        <ele>35.0</ele>
      </trkpt>
      <trkpt lat="35.441801" lon="126.682683">
        <ele>34.5</ele>
      </trkpt>
      <trkpt lat="35.441494" lon="126.682126">
        <ele>34.0</ele>
      </trkpt>
      <trkpt lat="35.44119" lon="126.681606">
        <ele>33.5</ele>
      </trkpt>
      <trkpt lat="35.441102" lon="126.681469">
        <ele>33.0</ele>
      </trkpt>
      <trkpt lat="35.441105799459315" lon="126.68146669864656">
        <ele>32.5</ele>
      </trkpt>
      <trkpt lat="35.441102" lon="126.681469">
        <ele>32.1</ele>
      </trkpt>
      <trkpt lat="35.44058" lon="126.680661">
        <ele>31.7</ele>
      </trkpt>
      <trkpt lat="35.440086" lon="126.67994">
        <ele>31.3</ele>
      </trkpt>
      <trkpt lat="35.440096217862965" lon="126.67993247509004">
        <ele>30.9</ele>
      </trkpt>
      <trkpt lat="35.440086" lon="126.67994">
        <ele>30.6</ele>
      </trkpt>
      <trkpt lat="35.439963" lon="126.679761">
        <ele>30.3</ele>
      </trkpt>
      <trkpt lat="35.439607" lon="126.679187">
        <ele>30.0</ele>
      </trkpt>
      <trkpt lat="35.439139" lon="126.678483">
        <ele>29.8</ele>
      </trkpt>
      <trkpt lat="35.438878" lon="126.678122">
        <ele>29.6</ele>
      </trkpt>
      <trkpt lat="35.43887246562016" lon="126.67813003063203">
        <ele>29.4</ele>
      </trkpt>
      <trkpt lat="35.438878" lon="126.678122">
        <ele>29.3</ele>
      </trkpt>
      <trkpt lat="35.438377" lon="126.677426">
        <ele>29.2</ele>
      </trkpt>
      <trkpt lat="35.437587" lon="126.676299">
        <ele>29.1</ele>
      </trkpt>
      <trkpt lat="35.437445" lon="126.67608">
        <ele>29.0</ele>
      </trkpt>
      <trkpt lat="35.43743453296506" lon="126.67609155178071">
        <ele>29.0</ele>
      </trkpt>
      <trkpt lat="35.43656039721911" lon="126.67478799819948">
        <ele>29.0</ele>
      </trkpt>
      <trkpt lat="35.43607087705588" lon="126.67401552200319">
        <ele>29.0</ele>
      </trkpt>
      <trkpt lat="35.43557698316074" lon="126.67318403720857">
        <ele>28.9</ele>
      </trkpt>
      <trkpt lat="35.435592" lon="126.673171">
        <ele>28.9</ele>
      </trkpt>
      <trkpt lat="35.435543" lon="126.673073">
        <ele>28.9</ele>
      </trkpt>
      <trkpt lat="35.435485" lon="126.672902">
        <ele>28.9</ele>
      </trkpt>
      <trkpt lat="35.43547208495225" lon="126.67291045188905">
        <ele>28.9</ele>
      </trkpt>
      <trkpt lat="35.435485" lon="126.672902">
        <ele>28.8</ele>
      </trkpt>
      <trkpt lat="35.435361" lon="126.67253">
        <ele>28.8</ele>
      </trkpt>
      <trkpt lat="35.435325" lon="126.672369">
        <ele>28.7</ele>
      </trkpt>
      <trkpt lat="35.435341" lon="126.672328">
        <ele>28.7</ele>
      </trkpt>
      <trkpt lat="35.435349" lon="126.672284">
        <ele>28.6</ele>
      </trkpt>
      <trkpt lat="35.435348" lon="126.672239">
        <ele>28.6</ele>
      </trkpt>
      <trkpt lat="35.43534" lon="126.672204">
        <ele>28.6</ele>
      </trkpt>
      <trkpt lat="35.43531910815324" lon="126.67221307754518">
        <ele>28.5</ele>
      </trkpt>
      <trkpt lat="35.43534" lon="126.672204">
        <ele>28.5</ele>
      </trkpt>
      <trkpt lat="35.435338" lon="126.672195">
        <ele>28.4</ele>
      </trkpt>
      <trkpt lat="35.435311" lon="126.672144">
        <ele>28.4</ele>
      </trkpt>
      <trkpt lat="35.435302" lon="126.671925">
        <ele>28.3</ele>
      </trkpt>
      <trkpt lat="35.435284" lon="126.671843">
        <ele>28.3</ele>
      </trkpt>
      <trkpt lat="35.435325" lon="126.671549">
        <ele>28.2</ele>
      </trkpt>
      <trkpt lat="35.43531910815324" lon="126.67154788970949">
        <ele>28.2</ele>
      </trkpt>
      <trkpt lat="35.435325" lon="126.671549">
        <ele>28.1</ele>
      </trkpt>
      <trkpt lat="35.435353" lon="126.671352">
        <ele>28.1</ele>
      </trkpt>
      <trkpt lat="35.435409" lon="126.670985">
        <ele>28.0</ele>
      </trkpt>
      <trkpt lat="35.435527" lon="126.670481">
        <ele>27.9</ele>
      </trkpt>
      <trkpt lat="35.435569" lon="126.67004">
        <ele>27.8</ele>
      </trkpt>
      <trkpt lat="35.435605" lon="126.668093">
        <ele>27.7</ele>
      </trkpt>
      <trkpt lat="35.43558135391647" lon="126.6680932044983">
        <ele>27.6</ele>
      </trkpt>
      <trkpt lat="35.435605" lon="126.668093">
        <ele>27.6</ele>
      </trkpt>
      <trkpt lat="35.435613" lon="126.6677">
        <ele>27.5</ele>
      </trkpt>
      <trkpt lat="35.435625" lon="126.66642">
        <ele>27.4</ele>
      </trkpt>
      <trkpt lat="35.435637" lon="126.665683">
        <ele>27.3</ele>
      </trkpt>
      <trkpt lat="35.435637" lon="126.665089">
        <ele>27.2</ele>
      </trkpt>
      <trkpt lat="35.435637" lon="126.665004">
        <ele>27.2</ele>
      </trkpt>
      <trkpt lat="35.43563" lon="126.663199">
        <ele>27.1</ele>
      </trkpt>
      <trkpt lat="35.43558572467196" lon="126.66320085525514">
        <ele>27.0</ele>
      </trkpt>
      <trkpt lat="35.43563" lon="126.663199">
        <ele>27.0</ele>
      </trkpt>
      <trkpt lat="35.435629" lon="126.662719">
        <ele>26.9</ele>
      </trkpt>
      <trkpt lat="35.435628" lon="126.662385">
        <ele>26.9</ele>
      </trkpt>
      <trkpt lat="35.435622" lon="126.660586">
        <ele>26.8</ele>
      </trkpt>
      <trkpt lat="35.435621" lon="126.659361">
        <ele>26.8</ele>
      </trkpt>
      <trkpt lat="35.435621" lon="126.659316">
        <ele>26.8</ele>
      </trkpt>
      <trkpt lat="35.43563817371926" lon="126.65931701660158">
        <ele>26.7</ele>
      </trkpt>
      <trkpt lat="35.435621" lon="126.659316">
        <ele>26.6</ele>
      </trkpt>
      <trkpt lat="35.435621" lon="126.659361">
        <ele>26.6</ele>
      </trkpt>
      <trkpt lat="35.435869" lon="126.659565">
        <ele>26.5</ele>
      </trkpt>
      <trkpt lat="35.436156" lon="126.659679">
        <ele>26.4</ele>
      </trkpt>
      <trkpt lat="35.436308" lon="126.659709">
        <ele>26.4</ele>
      </trkpt>
      <trkpt lat="35.43664" lon="126.659696">
        <ele>26.3</ele>
      </trkpt>
      <trkpt lat="35.436988" lon="126.659715">
        <ele>26.2</ele>
      </trkpt>
      <trkpt lat="35.437488" lon="126.659857">
        <ele>26.1</ele>
      </trkpt>
      <trkpt lat="35.437575" lon="126.659895">
        <ele>26.1</ele>
      </trkpt>
      <trkpt lat="35.437864" lon="126.660066">
        <ele>26.0</ele>
      </trkpt>
      <trkpt lat="35.439122" lon="126.661012">
        <ele>26.0</ele>
      </trkpt>
      <trkpt lat="35.439505" lon="126.661244">
        <ele>25.9</ele>
      </trkpt>
      <trkpt lat="35.439794" lon="126.661305">
        <ele>25.9</ele>
      </trkpt>
      <trkpt lat="35.4406" lon="126.661359">
        <ele>25.9</ele>
      </trkpt>
      <trkpt lat="35.440953" lon="126.661345">
        <ele>25.9</ele>
      </trkpt>
      <trkpt lat="35.441155" lon="126.661337">
        <ele>25.9</ele>
      </trkpt>
      <trkpt lat="35.442337" lon="126.661312">
        <ele>25.9</ele>
      </trkpt>
      <trkpt lat="35.442376" lon="126.661304">
        <ele>26.0</ele>
      </trkpt>
      <trkpt lat="35.44238633279317" lon="126.66137695312501">
        <ele>26.0</ele>
      </trkpt>
      <trkpt lat="35.442376" lon="126.661304">
        <ele>26.1</ele>
      </trkpt>
      <trkpt lat="35.442449" lon="126.661291">
        <ele>26.1</ele>
      </trkpt>
      <trkpt lat="35.442511" lon="126.661863">
        <ele>26.2</ele>
      </trkpt>
      <trkpt lat="35.44265" lon="126.662437">
        <ele>26.3</ele>
      </trkpt>
      <trkpt lat="35.442815" lon="126.662885">
        <ele>26.4</ele>
      </trkpt>
      <trkpt lat="35.443968" lon="126.662843">
        <ele>26.5</ele>
      </trkpt>
      <trkpt lat="35.443999" lon="126.66287">
        <ele>26.6</ele>
      </trkpt>
      <trkpt lat="35.44399461883813" lon="126.66287899017335">
        <ele>26.7</ele>
      </trkpt>
      <trkpt lat="35.443999" lon="126.66287">
        <ele>26.8</ele>
      </trkpt>
      <trkpt lat="35.444526" lon="126.663341">
        <ele>27.0</ele>
      </trkpt>
      <trkpt lat="35.444644" lon="126.663497">
        <ele>27.1</ele>
      </trkpt>
      <trkpt lat="35.444679" lon="126.663567">
        <ele>27.2</ele>
      </trkpt>
      <trkpt lat="35.444801" lon="126.66399">
        <ele>27.4</ele>
      </trkpt>
      <trkpt lat="35.444833" lon="126.664067">
        <ele>27.5</ele>
      </trkpt>
      <trkpt lat="35.444967" lon="126.664387">
        <ele>27.7</ele>
      </trkpt>
      <trkpt lat="35.445116" lon="126.664661">
        <ele>27.9</ele>
      </trkpt>
      <trkpt lat="35.445157" lon="126.665014">
        <ele>28.0</ele>
      </trkpt>
      <trkpt lat="35.445142" lon="126.665342">
        <ele>28.2</ele>
      </trkpt>
      <trkpt lat="35.445263" lon="126.665994">
        <ele>28.4</ele>
      </trkpt>
      <trkpt lat="35.445463" lon="126.666122">
        <ele>28.5</ele>
      </trkpt>
      <trkpt lat="35.445625" lon="126.66596">
        <ele>28.7</ele>
      </trkpt>
      <trkpt lat="35.445602872749085" lon="126.66592597961427">
        <ele>28.8</ele>
      </trkpt>
      <trkpt lat="35.445625" lon="126.66596">
        <ele>29.0</ele>
      </trkpt>
      <trkpt lat="35.446176" lon="126.665414">
        <ele>29.1</ele>
      </trkpt>
      <trkpt lat="35.446344" lon="126.665199">
        <ele>29.2</ele>
      </trkpt>
      <trkpt lat="35.446491" lon="126.664947">
        <ele>29.2</ele>
      </trkpt>
      <trkpt lat="35.446529" lon="126.664881">
        <ele>29.3</ele>
      </trkpt>
      <trkpt lat="35.446875" lon="126.664126">
        <ele>29.3</ele>
      </trkpt>
      <trkpt lat="35.446987" lon="126.663984">
        <ele>29.4</ele>
      </trkpt>
      <trkpt lat="35.447685" lon="126.663756">
        <ele>29.4</ele>
      </trkpt>
      <trkpt lat="35.448268" lon="126.663554">
        <ele>29.4</ele>
      </trkpt>
      <trkpt lat="35.448448" lon="126.663445">
        <ele>29.3</ele>
      </trkpt>
      <trkpt lat="35.448614" lon="126.663292">
        <ele>29.3</ele>
      </trkpt>
      <trkpt lat="35.44944" lon="126.662463">
        <ele>29.3</ele>
      </trkpt>
      <trkpt lat="35.449749" lon="126.66213">
        <ele>29.2</ele>
      </trkpt>
      <trkpt lat="35.4497632065976" lon="126.6621494293213">
        <ele>29.1</ele>
      </trkpt>
      <trkpt lat="35.449749" lon="126.66213">
        <ele>29.0</ele>
      </trkpt>
      <trkpt lat="35.449757" lon="126.662123">
        <ele>28.9</ele>
      </trkpt>
      <trkpt lat="35.449813" lon="126.662038">
        <ele>28.8</ele>
      </trkpt>
      <trkpt lat="35.449773" lon="126.661951">
        <ele>28.6</ele>
      </trkpt>
      <trkpt lat="35.449571" lon="126.660379">
        <ele>28.5</ele>
      </trkpt>
      <trkpt lat="35.449497" lon="126.659253">
        <ele>28.4</ele>
      </trkpt>
      <trkpt lat="35.449472" lon="126.658178">
        <ele>28.2</ele>
      </trkpt>
      <trkpt lat="35.449453" lon="126.656753">
        <ele>28.1</ele>
      </trkpt>
      <trkpt lat="35.449449" lon="126.656635">
        <ele>27.9</ele>
      </trkpt>
      <trkpt lat="35.449318" lon="126.656163">
        <ele>27.8</ele>
      </trkpt>
      <trkpt lat="35.449251" lon="126.655869">
        <ele>27.6</ele>
      </trkpt>
      <trkpt lat="35.448515" lon="126.652618">
        <ele>27.4</ele>
      </trkpt>
      <trkpt lat="35.448479" lon="126.65246">
        <ele>27.3</ele>
      </trkpt>
      <trkpt lat="35.448333" lon="126.651816">
        <ele>27.1</ele>
      </trkpt>
      <trkpt lat="35.448177" lon="126.651129">
        <ele>27.0</ele>
      </trkpt>
      <trkpt lat="35.448161" lon="126.651057">
        <ele>26.9</ele>
      </trkpt>
      <trkpt lat="35.448153" lon="126.651024">
        <ele>26.7</ele>
      </trkpt>
      <trkpt lat="35.44812881537688" lon="126.65103435516359">
        <ele>26.6</ele>
      </trkpt>
      <trkpt lat="35.448153" lon="126.651024">
        <ele>26.6</ele>
      </trkpt>
      <trkpt lat="35.447993" lon="126.650314">
        <ele>26.5</ele>
      </trkpt>
      <trkpt lat="35.447948" lon="126.650117">
        <ele>26.5</ele>
      </trkpt>
      <trkpt lat="35.447911" lon="126.649956">
        <ele>26.4</ele>
      </trkpt>
      <trkpt lat="35.447762" lon="126.648616">
        <ele>26.4</ele>
      </trkpt>
      <trkpt lat="35.44768306655604" lon="126.64863109588624">
        <ele>26.5</ele>
      </trkpt>
      <trkpt lat="35.447762" lon="126.648616">
        <ele>26.5</ele>
      </trkpt>
      <trkpt lat="35.447911" lon="126.649956">
        <ele>26.5</ele>
      </trkpt>
      <trkpt lat="35.447948" lon="126.650117">
        <ele>26.6</ele>
      </trkpt>
      <trkpt lat="35.447993" lon="126.650314">
        <ele>26.6</ele>
      </trkpt>
      <trkpt lat="35.448161" lon="126.651057">
        <ele>26.7</ele>
      </trkpt>
      <trkpt lat="35.448177" lon="126.651129">
        <ele>26.8</ele>
      </trkpt>
      <trkpt lat="35.448333" lon="126.651816">
        <ele>26.9</ele>
      </trkpt>
      <trkpt lat="35.448393" lon="126.65208">
        <ele>27.0</ele>
      </trkpt>
      <trkpt lat="35.448347318799094" lon="126.65209650993349">
        <ele>27.1</ele>
      </trkpt>
      <trkpt lat="35.448393" lon="126.65208">
        <ele>27.3</ele>
      </trkpt>
      <trkpt lat="35.448479" lon="126.65246">
        <ele>27.5</ele>
      </trkpt>
      <trkpt lat="35.448515" lon="126.652618">
        <ele>27.6</ele>
      </trkpt>
      <trkpt lat="35.449251" lon="126.655869">
        <ele>27.8</ele>
      </trkpt>
      <trkpt lat="35.449318" lon="126.656163">
        <ele>28.0</ele>
      </trkpt>
      <trkpt lat="35.449443" lon="126.656614">
        <ele>28.2</ele>
      </trkpt>
      <trkpt lat="35.44944856701737" lon="126.65661334991455">
        <ele>28.3</ele>
      </trkpt>
      <trkpt lat="35.449443" lon="126.656614">
        <ele>28.5</ele>
      </trkpt>
      <trkpt lat="35.449449" lon="126.656635">
        <ele>28.7</ele>
      </trkpt>
      <trkpt lat="35.449453" lon="126.656753">
        <ele>28.8</ele>
      </trkpt>
      <trkpt lat="35.449472" lon="126.658178">
        <ele>29.0</ele>
      </trkpt>
      <trkpt lat="35.449497" lon="126.659253">
        <ele>29.1</ele>
      </trkpt>
      <trkpt lat="35.449571" lon="126.660379">
        <ele>29.3</ele>
      </trkpt>
      <trkpt lat="35.449773" lon="126.661951">
        <ele>29.4</ele>
      </trkpt>
      <trkpt lat="35.449813" lon="126.662038">
        <ele>29.5</ele>
      </trkpt>
      <trkpt lat="35.449827" lon="126.662026">
        <ele>29.6</ele>
      </trkpt>
      <trkpt lat="35.449841866300446" lon="126.66205286979677">
        <ele>29.7</ele>
      </trkpt>
      <trkpt lat="35.449827" lon="126.662026">
        <ele>29.8</ele>
      </trkpt>
      <trkpt lat="35.449813" lon="126.662038">
        <ele>29.9</ele>
      </trkpt>
      <trkpt lat="35.449757" lon="126.662123">
        <ele>29.9</ele>
      </trkpt>
      <trkpt lat="35.44944" lon="126.662463">
        <ele>29.9</ele>
      </trkpt>
      <trkpt lat="35.448614" lon="126.663292">
        <ele>30.0</ele>
      </trkpt>
      <trkpt lat="35.448448" lon="126.663445">
        <ele>30.0</ele>
      </trkpt>
      <trkpt lat="35.448268" lon="126.663554">
        <ele>30.0</ele>
      </trkpt>
      <trkpt lat="35.447685" lon="126.663756">
        <ele>30.0</ele>
      </trkpt>
      <trkpt lat="35.447664" lon="126.663762">
        <ele>29.9</ele>
      </trkpt>
      <trkpt lat="35.4476655861598" lon="126.6637694835663">
        <ele>29.9</ele>
      </trkpt>
      <trkpt lat="35.447664" lon="126.663762">
        <ele>29.9</ele>
      </trkpt>
      <trkpt lat="35.446987" lon="126.663984">
        <ele>29.8</ele>
      </trkpt>
      <trkpt lat="35.446875" lon="126.664126">
        <ele>29.7</ele>
      </trkpt>
      <trkpt lat="35.446529" lon="126.664881">
        <ele>29.6</ele>
      </trkpt>
      <trkpt lat="35.446491" lon="126.664947">
        <ele>29.4</ele>
      </trkpt>
      <trkpt lat="35.446344" lon="126.665199">
        <ele>29.3</ele>
      </trkpt>
      <trkpt lat="35.446176" lon="126.665414">
        <ele>29.1</ele>
      </trkpt>
      <trkpt lat="35.445492" lon="126.666092">
        <ele>28.9</ele>
      </trkpt>
      <trkpt lat="35.44548050673317" lon="126.6660761833191">
        <ele>28.8</ele>
      </trkpt>
      <trkpt lat="35.445492" lon="126.666092">
        <ele>28.6</ele>
      </trkpt>
      <trkpt lat="35.445463" lon="126.666122">
        <ele>28.4</ele>
      </trkpt>
      <trkpt lat="35.445263" lon="126.665994">
        <ele>28.2</ele>
      </trkpt>
      <trkpt lat="35.445142" lon="126.665342">
        <ele>28.0</ele>
      </trkpt>
      <trkpt lat="35.445157" lon="126.665014">
        <ele>27.8</ele>
      </trkpt>
      <trkpt lat="35.445116" lon="126.664661">
        <ele>27.7</ele>
      </trkpt>
      <trkpt lat="35.445106" lon="126.664642">
        <ele>27.5</ele>
      </trkpt>
      <trkpt lat="35.44506096469485" lon="126.66468143463136">
        <ele>27.3</ele>
      </trkpt>
      <trkpt lat="35.445106" lon="126.664642">
        <ele>27.1</ele>
      </trkpt>
      <trkpt lat="35.444967" lon="126.664387">
        <ele>26.9</ele>
      </trkpt>
      <trkpt lat="35.444833" lon="126.664067">
        <ele>26.8</ele>
      </trkpt>
      <trkpt lat="35.444801" lon="126.66399">
        <ele>26.6</ele>
      </trkpt>
      <trkpt lat="35.444679" lon="126.663567">
        <ele>26.5</ele>
      </trkpt>
      <trkpt lat="35.444644" lon="126.663497">
        <ele>26.3</ele>
      </trkpt>
      <trkpt lat="35.444526" lon="126.663341">
        <ele>26.2</ele>
      </trkpt>
      <trkpt lat="35.443968" lon="126.662843">
        <ele>26.1</ele>
      </trkpt>
      <trkpt lat="35.443661" lon="126.662854">
        <ele>25.9</ele>
      </trkpt>
      <trkpt lat="35.443662475440014" lon="126.66285753250123">
        <ele>25.8</ele>
      </trkpt>
      <trkpt lat="35.443661" lon="126.662854">
        <ele>25.7</ele>
      </trkpt>
      <trkpt lat="35.442815" lon="126.662885">
        <ele>25.6</ele>
      </trkpt>
      <trkpt lat="35.44265" lon="126.662437">
        <ele>25.5</ele>
      </trkpt>
      <trkpt lat="35.442511" lon="126.661863">
        <ele>25.4</ele>
      </trkpt>
      <trkpt lat="35.442449" lon="126.661291">
        <ele>25.4</ele>
      </trkpt>
      <trkpt lat="35.442337" lon="126.661312">
        <ele>25.3</ele>
      </trkpt>
      <trkpt lat="35.442001" lon="126.661319">
        <ele>25.3</ele>
      </trkpt>
      <trkpt lat="35.44200173789116" lon="126.66133403778078">
        <ele>25.2</ele>
      </trkpt>
      <trkpt lat="35.442001" lon="126.661319">
        <ele>25.2</ele>
      </trkpt>
      <trkpt lat="35.441155" lon="126.661337">
        <ele>25.2</ele>
      </trkpt>
      <trkpt lat="35.440953" lon="126.661345">
        <ele>25.2</ele>
      </trkpt>
      <trkpt lat="35.4406" lon="126.661359">
        <ele>25.2</ele>
      </trkpt>
      <trkpt lat="35.439794" lon="126.661305">
        <ele>25.3</ele>
      </trkpt>
      <trkpt lat="35.439505" lon="126.661244">
        <ele>25.3</ele>
      </trkpt>
      <trkpt lat="35.439122" lon="126.661012">
        <ele>25.4</ele>
      </trkpt>
      <trkpt lat="35.438905" lon="126.660849">
        <ele>25.4</ele>
      </trkpt>
      <trkpt lat="35.43891617137773" lon="126.66082978248598">
        <ele>25.5</ele>
      </trkpt>
      <trkpt lat="35.438905" lon="126.660849">
        <ele>25.6</ele>
      </trkpt>
      <trkpt lat="35.437864" lon="126.660066">
        <ele>25.7</ele>
      </trkpt>
      <trkpt lat="35.437575" lon="126.659895">
        <ele>25.7</ele>
      </trkpt>
      <trkpt lat="35.437488" lon="126.659857">
        <ele>25.8</ele>
      </trkpt>
      <trkpt lat="35.436988" lon="126.659715">
        <ele>25.9</ele>
      </trkpt>
      <trkpt lat="35.43664" lon="126.659696">
        <ele>26.0</ele>
      </trkpt>
      <trkpt lat="35.436308" lon="126.659709">
        <ele>26.1</ele>
      </trkpt>
      <trkpt lat="35.436156" lon="126.659679">
        <ele>26.2</ele>
      </trkpt>
      <trkpt lat="35.435869" lon="126.659565">
        <ele>26.3</ele>
      </trkpt>
      <trkpt lat="35.435621" lon="126.659361">
        <ele>26.4</ele>
      </trkpt>
      <trkpt lat="35.435621" lon="126.659691">
        <ele>26.5</ele>
      </trkpt>
      <trkpt lat="35.43556824164859" lon="126.65969252586366">
        <ele>26.6</ele>
      </trkpt>
      <trkpt lat="35.435621" lon="126.659691">
        <ele>26.7</ele>
      </trkpt>
      <trkpt lat="35.435622" lon="126.660586">
        <ele>26.8</ele>
      </trkpt>
      <trkpt lat="35.435628" lon="126.662385">
        <ele>26.9</ele>
      </trkpt>
      <trkpt lat="35.435629" lon="126.662719">
        <ele>27.1</ele>
      </trkpt>
      <trkpt lat="35.435637" lon="126.665004">
        <ele>27.2</ele>
      </trkpt>
      <trkpt lat="35.435637" lon="126.665089">
        <ele>27.3</ele>
      </trkpt>
      <trkpt lat="35.435637" lon="126.665683">
        <ele>27.4</ele>
      </trkpt>
      <trkpt lat="35.435625" lon="126.66642">
        <ele>27.6</ele>
      </trkpt>
      <trkpt lat="35.435613" lon="126.6677">
        <ele>27.8</ele>
      </trkpt>
      <trkpt lat="35.435598" lon="126.66849">
        <ele>27.9</ele>
      </trkpt>
      <trkpt lat="35.43556824164859" lon="126.66849017143251">
        <ele>28.1</ele>
      </trkpt>
      <trkpt lat="35.435598" lon="126.66849">
        <ele>28.2</ele>
      </trkpt>
      <trkpt lat="35.435569" lon="126.67004">
        <ele>28.3</ele>
      </trkpt>
      <trkpt lat="35.435527" lon="126.670481">
        <ele>28.4</ele>
      </trkpt>
      <trkpt lat="35.435409" lon="126.670985">
        <ele>28.6</ele>
      </trkpt>
      <trkpt lat="35.435353" lon="126.671352">
        <ele>28.7</ele>
      </trkpt>
      <trkpt lat="35.435284" lon="126.671843">
        <ele>28.8</ele>
      </trkpt>
      <trkpt lat="35.435285" lon="126.67185">
        <ele>28.9</ele>
      </trkpt>
      <trkpt lat="35.43529725430106" lon="126.67184829711915">
        <ele>29.0</ele>
      </trkpt>
      <trkpt lat="35.435285" lon="126.67185">
        <ele>29.1</ele>
      </trkpt>
      <trkpt lat="35.435284" lon="126.671843">
        <ele>29.2</ele>
      </trkpt>
      <trkpt lat="35.435241" lon="126.671894">
        <ele>29.3</ele>
      </trkpt>
      <trkpt lat="35.435209" lon="126.671986">
        <ele>29.4</ele>
      </trkpt>
      <trkpt lat="35.435204" lon="126.672081">
        <ele>29.5</ele>
      </trkpt>
      <trkpt lat="35.435192" lon="126.67208">
        <ele>29.6</ele>
      </trkpt>
      <trkpt lat="35.435155" lon="126.672087">
        <ele>29.6</ele>
      </trkpt>
      <trkpt lat="35.435121" lon="126.672104">
        <ele>29.7</ele>
      </trkpt>
      <trkpt lat="35.435092" lon="126.672131">
        <ele>29.8</ele>
      </trkpt>
      <trkpt lat="35.435068" lon="126.672166">
        <ele>29.8</ele>
      </trkpt>
      <trkpt lat="35.435052" lon="126.672207">
        <ele>29.9</ele>
      </trkpt>
      <trkpt lat="35.435045" lon="126.672251">
        <ele>29.9</ele>
      </trkpt>
      <trkpt lat="35.435046" lon="126.672296">
        <ele>30.0</ele>
      </trkpt>
      <trkpt lat="35.435056" lon="126.67234">
        <ele>30.0</ele>
      </trkpt>
      <trkpt lat="35.435074" lon="126.672379">
        <ele>30.0</ele>
      </trkpt>
      <trkpt lat="35.435099" lon="126.672412">
        <ele>30.1</ele>
      </trkpt>
      <trkpt lat="35.43513" lon="126.672436">
        <ele>30.1</ele>
      </trkpt>
      <trkpt lat="35.435165" lon="126.672451">
        <ele>30.0</ele>
      </trkpt>
      <trkpt lat="35.435189" lon="126.672453">
        <ele>30.0</ele>
      </trkpt>
      <trkpt lat="35.435202" lon="126.672455">
        <ele>30.0</ele>
      </trkpt>
      <trkpt lat="35.435238" lon="126.672448">
        <ele>30.0</ele>
      </trkpt>
      <trkpt lat="35.435272" lon="126.67243">
        <ele>29.9</ele>
      </trkpt>
      <trkpt lat="35.435302" lon="126.672404">
        <ele>29.9</ele>
      </trkpt>
      <trkpt lat="35.435325" lon="126.672369">
        <ele>29.8</ele>
      </trkpt>
      <trkpt lat="35.435331" lon="126.672352">
        <ele>29.8</ele>
      </trkpt>
      <trkpt lat="35.435332220461675" lon="126.67235255241395">
        <ele>29.7</ele>
      </trkpt>
      <trkpt lat="35.435331" lon="126.672352">
        <ele>29.7</ele>
      </trkpt>
      <trkpt lat="35.435325" lon="126.672369">
        <ele>29.6</ele>
      </trkpt>
      <trkpt lat="35.435361" lon="126.67253">
        <ele>29.6</ele>
      </trkpt>
      <trkpt lat="35.435543" lon="126.673073">
        <ele>29.5</ele>
      </trkpt>
      <trkpt lat="35.435668" lon="126.673324">
        <ele>29.5</ele>
      </trkpt>
      <trkpt lat="35.435732" lon="126.673439">
        <ele>29.5</ele>
      </trkpt>
      <trkpt lat="35.43569936423127" lon="126.67346835136415">
        <ele>29.4</ele>
      </trkpt>
      <trkpt lat="35.435732" lon="126.673439">
        <ele>29.4</ele>
      </trkpt>
      <trkpt lat="35.435823" lon="126.673603">
        <ele>29.4</ele>
      </trkpt>
      <trkpt lat="35.436057" lon="126.673984">
        <ele>29.5</ele>
      </trkpt>
      <trkpt lat="35.436367" lon="126.674493">
        <ele>29.5</ele>
      </trkpt>
      <trkpt lat="35.436922" lon="126.675307">
        <ele>29.6</ele>
      </trkpt>
      <trkpt lat="35.43689694060485" lon="126.67533516883852">
        <ele>29.7</ele>
      </trkpt>
      <trkpt lat="35.436922" lon="126.675307">
        <ele>29.8</ele>
      </trkpt>
      <trkpt lat="35.437338" lon="126.675915">
        <ele>30.0</ele>
      </trkpt>
      <trkpt lat="35.437587" lon="126.676299">
        <ele>30.2</ele>
      </trkpt>
      <trkpt lat="35.438374" lon="126.677421">
        <ele>30.4</ele>
      </trkpt>
      <trkpt lat="35.43840044192664" lon="126.67739510536195">
        <ele>30.7</ele>
      </trkpt>
      <trkpt lat="35.438374" lon="126.677421">
        <ele>31.1</ele>
      </trkpt>
      <trkpt lat="35.438377" lon="126.677426">
        <ele>31.4</ele>
      </trkpt>
      <trkpt lat="35.439139" lon="126.678483">
        <ele>31.8</ele>
      </trkpt>
      <trkpt lat="35.439607" lon="126.679187">
        <ele>32.2</ele>
      </trkpt>
      <trkpt lat="35.439915" lon="126.679683">
        <ele>32.7</ele>
      </trkpt>
      <trkpt lat="35.43992139725291" lon="126.67968034744264">
        <ele>33.1</ele>
      </trkpt>
      <trkpt lat="35.439915" lon="126.679683">
        <ele>33.6</ele>
      </trkpt>
      <trkpt lat="35.439963" lon="126.679761">
        <ele>34.1</ele>
      </trkpt>
      <trkpt lat="35.44058" lon="126.680661">
        <ele>34.7</ele>
      </trkpt>
      <trkpt lat="35.44119" lon="126.681606">
        <ele>35.2</ele>
      </trkpt>
      <trkpt lat="35.441494" lon="126.682126">
        <ele>35.8</ele>
      </trkpt>
      <trkpt lat="35.441801" lon="126.682683">
        <ele>36.4</ele>
      </trkpt>
      <trkpt lat="35.441866" lon="126.68281">
        <ele>37.0</ele>
      </trkpt>
      <trkpt lat="35.441835662251805" lon="126.68283462524415">
        <ele>37.6</ele>
      </trkpt>
      <trkpt lat="35.441866" lon="126.68281">
        <ele>38.3</ele>
      </trkpt>
      <trkpt lat="35.442355" lon="126.683757">
        <ele>38.9</ele>
      </trkpt>
      <trkpt lat="35.442342628919555" lon="126.68376803398134">
        <ele>39.6</ele>
      </trkpt>
      <trkpt lat="35.442356" lon="126.683756">
        <ele>40.3</ele>
      </trkpt>
      <trkpt lat="35.443046" lon="126.685091">
        <ele>41.0</ele>
      </trkpt>
      <trkpt lat="35.443231" lon="126.685451">
        <ele>41.7</ele>
      </trkpt>
      <trkpt lat="35.443612" lon="126.686207">
        <ele>42.4</ele>
      </trkpt>
      <trkpt lat="35.443734" lon="126.686458">
        <ele>43.1</ele>
      </trkpt>
      <trkpt lat="35.4437324004798" lon="126.68646097183229">
        <ele>43.8</ele>
      </trkpt>
      <trkpt lat="35.443734" lon="126.686458">
        <ele>44.5</ele>
      </trkpt>
      <trkpt lat="35.44408" lon="126.687169">
        <ele>45.2</ele>
      </trkpt>
      <trkpt lat="35.444585" lon="126.688256">
        <ele>45.8</ele>
      </trkpt>
      <trkpt lat="35.444878" lon="126.688848">
        <ele>46.4</ele>
      </trkpt>
      <trkpt lat="35.445175" lon="126.689597">
        <ele>47.0</ele>
      </trkpt>
      <trkpt lat="35.44520081228396" lon="126.68958306312562">
        <ele>47.5</ele>
      </trkpt>
      <trkpt lat="35.445175" lon="126.689597">
        <ele>48.0</ele>
      </trkpt>
      <trkpt lat="35.445205" lon="126.689672">
        <ele>48.5</ele>
      </trkpt>
      <trkpt lat="35.445578" lon="126.690544">
        <ele>48.9</ele>
      </trkpt>
      <trkpt lat="35.445817" lon="126.691264">
        <ele>49.3</ele>
      </trkpt>
      <trkpt lat="35.44606" lon="126.692126">
        <ele>49.6</ele>
      </trkpt>
      <trkpt lat="35.446257" lon="126.692911">
        <ele>50.0</ele>
      </trkpt>
      <trkpt lat="35.44626714216078" lon="126.69290900230408">
        <ele>50.3</ele>
      </trkpt>
      <trkpt lat="35.446257" lon="126.692911">
        <ele>50.6</ele>
      </trkpt>
      <trkpt lat="35.446294" lon="126.693057">
        <ele>51.0</ele>
      </trkpt>
      <trkpt lat="35.446553" lon="126.694172">
        <ele>51.3</ele>
      </trkpt>
      <trkpt lat="35.446628" lon="126.694662">
        <ele>51.6</ele>
      </trkpt>
      <trkpt lat="35.446698" lon="126.695143">
        <ele>51.9</ele>
      </trkpt>
      <trkpt lat="35.446669197299215" lon="126.69515132904054">
        <ele>52.1</ele>
      </trkpt>
      <trkpt lat="35.446698" lon="126.695143">
        <ele>52.4</ele>
      </trkpt>
      <trkpt lat="35.446711" lon="126.695233">
        <ele>52.6</ele>
      </trkpt>
      <trkpt lat="35.44679" lon="126.695919">
        <ele>52.9</ele>
      </trkpt>
      <trkpt lat="35.446885" lon="126.696669">
        <ele>53.1</ele>
      </trkpt>
      <trkpt lat="35.44686148382935" lon="126.696674823761">
        <ele>53.4</ele>
      </trkpt>
      <trkpt lat="35.446885" lon="126.696669">
        <ele>53.6</ele>
      </trkpt>
      <trkpt lat="35.447002" lon="126.697579">
        <ele>53.8</ele>
      </trkpt>
      <trkpt lat="35.447012" lon="126.697667">
        <ele>54.0</ele>
      </trkpt>
      <trkpt lat="35.44698384774572" lon="126.69767260551454">
        <ele>54.3</ele>
      </trkpt>
      <trkpt lat="35.447012" lon="126.697667">
        <ele>54.5</ele>
      </trkpt>
      <trkpt lat="35.447038" lon="126.697896">
        <ele>54.7</ele>
      </trkpt>
      <trkpt lat="35.44703628936721" lon="126.69789791107179">
        <ele>55.0</ele>
      </trkpt>
      <trkpt lat="35.447038" lon="126.697896">
        <ele>55.2</ele>
      </trkpt>
      <trkpt lat="35.447069" lon="126.698163">
        <ele>55.5</ele>
      </trkpt>
      <trkpt lat="35.44706251016514" lon="126.69816613197328">
        <ele>55.9</ele>
      </trkpt>
      <trkpt lat="35.447069" lon="126.698163">
        <ele>56.3</ele>
      </trkpt>
      <trkpt lat="35.447107" lon="126.698493">
        <ele>56.7</ele>
      </trkpt>
      <trkpt lat="35.447079990692366" lon="126.69849872589113">
        <ele>57.2</ele>
      </trkpt>
      <trkpt lat="35.447107" lon="126.698493">
        <ele>57.7</ele>
      </trkpt>
      <trkpt lat="35.447117" lon="126.698578">
        <ele>58.2</ele>
      </trkpt>
      <trkpt lat="35.447266" lon="126.700182">
        <ele>58.8</ele>
      </trkpt>
      <trkpt lat="35.44727227624108" lon="126.70018315315248">
        <ele>59.4</ele>
      </trkpt>
      <trkpt lat="35.447266" lon="126.700182">
        <ele>60.0</ele>
      </trkpt>
      <trkpt lat="35.447312" lon="126.700675">
        <ele>60.6</ele>
      </trkpt>
      <trkpt lat="35.447327" lon="126.701229">
        <ele>61.3</ele>
      </trkpt>
      <trkpt lat="35.447322" lon="126.701311">
        <ele>61.9</ele>
      </trkpt>
      <trkpt lat="35.447307237200576" lon="126.70130968093873">
        <ele>62.5</ele>
      </trkpt>
      <trkpt lat="35.447322" lon="126.701311">
        <ele>63.2</ele>
      </trkpt>
      <trkpt lat="35.447291" lon="126.701918">
        <ele>63.9</ele>
      </trkpt>
      <trkpt lat="35.447185" lon="126.702576">
        <ele>64.6</ele>
      </trkpt>
      <trkpt lat="35.447042" lon="126.703195">
        <ele>65.3</ele>
      </trkpt>
      <trkpt lat="35.44686" lon="126.70371">
        <ele>66.0</ele>
      </trkpt>
      <trkpt lat="35.446811" lon="126.703826">
        <ele>66.7</ele>
      </trkpt>
      <trkpt lat="35.44681778238558" lon="126.70383095741273">
        <ele>67.4</ele>
      </trkpt>
      <trkpt lat="35.446811" lon="126.703826">
        <ele>68.1</ele>
      </trkpt>
      <trkpt lat="35.446644" lon="126.704231">
        <ele>68.8</ele>
      </trkpt>
      <trkpt lat="35.446254" lon="126.704982">
        <ele>69.5</ele>
      </trkpt>
      <trkpt lat="35.44584" lon="126.705572">
        <ele>70.2</ele>
      </trkpt>
      <trkpt lat="35.445428" lon="126.706113">
        <ele>70.9</ele>
      </trkpt>
      <trkpt lat="35.445275" lon="126.706304">
        <ele>71.6</ele>
      </trkpt>
      <trkpt lat="35.445288216903734" lon="126.70632004737855">
        <ele>72.3</ele>
      </trkpt>
      <trkpt lat="35.445275" lon="126.706304">
        <ele>72.9</ele>
      </trkpt>
      <trkpt lat="35.444695" lon="126.707032">
        <ele>73.5</ele>
      </trkpt>
      <trkpt lat="35.444086" lon="126.707845">
        <ele>74.0</ele>
      </trkpt>
      <trkpt lat="35.443883" lon="126.70808">
        <ele>74.5</ele>
      </trkpt>
      <trkpt lat="35.443224" lon="126.708924">
        <ele>74.8</ele>
      </trkpt>
      <trkpt lat="35.443207961200514" lon="126.70890569686891">
        <ele>75.2</ele>
      </trkpt>
      <trkpt lat="35.443224" lon="126.708924">
        <ele>75.4</ele>
      </trkpt>
      <trkpt lat="35.443049" lon="126.709149">
        <ele>75.6</ele>
      </trkpt>
      <trkpt lat="35.442468" lon="126.709904">
        <ele>75.8</ele>
      </trkpt>
      <trkpt lat="35.442195" lon="126.710146">
        <ele>75.9</ele>
      </trkpt>
      <trkpt lat="35.441706" lon="126.710811">
        <ele>76.0</ele>
      </trkpt>
      <trkpt lat="35.441253" lon="126.711346">
        <ele>76.0</ele>
      </trkpt>
      <trkpt lat="35.441202" lon="126.711388">
        <ele>76.1</ele>
      </trkpt>
      <trkpt lat="35.441206319877566" lon="126.71139478683473">
        <ele>76.1</ele>
      </trkpt>
      <trkpt lat="35.441202" lon="126.711388">
        <ele>76.1</ele>
      </trkpt>
      <trkpt lat="35.44059" lon="126.711901">
        <ele>76.1</ele>
      </trkpt>
      <trkpt lat="35.43943" lon="126.712687">
        <ele>76.0</ele>
      </trkpt>
      <trkpt lat="35.439258" lon="126.712802">
        <ele>76.0</ele>
      </trkpt>
      <trkpt lat="35.43925707547237" lon="126.71280026435852">
        <ele>75.9</ele>
      </trkpt>
      <trkpt lat="35.439258" lon="126.712802">
        <ele>75.8</ele>
      </trkpt>
      <trkpt lat="35.438936" lon="126.713019">
        <ele>75.6</ele>
      </trkpt>
      <trkpt lat="35.4389336536741" lon="126.71301484107973">
        <ele>75.5</ele>
      </trkpt>
      <trkpt lat="35.438936" lon="126.713019">
        <ele>75.3</ele>
      </trkpt>
      <trkpt lat="35.438555" lon="126.713277">
        <ele>75.1</ele>
      </trkpt>
      <trkpt lat="35.43852281870553" lon="126.71327233314516">
        <ele>74.9</ele>
      </trkpt>
      <trkpt lat="35.436564767921425" lon="126.71459197998048">
        <ele>74.7</ele>
      </trkpt>
      <trkpt lat="35.43499129974804" lon="126.71571850776674">
        <ele>74.5</ele>
      </trkpt>
      <trkpt lat="35.43444932025753" lon="126.71609401702882">
        <ele>74.3</ele>
      </trkpt>
      <trkpt lat="35.43208904445721" lon="126.71844363212587">
        <ele>74.1</ele>
      </trkpt>
      <trkpt lat="35.43086517050948" lon="126.71963453292848">
        <ele>73.9</ele>
      </trkpt>
      <trkpt lat="35.430863" lon="126.719634">
        <ele>73.7</ele>
      </trkpt>
      <trkpt lat="35.430868" lon="126.719768">
        <ele>73.5</ele>
      </trkpt>
      <trkpt lat="35.431011" lon="126.720065">
        <ele>73.3</ele>
      </trkpt>
      <trkpt lat="35.431082" lon="126.720214">
        <ele>73.1</ele>
      </trkpt>
      <trkpt lat="35.431452" lon="126.721013">
        <ele>73.0</ele>
      </trkpt>
      <trkpt lat="35.431855" lon="126.721886">
        <ele>72.8</ele>
      </trkpt>
      <trkpt lat="35.432139" lon="126.722524">
        <ele>72.7</ele>
      </trkpt>
      <trkpt lat="35.43211527012395" lon="126.72254204750062">
        <ele>72.7</ele>
      </trkpt>
      <trkpt lat="35.432139" lon="126.722524">
        <ele>72.6</ele>
      </trkpt>
      <trkpt lat="35.43238" lon="126.723066">
        <ele>72.6</ele>
      </trkpt>
      <trkpt lat="35.432453" lon="126.723231">
        <ele>72.5</ele>
      </trkpt>
      <trkpt lat="35.432482" lon="126.723232">
        <ele>72.5</ele>
      </trkpt>
      <trkpt lat="35.43248242856163" lon="126.72328233718873">
        <ele>72.5</ele>
      </trkpt>
    </trkseg>
  </trk>
</gpx>