<?xml version="1.0" encoding="UTF-8"?>
<gpx xmlns="http://www.topografix.com/GPX/1/1" xmlns:gpxdata="http://www.cluetrust.com/XML/GPXDATA/1/0" xmlns:xsi="http://www.w3.org/2001/XMLSchema-instance" xsi:schemaLocation="http://www.topografix.com/GPX/1/1 https://www.topografix.com/GPX/1/1/gpx.xsd http://www.cluetrust.com/XML/GPXDATA/1/0 https://www.cluetrust.com/Schemas/gpxdata10.xsd" creator="COROS Wearables" version="1.1">
 <metadata>
  <link href="https://www.coros.com">
   <text>COROS</text>
  </link>
  <time>2026-09-18T11:43:05Z</time>
  <coros_edit>1</coros_edit>
 </metadata>
 <trk>
  <name>경포마라톤 하프</name>
  <type>running</type>
  <trkseg>
   <trkpt lat="37.8043670" lon="128.9066560">
    <ele>3</ele>
   </trkpt>
   <trkpt lat="37.8043200" lon="128.9065920">
    <ele>2</ele>
   </trkpt>
   <trkpt lat="37.8043900" lon="128.9063910">
    <ele>3</ele>
   </trkpt>
   <trkpt lat="37.8045210" lon="128.9059930">
    <ele>3</ele>
   </trkpt>
   <trkpt lat="37.8045760" lon="128.9058280">
    <ele>2</ele>
   </trkpt>
   <trkpt lat="37.8046310" lon="128.9056640">
    <ele>2</ele>
   </trkpt>
   <trkpt lat="37.8046910" lon="128.9054810">
    <ele>3</ele>
   </trkpt>
   <trkpt lat="37.8047490" lon="128.9052560">
    <ele>3</ele>
   </trkpt>
   <trkpt lat="37.8047640" lon="128.9051920">
    <ele>3</ele>
   </trkpt>
   <trkpt lat="37.8048020" lon="128.9050350">
    <ele>3</ele>
   </trkpt>
   <trkpt lat="37.8048560" lon="128.9046630">
    <ele>3</ele>
   </trkpt>
   <trkpt lat="37.8048840" lon="128.9043490">
    <ele>3</ele>
   </trkpt>
   <trkpt lat="37.8049140" lon="128.9040120">
    <ele>3</ele>
   </trkpt>
   <trkpt lat="37.8049310" lon="128.9036020">
    <ele>2</ele>
   </trkpt>
   <trkpt lat="37.8049360" lon="128.9034420">
    <ele>2</ele>
   </trkpt>
   <trkpt lat="37.8049420" lon="128.9032150">
    <ele>2</ele>
   </trkpt>
   <trkpt lat="37.8053010" lon="128.9031790">
    <ele>2</ele>
   </trkpt>
   <trkpt lat="37.8056320" lon="128.9031560">
    <ele>3</ele>
   </trkpt>
   <trkpt lat="37.8056300" lon="128.9031060">
    <ele>3</ele>
   </trkpt>
   <trkpt lat="37.8056390" lon="128.9030570">
    <ele>3</ele>
   </trkpt>
   <trkpt lat="37.8056570" lon="128.9030120">
    <ele>3</ele>
   </trkpt>
   <trkpt lat="37.8056770" lon="128.9029840">
    <ele>3</ele>
   </trkpt>
   <trkpt lat="37.8057010" lon="128.9029610">
    <ele>3</ele>
   </trkpt>
   <trkpt lat="37.8057440" lon="128.9029380">
    <ele>3</ele>
   </trkpt>
   <trkpt lat="37.8057910" lon="128.9029330">
    <ele>3</ele>
   </trkpt>
   <trkpt lat="37.8058360" lon="128.9029470">
    <ele>3</ele>
   </trkpt>
   <trkpt lat="37.8058760" lon="128.9029790">
    <ele>3</ele>
   </trkpt>
   <trkpt lat="37.8058750" lon="128.9028870">
    <ele>3</ele>
   </trkpt>
   <trkpt lat="37.8059120" lon="128.9027460">
    <ele>4</ele>
   </trkpt>
   <trkpt lat="37.8059830" lon="128.9025510">
    <ele>4</ele>
   </trkpt>
   <trkpt lat="37.8060560" lon="128.9023360">
    <ele>4</ele>
   </trkpt>
   <trkpt lat="37.8061830" lon="128.9019590">
    <ele>3</ele>
   </trkpt>
   <trkpt lat="37.8063410" lon="128.9015220">
    <ele>4</ele>
   </trkpt>
   <trkpt lat="37.8063470" lon="128.9015040">
    <ele>4</ele>
   </trkpt>
   <trkpt lat="37.8064550" lon="128.9011900">
    <ele>6</ele>
   </trkpt>
   <trkpt lat="37.8065650" lon="128.9008560">
    <ele>5</ele>
   </trkpt>
   <trkpt lat="37.8066790" lon="128.9005130">
    <ele>3</ele>
   </trkpt>
   <trkpt lat="37.8067730" lon="128.9001370">
    <ele>3</ele>
   </trkpt>
   <trkpt lat="37.8068080" lon="128.8998880">
    <ele>3</ele>
   </trkpt>
   <trkpt lat="37.8068280" lon="128.8995890">
    <ele>4</ele>
   </trkpt>
   <trkpt lat="37.8068270" lon="128.8995180">
    <ele>4</ele>
   </trkpt>
   <trkpt lat="37.8067800" lon="128.8991710">
    <ele>4</ele>
   </trkpt>
   <trkpt lat="37.8066790" lon="128.8986500">
    <ele>4</ele>
   </trkpt>
   <trkpt lat="37.8066700" lon="128.8986240">
    <ele>4</ele>
   </trkpt>
   <trkpt lat="37.8065650" lon="128.8983230">
    <ele>4</ele>
   </trkpt>
   <trkpt lat="37.8062760" lon="128.8974910">
    <ele>3</ele>
   </trkpt>
   <trkpt lat="37.8062570" lon="128.8974360">
    <ele>4</ele>
   </trkpt>
   <trkpt lat="37.8059960" lon="128.8968360">
    <ele>4</ele>
   </trkpt>
   <trkpt lat="37.8057350" lon="128.8962360">
    <ele>4</ele>
   </trkpt>
   <trkpt lat="37.8056960" lon="128.8961320">
    <ele>4</ele>
   </trkpt>
   <trkpt lat="37.8054720" lon="128.8955360">
    <ele>4</ele>
   </trkpt>
   <trkpt lat="37.8054200" lon="128.8952950">
    <ele>5</ele>
   </trkpt>
   <trkpt lat="37.8054260" lon="128.8953260">
    <ele>5</ele>
   </trkpt>
   <trkpt lat="37.8054720" lon="128.8955360">
    <ele>4</ele>
   </trkpt>
   <trkpt lat="37.8057070" lon="128.8961610">
    <ele>4</ele>
   </trkpt>
   <trkpt lat="37.8057350" lon="128.8962360">
    <ele>4</ele>
   </trkpt>
   <trkpt lat="37.8059960" lon="128.8968360">
    <ele>4</ele>
   </trkpt>
   <trkpt lat="37.8062570" lon="128.8974360">
    <ele>4</ele>
   </trkpt>
   <trkpt lat="37.8064640" lon="128.8980300">
    <ele>4</ele>
   </trkpt>
   <trkpt lat="37.8066700" lon="128.8986240">
    <ele>4</ele>
   </trkpt>
   <trkpt lat="37.8069360" lon="128.8993010">
    <ele>4</ele>
   </trkpt>
   <trkpt lat="37.8072750" lon="128.8996770">
    <ele>4</ele>
   </trkpt>
   <trkpt lat="37.8075400" lon="128.8999710">
    <ele>4</ele>
   </trkpt>
   <trkpt lat="37.8076880" lon="128.9000590">
    <ele>4</ele>
   </trkpt>
   <trkpt lat="37.8078760" lon="128.9001570">
    <ele>4</ele>
   </trkpt>
   <trkpt lat="37.8080010" lon="128.9002230">
    <ele>5</ele>
   </trkpt>
   <trkpt lat="37.8083540" lon="128.9004070">
    <ele>7</ele>
   </trkpt>
   <trkpt lat="37.8085770" lon="128.9005400">
    <ele>7</ele>
   </trkpt>
   <trkpt lat="37.8086860" lon="128.9006210">
    <ele>7</ele>
   </trkpt>
   <trkpt lat="37.8087960" lon="128.9007220">
    <ele>8</ele>
   </trkpt>
   <trkpt lat="37.8089040" lon="128.9008450">
    <ele>6</ele>
   </trkpt>
   <trkpt lat="37.8089940" lon="128.9009760">
    <ele>7</ele>
   </trkpt>
   <trkpt lat="37.8090000" lon="128.9009870">
    <ele>7</ele>
   </trkpt>
   <trkpt lat="37.8091130" lon="128.9011760">
    <ele>6</ele>
   </trkpt>
   <trkpt lat="37.8092100" lon="128.9013690">
    <ele>8</ele>
   </trkpt>
   <trkpt lat="37.8093060" lon="128.9015660">
    <ele>7</ele>
   </trkpt>
   <trkpt lat="37.8093330" lon="128.9016750">
    <ele>7</ele>
   </trkpt>
   <trkpt lat="37.8093680" lon="128.9018130">
    <ele>7</ele>
   </trkpt>
   <trkpt lat="37.8094810" lon="128.9016820">
    <ele>6</ele>
   </trkpt>
   <trkpt lat="37.8097770" lon="128.9013530">
    <ele>7</ele>
   </trkpt>
   <trkpt lat="37.8101100" lon="128.9010250">
    <ele>10</ele>
   </trkpt>
   <trkpt lat="37.8103140" lon="128.9006820">
    <ele>12</ele>
   </trkpt>
   <trkpt lat="37.8104700" lon="128.9004650">
    <ele>9</ele>
   </trkpt>
   <trkpt lat="37.8105900" lon="128.9003300">
    <ele>12</ele>
   </trkpt>
   <trkpt lat="37.8106790" lon="128.9002310">
    <ele>9</ele>
   </trkpt>
   <trkpt lat="37.8108510" lon="128.9000450">
    <ele>10</ele>
   </trkpt>
   <trkpt lat="37.8110790" lon="128.8998050">
    <ele>11</ele>
   </trkpt>
   <trkpt lat="37.8113560" lon="128.8995130">
    <ele>9</ele>
   </trkpt>
   <trkpt lat="37.8117830" lon="128.8990240">
    <ele>10</ele>
   </trkpt>
   <trkpt lat="37.8121550" lon="128.8986440">
    <ele>9</ele>
   </trkpt>
   <trkpt lat="37.8127030" lon="128.8980370">
    <ele>7</ele>
   </trkpt>
   <trkpt lat="37.8129200" lon="128.8978190">
    <ele>6</ele>
   </trkpt>
   <trkpt lat="37.8131200" lon="128.8975580">
    <ele>7</ele>
   </trkpt>
   <trkpt lat="37.8135260" lon="128.8970280">
    <ele>7</ele>
   </trkpt>
   <trkpt lat="37.8135650" lon="128.8969740">
    <ele>7</ele>
   </trkpt>
   <trkpt lat="37.8140280" lon="128.8963360">
    <ele>8</ele>
   </trkpt>
   <trkpt lat="37.8144760" lon="128.8956680">
    <ele>8</ele>
   </trkpt>
   <trkpt lat="37.8148270" lon="128.8951180">
    <ele>7</ele>
   </trkpt>
   <trkpt lat="37.8151780" lon="128.8945670">
    <ele>9</ele>
   </trkpt>
   <trkpt lat="37.8157180" lon="128.8937730">
    <ele>11</ele>
   </trkpt>
   <trkpt lat="37.8162580" lon="128.8929790">
    <ele>8</ele>
   </trkpt>
   <trkpt lat="37.8166550" lon="128.8924140">
    <ele>5</ele>
   </trkpt>
   <trkpt lat="37.8168400" lon="128.8922360">
    <ele>5</ele>
   </trkpt>
   <trkpt lat="37.8173280" lon="128.8918470">
    <ele>6</ele>
   </trkpt>
   <trkpt lat="37.8173750" lon="128.8918100">
    <ele>6</ele>
   </trkpt>
   <trkpt lat="37.8175220" lon="128.8916920">
    <ele>7</ele>
   </trkpt>
   <trkpt lat="37.8178240" lon="128.8914420">
    <ele>7</ele>
   </trkpt>
   <trkpt lat="37.8180170" lon="128.8912830">
    <ele>8</ele>
   </trkpt>
   <trkpt lat="37.8183520" lon="128.8909810">
    <ele>9</ele>
   </trkpt>
   <trkpt lat="37.8184140" lon="128.8909250">
    <ele>9</ele>
   </trkpt>
   <trkpt lat="37.8185850" lon="128.8907380">
    <ele>10</ele>
   </trkpt>
   <trkpt lat="37.8186760" lon="128.8906430">
    <ele>9</ele>
   </trkpt>
   <trkpt lat="37.8188790" lon="128.8904320">
    <ele>7</ele>
   </trkpt>
   <trkpt lat="37.8194890" lon="128.8897410">
    <ele>6</ele>
   </trkpt>
   <trkpt lat="37.8197480" lon="128.8894560">
    <ele>6</ele>
   </trkpt>
   <trkpt lat="37.8201130" lon="128.8890300">
    <ele>5</ele>
   </trkpt>
   <trkpt lat="37.8203850" lon="128.8887010">
    <ele>4</ele>
   </trkpt>
   <trkpt lat="37.8204360" lon="128.8886240">
    <ele>3</ele>
   </trkpt>
   <trkpt lat="37.8206510" lon="128.8883510">
    <ele>3</ele>
   </trkpt>
   <trkpt lat="37.8211050" lon="128.8877630">
    <ele>7</ele>
   </trkpt>
   <trkpt lat="37.8215590" lon="128.8871740">
    <ele>8</ele>
   </trkpt>
   <trkpt lat="37.8219520" lon="128.8866430">
    <ele>9</ele>
   </trkpt>
   <trkpt lat="37.8223450" lon="128.8861120">
    <ele>9</ele>
   </trkpt>
   <trkpt lat="37.8226450" lon="128.8857450">
    <ele>9</ele>
   </trkpt>
   <trkpt lat="37.8228590" lon="128.8854690">
    <ele>9</ele>
   </trkpt>
   <trkpt lat="37.8230330" lon="128.8852460">
    <ele>9</ele>
   </trkpt>
   <trkpt lat="37.8232640" lon="128.8849490">
    <ele>9</ele>
   </trkpt>
   <trkpt lat="37.8233070" lon="128.8848870">
    <ele>9</ele>
   </trkpt>
   <trkpt lat="37.8236300" lon="128.8844220">
    <ele>8</ele>
   </trkpt>
   <trkpt lat="37.8239520" lon="128.8839570">
    <ele>8</ele>
   </trkpt>
   <trkpt lat="37.8245550" lon="128.8831370">
    <ele>8</ele>
   </trkpt>
   <trkpt lat="37.8248190" lon="128.8828130">
    <ele>8</ele>
   </trkpt>
   <trkpt lat="37.8252800" lon="128.8822470">
    <ele>8</ele>
   </trkpt>
   <trkpt lat="37.8253950" lon="128.8821050">
    <ele>8</ele>
   </trkpt>
   <trkpt lat="37.8256380" lon="128.8819090">
    <ele>8</ele>
   </trkpt>
   <trkpt lat="37.8262190" lon="128.8813010">
    <ele>10</ele>
   </trkpt>
   <trkpt lat="37.8268000" lon="128.8806930">
    <ele>8</ele>
   </trkpt>
   <trkpt lat="37.8269950" lon="128.8804890">
    <ele>8</ele>
   </trkpt>
   <trkpt lat="37.8273810" lon="128.8800850">
    <ele>12</ele>
   </trkpt>
   <trkpt lat="37.8274850" lon="128.8799710">
    <ele>11</ele>
   </trkpt>
   <trkpt lat="37.8281420" lon="128.8792510">
    <ele>12</ele>
   </trkpt>
   <trkpt lat="37.8287980" lon="128.8785310">
    <ele>8</ele>
   </trkpt>
   <trkpt lat="37.8290100" lon="128.8782420">
    <ele>9</ele>
   </trkpt>
   <trkpt lat="37.8291040" lon="128.8781410">
    <ele>11</ele>
   </trkpt>
   <trkpt lat="37.8295940" lon="128.8776190">
    <ele>11</ele>
   </trkpt>
   <trkpt lat="37.8299490" lon="128.8772400">
    <ele>9</ele>
   </trkpt>
   <trkpt lat="37.8303310" lon="128.8768270">
    <ele>5</ele>
   </trkpt>
   <trkpt lat="37.8306720" lon="128.8764590">
    <ele>4</ele>
   </trkpt>
   <trkpt lat="37.8310080" lon="128.8760640">
    <ele>3</ele>
   </trkpt>
   <trkpt lat="37.8311560" lon="128.8758900">
    <ele>3</ele>
   </trkpt>
   <trkpt lat="37.8316060" lon="128.8753000">
    <ele>3</ele>
   </trkpt>
   <trkpt lat="37.8317460" lon="128.8751160">
    <ele>3</ele>
   </trkpt>
   <trkpt lat="37.8320550" lon="128.8747100">
    <ele>6</ele>
   </trkpt>
   <trkpt lat="37.8321970" lon="128.8745450">
    <ele>7</ele>
   </trkpt>
   <trkpt lat="37.8322950" lon="128.8744300">
    <ele>4</ele>
   </trkpt>
   <trkpt lat="37.8323790" lon="128.8743320">
    <ele>4</ele>
   </trkpt>
   <trkpt lat="37.8326660" lon="128.8739810">
    <ele>0</ele>
   </trkpt>
   <trkpt lat="37.8328350" lon="128.8737630">
    <ele>0</ele>
   </trkpt>
   <trkpt lat="37.8330270" lon="128.8735360">
    <ele>0</ele>
   </trkpt>
   <trkpt lat="37.8333280" lon="128.8732390">
    <ele>3</ele>
   </trkpt>
   <trkpt lat="37.8333610" lon="128.8732010">
    <ele>3</ele>
   </trkpt>
   <trkpt lat="37.8335200" lon="128.8730220">
    <ele>4</ele>
   </trkpt>
   <trkpt lat="37.8337520" lon="128.8728060">
    <ele>4</ele>
   </trkpt>
   <trkpt lat="37.8339360" lon="128.8726530">
    <ele>2</ele>
   </trkpt>
   <trkpt lat="37.8341200" lon="128.8725220">
    <ele>2</ele>
   </trkpt>
   <trkpt lat="37.8343980" lon="128.8723620">
    <ele>2</ele>
   </trkpt>
   <trkpt lat="37.8346000" lon="128.8722830">
    <ele>3</ele>
   </trkpt>
   <trkpt lat="37.8347240" lon="128.8722470">
    <ele>3</ele>
   </trkpt>
   <trkpt lat="37.8347500" lon="128.8722390">
    <ele>3</ele>
   </trkpt>
   <trkpt lat="37.8348790" lon="128.8722070">
    <ele>3</ele>
   </trkpt>
   <trkpt lat="37.8352190" lon="128.8721360">
    <ele>3</ele>
   </trkpt>
   <trkpt lat="37.8353390" lon="128.8721130">
    <ele>3</ele>
   </trkpt>
   <trkpt lat="37.8360960" lon="128.8719660">
    <ele>4</ele>
   </trkpt>
   <trkpt lat="37.8368480" lon="128.8718020">
    <ele>5</ele>
   </trkpt>
   <trkpt lat="37.8375990" lon="128.8716370">
    <ele>5</ele>
   </trkpt>
   <trkpt lat="37.8382990" lon="128.8714840">
    <ele>6</ele>
   </trkpt>
   <trkpt lat="37.8389990" lon="128.8713310">
    <ele>5</ele>
   </trkpt>
   <trkpt lat="37.8394440" lon="128.8712470">
    <ele>5</ele>
   </trkpt>
   <trkpt lat="37.8398310" lon="128.8711740">
    <ele>5</ele>
   </trkpt>
   <trkpt lat="37.8398890" lon="128.8711630">
    <ele>7</ele>
   </trkpt>
   <trkpt lat="37.8400820" lon="128.8711260">
    <ele>8</ele>
   </trkpt>
   <trkpt lat="37.8404640" lon="128.8710560">
    <ele>9</ele>
   </trkpt>
   <trkpt lat="37.8407320" lon="128.8710070">
    <ele>8</ele>
   </trkpt>
   <trkpt lat="37.8415390" lon="128.8708420">
    <ele>11</ele>
   </trkpt>
   <trkpt lat="37.8423570" lon="128.8706900">
    <ele>13</ele>
   </trkpt>
   <trkpt lat="37.8430570" lon="128.8705280">
    <ele>12</ele>
   </trkpt>
   <trkpt lat="37.8430720" lon="128.8705240">
    <ele>12</ele>
   </trkpt>
   <trkpt lat="37.8435360" lon="128.8703990">
    <ele>11</ele>
   </trkpt>
   <trkpt lat="37.8440240" lon="128.8702680">
    <ele>11</ele>
   </trkpt>
   <trkpt lat="37.8445490" lon="128.8700720">
    <ele>14</ele>
   </trkpt>
   <trkpt lat="37.8450740" lon="128.8698760">
    <ele>12</ele>
   </trkpt>
   <trkpt lat="37.8452480" lon="128.8697890">
    <ele>14</ele>
   </trkpt>
   <trkpt lat="37.8454560" lon="128.8696470">
    <ele>11</ele>
   </trkpt>
   <trkpt lat="37.8455580" lon="128.8695770">
    <ele>13</ele>
   </trkpt>
   <trkpt lat="37.8458870" lon="128.8693220">
    <ele>9</ele>
   </trkpt>
   <trkpt lat="37.8459710" lon="128.8691890">
    <ele>10</ele>
   </trkpt>
   <trkpt lat="37.8459850" lon="128.8691680">
    <ele>10</ele>
   </trkpt>
   <trkpt lat="37.8461120" lon="128.8689550">
    <ele>8</ele>
   </trkpt>
   <trkpt lat="37.8464680" lon="128.8682800">
    <ele>6</ele>
   </trkpt>
   <trkpt lat="37.8469250" lon="128.8674660">
    <ele>4</ele>
   </trkpt>
   <trkpt lat="37.8471730" lon="128.8671100">
    <ele>4</ele>
   </trkpt>
   <trkpt lat="37.8473560" lon="128.8668260">
    <ele>5</ele>
   </trkpt>
   <trkpt lat="37.8474750" lon="128.8666010">
    <ele>6</ele>
   </trkpt>
   <trkpt lat="37.8475540" lon="128.8664200">
    <ele>7</ele>
   </trkpt>
   <trkpt lat="37.8475680" lon="128.8663900">
    <ele>7</ele>
   </trkpt>
   <trkpt lat="37.8477050" lon="128.8660960">
    <ele>6</ele>
   </trkpt>
   <trkpt lat="37.8478360" lon="128.8659080">
    <ele>6</ele>
   </trkpt>
   <trkpt lat="37.8479440" lon="128.8657430">
    <ele>6</ele>
   </trkpt>
   <trkpt lat="37.8480080" lon="128.8656450">
    <ele>5</ele>
   </trkpt>
   <trkpt lat="37.8481330" lon="128.8654630">
    <ele>6</ele>
   </trkpt>
   <trkpt lat="37.8482210" lon="128.8653040">
    <ele>6</ele>
   </trkpt>
   <trkpt lat="37.8483280" lon="128.8651070">
    <ele>7</ele>
   </trkpt>
   <trkpt lat="37.8484130" lon="128.8649420">
    <ele>5</ele>
   </trkpt>
   <trkpt lat="37.8485160" lon="128.8647200">
    <ele>6</ele>
   </trkpt>
   <trkpt lat="37.8487410" lon="128.8641750">
    <ele>7</ele>
   </trkpt>
   <trkpt lat="37.8488210" lon="128.8640040">
    <ele>8</ele>
   </trkpt>
   <trkpt lat="37.8491810" lon="128.8634990">
    <ele>6</ele>
   </trkpt>
   <trkpt lat="37.8495230" lon="128.8630090">
    <ele>7</ele>
   </trkpt>
   <trkpt lat="37.8498560" lon="128.8625160">
    <ele>6</ele>
   </trkpt>
   <trkpt lat="37.8501890" lon="128.8620230">
    <ele>6</ele>
   </trkpt>
   <trkpt lat="37.8505680" lon="128.8614780">
    <ele>6</ele>
   </trkpt>
   <trkpt lat="37.8510040" lon="128.8608600">
    <ele>6</ele>
   </trkpt>
   <trkpt lat="37.8515100" lon="128.8601780">
    <ele>6</ele>
   </trkpt>
   <trkpt lat="37.8520170" lon="128.8594960">
    <ele>7</ele>
   </trkpt>
   <trkpt lat="37.8523080" lon="128.8591040">
    <ele>6</ele>
   </trkpt>
   <trkpt lat="37.8525230" lon="128.8588140">
    <ele>9</ele>
   </trkpt>
   <trkpt lat="37.8527510" lon="128.8585200">
    <ele>10</ele>
   </trkpt>
   <trkpt lat="37.8531840" lon="128.8579620">
    <ele>13</ele>
   </trkpt>
   <trkpt lat="37.8535980" lon="128.8573990">
    <ele>11</ele>
   </trkpt>
   <trkpt lat="37.8540110" lon="128.8568360">
    <ele>10</ele>
   </trkpt>
   <trkpt lat="37.8541140" lon="128.8567260">
    <ele>8</ele>
   </trkpt>
   <trkpt lat="37.8545510" lon="128.8560700">
    <ele>11</ele>
   </trkpt>
   <trkpt lat="37.8549340" lon="128.8555890">
    <ele>12</ele>
   </trkpt>
   <trkpt lat="37.8555390" lon="128.8549060">
    <ele>11</ele>
   </trkpt>
   <trkpt lat="37.8557380" lon="128.8547510">
    <ele>11</ele>
   </trkpt>
   <trkpt lat="37.8561280" lon="128.8544600">
    <ele>10</ele>
   </trkpt>
   <trkpt lat="37.8565180" lon="128.8541690">
    <ele>9</ele>
   </trkpt>
   <trkpt lat="37.8566620" lon="128.8540140">
    <ele>11</ele>
   </trkpt>
   <trkpt lat="37.8569310" lon="128.8536750">
    <ele>9</ele>
   </trkpt>
   <trkpt lat="37.8570510" lon="128.8535220">
    <ele>9</ele>
   </trkpt>
   <trkpt lat="37.8572100" lon="128.8533190">
    <ele>8</ele>
   </trkpt>
   <trkpt lat="37.8574610" lon="128.8530270">
    <ele>9</ele>
   </trkpt>
   <trkpt lat="37.8575080" lon="128.8529580">
    <ele>7</ele>
   </trkpt>
   <trkpt lat="37.8575870" lon="128.8528420">
    <ele>7</ele>
   </trkpt>
   <trkpt lat="37.8577540" lon="128.8525600">
    <ele>4</ele>
   </trkpt>
   <trkpt lat="37.8580050" lon="128.8522810">
    <ele>4</ele>
   </trkpt>
   <trkpt lat="37.8585020" lon="128.8516830">
    <ele>2</ele>
   </trkpt>
   <trkpt lat="37.8589700" lon="128.8511220">
    <ele>2</ele>
   </trkpt>
   <trkpt lat="37.8594390" lon="128.8505610">
    <ele>3</ele>
   </trkpt>
   <trkpt lat="37.8599070" lon="128.8500000">
    <ele>3</ele>
   </trkpt>
   <trkpt lat="37.8603430" lon="128.8495110">
    <ele>4</ele>
   </trkpt>
   <trkpt lat="37.8604060" lon="128.8494040">
    <ele>3</ele>
   </trkpt>
   <trkpt lat="37.8609180" lon="128.8488300">
    <ele>0</ele>
   </trkpt>
   <trkpt lat="37.8611860" lon="128.8485280">
    <ele>0</ele>
   </trkpt>
   <trkpt lat="37.8614290" lon="128.8482550">
    <ele>0</ele>
   </trkpt>
   <trkpt lat="37.8616650" lon="128.8479960">
    <ele>0</ele>
   </trkpt>
   <trkpt lat="37.8620630" lon="128.8475590">
    <ele>0</ele>
   </trkpt>
   <trkpt lat="37.8624610" lon="128.8471220">
    <ele>3</ele>
   </trkpt>
   <trkpt lat="37.8626800" lon="128.8469020">
    <ele>4</ele>
   </trkpt>
   <trkpt lat="37.8630050" lon="128.8465980">
    <ele>5</ele>
   </trkpt>
   <trkpt lat="37.8633110" lon="128.8464290">
    <ele>5</ele>
   </trkpt>
   <trkpt lat="37.8636070" lon="128.8463380">
    <ele>4</ele>
   </trkpt>
   <trkpt lat="37.8637840" lon="128.8462880">
    <ele>3</ele>
   </trkpt>
   <trkpt lat="37.8639040" lon="128.8462800">
    <ele>3</ele>
   </trkpt>
   <trkpt lat="37.8642560" lon="128.8462060">
    <ele>3</ele>
   </trkpt>
   <trkpt lat="37.8646120" lon="128.8461890">
    <ele>3</ele>
   </trkpt>
   <trkpt lat="37.8647610" lon="128.8461940">
    <ele>2</ele>
   </trkpt>
   <trkpt lat="37.8648210" lon="128.8462090">
    <ele>2</ele>
   </trkpt>
   <trkpt lat="37.8649750" lon="128.8462480">
    <ele>3</ele>
   </trkpt>
   <trkpt lat="37.8651790" lon="128.8463180">
    <ele>3</ele>
   </trkpt>
   <trkpt lat="37.8653730" lon="128.8464170">
    <ele>3</ele>
   </trkpt>
   <trkpt lat="37.8654270" lon="128.8464620">
    <ele>3</ele>
   </trkpt>
   <trkpt lat="37.8656030" lon="128.8466080">
    <ele>3</ele>
   </trkpt>
   <trkpt lat="37.8658380" lon="128.8468700">
    <ele>4</ele>
   </trkpt>
   <trkpt lat="37.8659340" lon="128.8470170">
    <ele>5</ele>
   </trkpt>
   <trkpt lat="37.8660230" lon="128.8471800">
    <ele>4</ele>
   </trkpt>
   <trkpt lat="37.8661120" lon="128.8474140">
    <ele>6</ele>
   </trkpt>
   <trkpt lat="37.8662310" lon="128.8479160">
    <ele>4</ele>
   </trkpt>
   <trkpt lat="37.8662830" lon="128.8480090">
    <ele>2</ele>
   </trkpt>
   <trkpt lat="37.8663400" lon="128.8480720">
    <ele>4</ele>
   </trkpt>
   <trkpt lat="37.8664000" lon="128.8481270">
    <ele>4</ele>
   </trkpt>
   <trkpt lat="37.8664550" lon="128.8481610">
    <ele>6</ele>
   </trkpt>
   <trkpt lat="37.8665250" lon="128.8481810">
    <ele>3</ele>
   </trkpt>
   <trkpt lat="37.8665990" lon="128.8481870">
    <ele>4</ele>
   </trkpt>
   <trkpt lat="37.8666710" lon="128.8481830">
    <ele>4</ele>
   </trkpt>
   <trkpt lat="37.8667340" lon="128.8481710">
    <ele>7</ele>
   </trkpt>
   <trkpt lat="37.8669050" lon="128.8481010">
    <ele>6</ele>
   </trkpt>
   <trkpt lat="37.8669680" lon="128.8480710">
    <ele>6</ele>
   </trkpt>
   <trkpt lat="37.8673870" lon="128.8478740">
    <ele>4</ele>
   </trkpt>
   <trkpt lat="37.8675710" lon="128.8477930">
    <ele>5</ele>
   </trkpt>
   <trkpt lat="37.8676750" lon="128.8477470">
    <ele>4</ele>
   </trkpt>
   <trkpt lat="37.8679040" lon="128.8476840">
    <ele>4</ele>
   </trkpt>
   <trkpt lat="37.8679850" lon="128.8476510">
    <ele>4</ele>
   </trkpt>
   <trkpt lat="37.8680280" lon="128.8476130">
    <ele>4</ele>
   </trkpt>
   <trkpt lat="37.8680560" lon="128.8475590">
    <ele>4</ele>
   </trkpt>
   <trkpt lat="37.8680950" lon="128.8474240">
    <ele>3</ele>
   </trkpt>
   <trkpt lat="37.8682420" lon="128.8468420">
    <ele>1</ele>
   </trkpt>
   <trkpt lat="37.8685150" lon="128.8460890">
    <ele>1</ele>
   </trkpt>
   <trkpt lat="37.8686670" lon="128.8457510">
    <ele>2</ele>
   </trkpt>
   <trkpt lat="37.8689580" lon="128.8452950">
    <ele>2</ele>
   </trkpt>
   <trkpt lat="37.8689990" lon="128.8452360">
    <ele>3</ele>
   </trkpt>
   <trkpt lat="37.8690700" lon="128.8451340">
    <ele>2</ele>
   </trkpt>
   <trkpt lat="37.8692150" lon="128.8449730">
    <ele>2</ele>
   </trkpt>
   <trkpt lat="37.8695350" lon="128.8446510">
    <ele>1</ele>
   </trkpt>
   <trkpt lat="37.8698980" lon="128.8443120">
    <ele>1</ele>
   </trkpt>
   <trkpt lat="37.8700460" lon="128.8441580">
    <ele>3</ele>
   </trkpt>
   <trkpt lat="37.8701080" lon="128.8440930">
    <ele>3</ele>
   </trkpt>
   <trkpt lat="37.8702100" lon="128.8439460">
    <ele>3</ele>
   </trkpt>
   <trkpt lat="37.8703390" lon="128.8437310">
    <ele>3</ele>
   </trkpt>
   <trkpt lat="37.8704890" lon="128.8434460">
    <ele>2</ele>
   </trkpt>
   <trkpt lat="37.8704950" lon="128.8434340">
    <ele>2</ele>
   </trkpt>
   <trkpt lat="37.8705690" lon="128.8431790">
    <ele>2</ele>
   </trkpt>
   <trkpt lat="37.8706750" lon="128.8429250">
    <ele>1</ele>
   </trkpt>
   <trkpt lat="37.8707550" lon="128.8427560">
    <ele>1</ele>
   </trkpt>
   <trkpt lat="37.8708600" lon="128.8425860">
    <ele>0</ele>
   </trkpt>
   <trkpt lat="37.8712450" lon="128.8421110">
    <ele>1</ele>
   </trkpt>
   <trkpt lat="37.8717600" lon="128.8414760">
    <ele>3</ele>
   </trkpt>
   <trkpt lat="37.8713100" lon="128.8420310">
    <ele>1</ele>
   </trkpt>
   <trkpt lat="37.8708600" lon="128.8425860">
    <ele>0</ele>
   </trkpt>
   <trkpt lat="37.8707550" lon="128.8427560">
    <ele>1</ele>
   </trkpt>
   <trkpt lat="37.8706750" lon="128.8429250">
    <ele>1</ele>
   </trkpt>
   <trkpt lat="37.8705690" lon="128.8431790">
    <ele>2</ele>
   </trkpt>
   <trkpt lat="37.8704950" lon="128.8434340">
    <ele>2</ele>
   </trkpt>
   <trkpt lat="37.8703390" lon="128.8437310">
    <ele>3</ele>
   </trkpt>
   <trkpt lat="37.8702100" lon="128.8439460">
    <ele>3</ele>
   </trkpt>
   <trkpt lat="37.8701080" lon="128.8440930">
    <ele>3</ele>
   </trkpt>
   <trkpt lat="37.8698980" lon="128.8443120">
    <ele>1</ele>
   </trkpt>
   <trkpt lat="37.8695350" lon="128.8446510">
    <ele>1</ele>
   </trkpt>
   <trkpt lat="37.8692150" lon="128.8449730">
    <ele>2</ele>
   </trkpt>
   <trkpt lat="37.8691150" lon="128.8450840">
    <ele>2</ele>
   </trkpt>
   <trkpt lat="37.8690700" lon="128.8451340">
    <ele>2</ele>
   </trkpt>
   <trkpt lat="37.8689990" lon="128.8452360">
    <ele>3</ele>
   </trkpt>
   <trkpt lat="37.8689580" lon="128.8452950">
    <ele>2</ele>
   </trkpt>
   <trkpt lat="37.8686670" lon="128.8457510">
    <ele>2</ele>
   </trkpt>
   <trkpt lat="37.8686540" lon="128.8457800">
    <ele>0</ele>
   </trkpt>
   <trkpt lat="37.8685150" lon="128.8460890">
    <ele>1</ele>
   </trkpt>
   <trkpt lat="37.8682420" lon="128.8468420">
    <ele>1</ele>
   </trkpt>
   <trkpt lat="37.8680950" lon="128.8474240">
    <ele>3</ele>
   </trkpt>
   <trkpt lat="37.8680560" lon="128.8475590">
    <ele>4</ele>
   </trkpt>
   <trkpt lat="37.8680280" lon="128.8476130">
    <ele>4</ele>
   </trkpt>
   <trkpt lat="37.8679850" lon="128.8476510">
    <ele>4</ele>
   </trkpt>
   <trkpt lat="37.8679040" lon="128.8476840">
    <ele>4</ele>
   </trkpt>
   <trkpt lat="37.8676750" lon="128.8477470">
    <ele>4</ele>
   </trkpt>
   <trkpt lat="37.8673870" lon="128.8478740">
    <ele>4</ele>
   </trkpt>
   <trkpt lat="37.8669050" lon="128.8481010">
    <ele>6</ele>
   </trkpt>
   <trkpt lat="37.8667340" lon="128.8481710">
    <ele>7</ele>
   </trkpt>
   <trkpt lat="37.8666710" lon="128.8481830">
    <ele>4</ele>
   </trkpt>
   <trkpt lat="37.8665990" lon="128.8481870">
    <ele>4</ele>
   </trkpt>
   <trkpt lat="37.8665250" lon="128.8481810">
    <ele>3</ele>
   </trkpt>
   <trkpt lat="37.8664550" lon="128.8481610">
    <ele>6</ele>
   </trkpt>
   <trkpt lat="37.8664000" lon="128.8481270">
    <ele>4</ele>
   </trkpt>
   <trkpt lat="37.8663400" lon="128.8480720">
    <ele>4</ele>
   </trkpt>
   <trkpt lat="37.8662830" lon="128.8480090">
    <ele>2</ele>
   </trkpt>
   <trkpt lat="37.8662310" lon="128.8479160">
    <ele>4</ele>
   </trkpt>
   <trkpt lat="37.8661120" lon="128.8474140">
    <ele>6</ele>
   </trkpt>
   <trkpt lat="37.8660230" lon="128.8471800">
    <ele>4</ele>
   </trkpt>
   <trkpt lat="37.8659740" lon="128.8470900">
    <ele>5</ele>
   </trkpt>
   <trkpt lat="37.8659340" lon="128.8470170">
    <ele>5</ele>
   </trkpt>
   <trkpt lat="37.8658380" lon="128.8468700">
    <ele>4</ele>
   </trkpt>
   <trkpt lat="37.8656030" lon="128.8466080">
    <ele>3</ele>
   </trkpt>
   <trkpt lat="37.8654490" lon="128.8464800">
    <ele>3</ele>
   </trkpt>
   <trkpt lat="37.8653730" lon="128.8464170">
    <ele>3</ele>
   </trkpt>
   <trkpt lat="37.8651790" lon="128.8463180">
    <ele>3</ele>
   </trkpt>
   <trkpt lat="37.8649750" lon="128.8462480">
    <ele>3</ele>
   </trkpt>
   <trkpt lat="37.8647610" lon="128.8461940">
    <ele>2</ele>
   </trkpt>
   <trkpt lat="37.8646120" lon="128.8461890">
    <ele>3</ele>
   </trkpt>
   <trkpt lat="37.8642560" lon="128.8462060">
    <ele>3</ele>
   </trkpt>
   <trkpt lat="37.8639040" lon="128.8462800">
    <ele>3</ele>
   </trkpt>
   <trkpt lat="37.8637840" lon="128.8462880">
    <ele>3</ele>
   </trkpt>
   <trkpt lat="37.8636070" lon="128.8463380">
    <ele>4</ele>
   </trkpt>
   <trkpt lat="37.8633110" lon="128.8464290">
    <ele>5</ele>
   </trkpt>
   <trkpt lat="37.8630050" lon="128.8465980">
    <ele>5</ele>
   </trkpt>
   <trkpt lat="37.8626800" lon="128.8469020">
    <ele>4</ele>
   </trkpt>
   <trkpt lat="37.8624610" lon="128.8471220">
    <ele>3</ele>
   </trkpt>
   <trkpt lat="37.8619450" lon="128.8476890">
    <ele>0</ele>
   </trkpt>
   <trkpt lat="37.8614290" lon="128.8482550">
    <ele>0</ele>
   </trkpt>
   <trkpt lat="37.8609180" lon="128.8488300">
    <ele>0</ele>
   </trkpt>
   <trkpt lat="37.8604060" lon="128.8494040">
    <ele>3</ele>
   </trkpt>
   <trkpt lat="37.8603430" lon="128.8495110">
    <ele>4</ele>
   </trkpt>
   <trkpt lat="37.8599070" lon="128.8500000">
    <ele>3</ele>
   </trkpt>
   <trkpt lat="37.8594390" lon="128.8505610">
    <ele>3</ele>
   </trkpt>
   <trkpt lat="37.8589700" lon="128.8511220">
    <ele>2</ele>
   </trkpt>
   <trkpt lat="37.8585020" lon="128.8516830">
    <ele>2</ele>
   </trkpt>
   <trkpt lat="37.8580050" lon="128.8522810">
    <ele>4</ele>
   </trkpt>
   <trkpt lat="37.8577540" lon="128.8525600">
    <ele>4</ele>
   </trkpt>
   <trkpt lat="37.8576950" lon="128.8526590">
    <ele>5</ele>
   </trkpt>
   <trkpt lat="37.8575870" lon="128.8528420">
    <ele>7</ele>
   </trkpt>
   <trkpt lat="37.8574610" lon="128.8530270">
    <ele>9</ele>
   </trkpt>
   <trkpt lat="37.8572100" lon="128.8533190">
    <ele>8</ele>
   </trkpt>
   <trkpt lat="37.8569310" lon="128.8536750">
    <ele>9</ele>
   </trkpt>
   <trkpt lat="37.8566620" lon="128.8540140">
    <ele>11</ele>
   </trkpt>
   <trkpt lat="37.8565180" lon="128.8541690">
    <ele>9</ele>
   </trkpt>
   <trkpt lat="37.8561280" lon="128.8544600">
    <ele>10</ele>
   </trkpt>
   <trkpt lat="37.8557380" lon="128.8547510">
    <ele>11</ele>
   </trkpt>
   <trkpt lat="37.8555390" lon="128.8549060">
    <ele>11</ele>
   </trkpt>
   <trkpt lat="37.8549340" lon="128.8555890">
    <ele>12</ele>
   </trkpt>
   <trkpt lat="37.8545510" lon="128.8560700">
    <ele>11</ele>
   </trkpt>
   <trkpt lat="37.8541140" lon="128.8567260">
    <ele>8</ele>
   </trkpt>
   <trkpt lat="37.8540110" lon="128.8568360">
    <ele>10</ele>
   </trkpt>
   <trkpt lat="37.8535980" lon="128.8573990">
    <ele>11</ele>
   </trkpt>
   <trkpt lat="37.8531840" lon="128.8579620">
    <ele>13</ele>
   </trkpt>
   <trkpt lat="37.8528540" lon="128.8583880">
    <ele>11</ele>
   </trkpt>
   <trkpt lat="37.8525230" lon="128.8588140">
    <ele>9</ele>
   </trkpt>
   <trkpt lat="37.8520170" lon="128.8594960">
    <ele>7</ele>
   </trkpt>
   <trkpt lat="37.8515100" lon="128.8601780">
    <ele>6</ele>
   </trkpt>
   <trkpt lat="37.8510040" lon="128.8608600">
    <ele>6</ele>
   </trkpt>
   <trkpt lat="37.8505680" lon="128.8614780">
    <ele>6</ele>
   </trkpt>
   <trkpt lat="37.8503010" lon="128.8618620">
    <ele>6</ele>
   </trkpt>
   <trkpt lat="37.8501890" lon="128.8620230">
    <ele>6</ele>
   </trkpt>
   <trkpt lat="37.8498320" lon="128.8625520">
    <ele>6</ele>
   </trkpt>
   <trkpt lat="37.8495230" lon="128.8630090">
    <ele>7</ele>
   </trkpt>
   <trkpt lat="37.8491810" lon="128.8634990">
    <ele>6</ele>
   </trkpt>
   <trkpt lat="37.8488210" lon="128.8640040">
    <ele>8</ele>
   </trkpt>
   <trkpt lat="37.8487410" lon="128.8641750">
    <ele>7</ele>
   </trkpt>
   <trkpt lat="37.8485160" lon="128.8647200">
    <ele>6</ele>
   </trkpt>
   <trkpt lat="37.8484130" lon="128.8649420">
    <ele>5</ele>
   </trkpt>
   <trkpt lat="37.8483280" lon="128.8651070">
    <ele>7</ele>
   </trkpt>
   <trkpt lat="37.8482210" lon="128.8653040">
    <ele>6</ele>
   </trkpt>
   <trkpt lat="37.8481330" lon="128.8654630">
    <ele>6</ele>
   </trkpt>
   <trkpt lat="37.8480080" lon="128.8656450">
    <ele>5</ele>
   </trkpt>
   <trkpt lat="37.8478360" lon="128.8659080">
    <ele>6</ele>
   </trkpt>
   <trkpt lat="37.8477050" lon="128.8660960">
    <ele>6</ele>
   </trkpt>
   <trkpt lat="37.8475540" lon="128.8664200">
    <ele>7</ele>
   </trkpt>
   <trkpt lat="37.8474750" lon="128.8666010">
    <ele>6</ele>
   </trkpt>
   <trkpt lat="37.8473560" lon="128.8668260">
    <ele>5</ele>
   </trkpt>
   <trkpt lat="37.8471730" lon="128.8671100">
    <ele>4</ele>
   </trkpt>
   <trkpt lat="37.8469250" lon="128.8674660">
    <ele>4</ele>
   </trkpt>
   <trkpt lat="37.8464680" lon="128.8682800">
    <ele>6</ele>
   </trkpt>
   <trkpt lat="37.8461120" lon="128.8689550">
    <ele>8</ele>
   </trkpt>
   <trkpt lat="37.8459850" lon="128.8691680">
    <ele>10</ele>
   </trkpt>
   <trkpt lat="37.8458870" lon="128.8693220">
    <ele>9</ele>
   </trkpt>
   <trkpt lat="37.8455580" lon="128.8695770">
    <ele>13</ele>
   </trkpt>
   <trkpt lat="37.8452480" lon="128.8697890">
    <ele>14</ele>
   </trkpt>
   <trkpt lat="37.8450740" lon="128.8698760">
    <ele>12</ele>
   </trkpt>
   <trkpt lat="37.8445730" lon="128.8700630">
    <ele>14</ele>
   </trkpt>
   <trkpt lat="37.8440240" lon="128.8702680">
    <ele>11</ele>
   </trkpt>
   <trkpt lat="37.8438810" lon="128.8703060">
    <ele>11</ele>
   </trkpt>
   <trkpt lat="37.8435360" lon="128.8703990">
    <ele>11</ele>
   </trkpt>
   <trkpt lat="37.8430720" lon="128.8705240">
    <ele>12</ele>
   </trkpt>
   <trkpt lat="37.8430570" lon="128.8705280">
    <ele>12</ele>
   </trkpt>
   <trkpt lat="37.8423570" lon="128.8706900">
    <ele>13</ele>
   </trkpt>
   <trkpt lat="37.8415390" lon="128.8708420">
    <ele>11</ele>
   </trkpt>
   <trkpt lat="37.8407320" lon="128.8710070">
    <ele>8</ele>
   </trkpt>
   <trkpt lat="37.8400820" lon="128.8711260">
    <ele>8</ele>
   </trkpt>
   <trkpt lat="37.8398890" lon="128.8711630">
    <ele>7</ele>
   </trkpt>
   <trkpt lat="37.8394440" lon="128.8712470">
    <ele>5</ele>
   </trkpt>
   <trkpt lat="37.8389990" lon="128.8713310">
    <ele>5</ele>
   </trkpt>
   <trkpt lat="37.8382990" lon="128.8714840">
    <ele>6</ele>
   </trkpt>
   <trkpt lat="37.8375990" lon="128.8716370">
    <ele>5</ele>
   </trkpt>
   <trkpt lat="37.8368480" lon="128.8718020">
    <ele>5</ele>
   </trkpt>
   <trkpt lat="37.8360960" lon="128.8719660">
    <ele>4</ele>
   </trkpt>
   <trkpt lat="37.8352190" lon="128.8721360">
    <ele>3</ele>
   </trkpt>
   <trkpt lat="37.8348790" lon="128.8722070">
    <ele>3</ele>
   </trkpt>
   <trkpt lat="37.8347500" lon="128.8722390">
    <ele>3</ele>
   </trkpt>
   <trkpt lat="37.8346000" lon="128.8722830">
    <ele>3</ele>
   </trkpt>
   <trkpt lat="37.8343980" lon="128.8723620">
    <ele>2</ele>
   </trkpt>
   <trkpt lat="37.8341200" lon="128.8725220">
    <ele>2</ele>
   </trkpt>
   <trkpt lat="37.8339360" lon="128.8726530">
    <ele>2</ele>
   </trkpt>
   <trkpt lat="37.8337520" lon="128.8728060">
    <ele>4</ele>
   </trkpt>
   <trkpt lat="37.8335200" lon="128.8730220">
    <ele>4</ele>
   </trkpt>
   <trkpt lat="37.8333610" lon="128.8732010">
    <ele>3</ele>
   </trkpt>
   <trkpt lat="37.8333280" lon="128.8732390">
    <ele>3</ele>
   </trkpt>
   <trkpt lat="37.8330270" lon="128.8735360">
    <ele>0</ele>
   </trkpt>
   <trkpt lat="37.8328350" lon="128.8737630">
    <ele>0</ele>
   </trkpt>
   <trkpt lat="37.8326660" lon="128.8739810">
    <ele>0</ele>
   </trkpt>
   <trkpt lat="37.8323790" lon="128.8743320">
    <ele>4</ele>
   </trkpt>
   <trkpt lat="37.8322950" lon="128.8744300">
    <ele>4</ele>
   </trkpt>
   <trkpt lat="37.8320550" lon="128.8747100">
    <ele>6</ele>
   </trkpt>
   <trkpt lat="37.8316060" lon="128.8753000">
    <ele>3</ele>
   </trkpt>
   <trkpt lat="37.8311560" lon="128.8758900">
    <ele>3</ele>
   </trkpt>
   <trkpt lat="37.8310080" lon="128.8760640">
    <ele>3</ele>
   </trkpt>
   <trkpt lat="37.8306720" lon="128.8764590">
    <ele>4</ele>
   </trkpt>
   <trkpt lat="37.8303310" lon="128.8768270">
    <ele>5</ele>
   </trkpt>
   <trkpt lat="37.8299490" lon="128.8772400">
    <ele>9</ele>
   </trkpt>
   <trkpt lat="37.8294800" lon="128.8777410">
    <ele>12</ele>
   </trkpt>
   <trkpt lat="37.8293210" lon="128.8779100">
    <ele>13</ele>
   </trkpt>
   <trkpt lat="37.8290100" lon="128.8782420">
    <ele>9</ele>
   </trkpt>
   <trkpt lat="37.8287980" lon="128.8785310">
    <ele>8</ele>
   </trkpt>
   <trkpt lat="37.8283260" lon="128.8790490">
    <ele>11</ele>
   </trkpt>
   <trkpt lat="37.8278530" lon="128.8795670">
    <ele>11</ele>
   </trkpt>
   <trkpt lat="37.8273810" lon="128.8800850">
    <ele>12</ele>
   </trkpt>
   <trkpt lat="37.8268000" lon="128.8806930">
    <ele>8</ele>
   </trkpt>
   <trkpt lat="37.8262190" lon="128.8813010">
    <ele>10</ele>
   </trkpt>
   <trkpt lat="37.8256380" lon="128.8819090">
    <ele>8</ele>
   </trkpt>
   <trkpt lat="37.8253950" lon="128.8821050">
    <ele>8</ele>
   </trkpt>
   <trkpt lat="37.8249750" lon="128.8826210">
    <ele>7</ele>
   </trkpt>
   <trkpt lat="37.8245550" lon="128.8831370">
    <ele>8</ele>
   </trkpt>
   <trkpt lat="37.8239520" lon="128.8839570">
    <ele>8</ele>
   </trkpt>
   <trkpt lat="37.8239220" lon="128.8840000">
    <ele>8</ele>
   </trkpt>
   <trkpt lat="37.8234480" lon="128.8846840">
    <ele>8</ele>
   </trkpt>
   <trkpt lat="37.8232640" lon="128.8849490">
    <ele>9</ele>
   </trkpt>
   <trkpt lat="37.8230330" lon="128.8852460">
    <ele>9</ele>
   </trkpt>
   <trkpt lat="37.8226450" lon="128.8857450">
    <ele>9</ele>
   </trkpt>
   <trkpt lat="37.8223450" lon="128.8861120">
    <ele>9</ele>
   </trkpt>
   <trkpt lat="37.8219520" lon="128.8866430">
    <ele>9</ele>
   </trkpt>
   <trkpt lat="37.8215590" lon="128.8871740">
    <ele>8</ele>
   </trkpt>
   <trkpt lat="37.8211050" lon="128.8877630">
    <ele>7</ele>
   </trkpt>
   <trkpt lat="37.8206510" lon="128.8883510">
    <ele>3</ele>
   </trkpt>
   <trkpt lat="37.8204360" lon="128.8886240">
    <ele>3</ele>
   </trkpt>
   <trkpt lat="37.8203850" lon="128.8887010">
    <ele>4</ele>
   </trkpt>
   <trkpt lat="37.8201130" lon="128.8890300">
    <ele>5</ele>
   </trkpt>
   <trkpt lat="37.8197480" lon="128.8894560">
    <ele>6</ele>
   </trkpt>
   <trkpt lat="37.8194890" lon="128.8897410">
    <ele>6</ele>
   </trkpt>
   <trkpt lat="37.8188790" lon="128.8904320">
    <ele>7</ele>
   </trkpt>
   <trkpt lat="37.8186760" lon="128.8906430">
    <ele>9</ele>
   </trkpt>
   <trkpt lat="37.8185850" lon="128.8907380">
    <ele>10</ele>
   </trkpt>
   <trkpt lat="37.8184140" lon="128.8909250">
    <ele>9</ele>
   </trkpt>
   <trkpt lat="37.8180170" lon="128.8912830">
    <ele>8</ele>
   </trkpt>
   <trkpt lat="37.8175220" lon="128.8916920">
    <ele>7</ele>
   </trkpt>
   <trkpt lat="37.8173750" lon="128.8918100">
    <ele>6</ele>
   </trkpt>
   <trkpt lat="37.8173280" lon="128.8918470">
    <ele>6</ele>
   </trkpt>
   <trkpt lat="37.8168400" lon="128.8922360">
    <ele>5</ele>
   </trkpt>
   <trkpt lat="37.8166550" lon="128.8924140">
    <ele>5</ele>
   </trkpt>
   <trkpt lat="37.8162580" lon="128.8929790">
    <ele>8</ele>
   </trkpt>
   <trkpt lat="37.8159050" lon="128.8934980">
    <ele>8</ele>
   </trkpt>
   <trkpt lat="37.8154360" lon="128.8941880">
    <ele>10</ele>
   </trkpt>
   <trkpt lat="37.8151780" lon="128.8945670">
    <ele>9</ele>
   </trkpt>
   <trkpt lat="37.8148270" lon="128.8951180">
    <ele>7</ele>
   </trkpt>
   <trkpt lat="37.8144760" lon="128.8956680">
    <ele>8</ele>
   </trkpt>
   <trkpt lat="37.8140280" lon="128.8963360">
    <ele>8</ele>
   </trkpt>
   <trkpt lat="37.8135260" lon="128.8970280">
    <ele>7</ele>
   </trkpt>
   <trkpt lat="37.8129200" lon="128.8978190">
    <ele>6</ele>
   </trkpt>
   <trkpt lat="37.8127030" lon="128.8980370">
    <ele>7</ele>
   </trkpt>
   <trkpt lat="37.8121550" lon="128.8986440">
    <ele>9</ele>
   </trkpt>
   <trkpt lat="37.8117830" lon="128.8990240">
    <ele>10</ele>
   </trkpt>
   <trkpt lat="37.8113560" lon="128.8995130">
    <ele>9</ele>
   </trkpt>
   <trkpt lat="37.8108510" lon="128.9000450">
    <ele>10</ele>
   </trkpt>
   <trkpt lat="37.8106790" lon="128.9002310">
    <ele>9</ele>
   </trkpt>
   <trkpt lat="37.8104700" lon="128.9004650">
    <ele>9</ele>
   </trkpt>
   <trkpt lat="37.8103140" lon="128.9006820">
    <ele>12</ele>
   </trkpt>
   <trkpt lat="37.8101380" lon="128.9009770">
    <ele>10</ele>
   </trkpt>
   <trkpt lat="37.8101100" lon="128.9010250">
    <ele>10</ele>
   </trkpt>
   <trkpt lat="37.8097770" lon="128.9013530">
    <ele>7</ele>
   </trkpt>
   <trkpt lat="37.8095900" lon="128.9015610">
    <ele>5</ele>
   </trkpt>
   <trkpt lat="37.8094810" lon="128.9016820">
    <ele>6</ele>
   </trkpt>
   <trkpt lat="37.8093680" lon="128.9018130">
    <ele>7</ele>
   </trkpt>
   <trkpt lat="37.8089970" lon="128.9022950">
    <ele>7</ele>
   </trkpt>
   <trkpt lat="37.8086260" lon="128.9027770">
    <ele>6</ele>
   </trkpt>
   <trkpt lat="37.8080420" lon="128.9035460">
    <ele>8</ele>
   </trkpt>
   <trkpt lat="37.8074590" lon="128.9043150">
    <ele>9</ele>
   </trkpt>
   <trkpt lat="37.8068750" lon="128.9050840">
    <ele>7</ele>
   </trkpt>
   <trkpt lat="37.8063860" lon="128.9057000">
    <ele>5</ele>
   </trkpt>
   <trkpt lat="37.8063400" lon="128.9057580">
    <ele>5</ele>
   </trkpt>
   <trkpt lat="37.8059240" lon="128.9062910">
    <ele>8</ele>
   </trkpt>
   <trkpt lat="37.8053220" lon="128.9070640">
    <ele>9</ele>
   </trkpt>
   <trkpt lat="37.8050770" lon="128.9073770">
    <ele>7</ele>
   </trkpt>
  </trkseg>
 </trk>
</gpx>
