<?xml version="1.0" encoding="UTF-8"?>
<gpx version="1.1" creator="RunRuun GPX Creator" xmlns="http://www.topografix.com/GPX/1/1">
  <trk>
    <name>happy700_half</name>
    <trkseg>
      <trkpt lat="37.666293327961036" lon="128.7070441246033">
        <ele>605.5</ele>
      </trkpt>
      <trkpt lat="37.66654811049994" lon="128.7073123455048">
        <ele>608.9</ele>
      </trkpt>
      <trkpt lat="37.666310313490825" lon="128.70779514312747">
        <ele>612.6</ele>
      </trkpt>
      <trkpt lat="37.66579225308315" lon="128.7073338031769">
        <ele>616.9</ele>
      </trkpt>
      <trkpt lat="37.66612347244922" lon="128.70645403862002">
        <ele>621.8</ele>
      </trkpt>
      <trkpt lat="37.666133" lon="128.706434">
        <ele>626.7</ele>
      </trkpt>
      <trkpt lat="37.666352" lon="128.706627">
        <ele>631.4</ele>
      </trkpt>
      <trkpt lat="37.667068" lon="128.707288">
        <ele>635.8</ele>
      </trkpt>
      <trkpt lat="37.667116" lon="128.707323">
        <ele>639.8</ele>
      </trkpt>
      <trkpt lat="37.667427" lon="128.707346">
        <ele>643.6</ele>
      </trkpt>
      <trkpt lat="37.667601" lon="128.707334">
        <ele>647.1</ele>
      </trkpt>
      <trkpt lat="37.668395" lon="128.707332">
        <ele>650.3</ele>
      </trkpt>
      <trkpt lat="37.668394" lon="128.707332">
        <ele>653.3</ele>
      </trkpt>
      <trkpt lat="37.66839950401352" lon="128.7073338031769">
        <ele>656.0</ele>
      </trkpt>
      <trkpt lat="37.668394" lon="128.707332">
        <ele>658.6</ele>
      </trkpt>
      <trkpt lat="37.668352" lon="128.707527">
        <ele>661.0</ele>
      </trkpt>
      <trkpt lat="37.668275" lon="128.70794">
        <ele>666.8</ele>
      </trkpt>
      <trkpt lat="37.668249" lon="128.708195">
        <ele>672.3</ele>
      </trkpt>
      <trkpt lat="37.668232" lon="128.708444">
        <ele>677.4</ele>
      </trkpt>
      <trkpt lat="37.668224" lon="128.708908">
        <ele>682.3</ele>
      </trkpt>
      <trkpt lat="37.668229" lon="128.709007">
        <ele>686.9</ele>
      </trkpt>
      <trkpt lat="37.668235" lon="128.709126">
        <ele>691.3</ele>
      </trkpt>
      <trkpt lat="37.668288" lon="128.710076">
        <ele>695.5</ele>
      </trkpt>
      <trkpt lat="37.668307" lon="128.710307">
        <ele>699.5</ele>
      </trkpt>
      <trkpt lat="37.668229" lon="128.710308">
        <ele>703.4</ele>
      </trkpt>
      <trkpt lat="37.668229653321696" lon="128.71032714843753">
        <ele>707.1</ele>
      </trkpt>
      <trkpt lat="37.668229" lon="128.710308">
        <ele>710.6</ele>
      </trkpt>
      <trkpt lat="37.668207" lon="128.710309">
        <ele>714.1</ele>
      </trkpt>
      <trkpt lat="37.668003" lon="128.710271">
        <ele>717.4</ele>
      </trkpt>
      <trkpt lat="37.667837" lon="128.710219">
        <ele>720.5</ele>
      </trkpt>
      <trkpt lat="37.667543" lon="128.710077">
        <ele>723.6</ele>
      </trkpt>
      <trkpt lat="37.667279" lon="128.709924">
        <ele>726.6</ele>
      </trkpt>
      <trkpt lat="37.667029" lon="128.70986">
        <ele>728.9</ele>
      </trkpt>
      <trkpt lat="37.666692" lon="128.709774">
        <ele>730.7</ele>
      </trkpt>
      <trkpt lat="37.666169" lon="128.709668">
        <ele>732.0</ele>
      </trkpt>
      <trkpt lat="37.666" lon="128.709605">
        <ele>732.6</ele>
      </trkpt>
      <trkpt lat="37.665866" lon="128.709372">
        <ele>732.9</ele>
      </trkpt>
      <trkpt lat="37.665764" lon="128.709079">
        <ele>733.0</ele>
      </trkpt>
      <trkpt lat="37.665391" lon="128.708193">
        <ele>733.0</ele>
      </trkpt>
      <trkpt lat="37.665058" lon="128.707404">
        <ele>732.9</ele>
      </trkpt>
      <trkpt lat="37.664983" lon="128.707079">
        <ele>732.9</ele>
      </trkpt>
      <trkpt lat="37.664974" lon="128.706938">
        <ele>732.9</ele>
      </trkpt>
      <trkpt lat="37.664966" lon="128.706805">
        <ele>732.8</ele>
      </trkpt>
      <trkpt lat="37.664977" lon="128.70662">
        <ele>732.8</ele>
      </trkpt>
      <trkpt lat="37.665046" lon="128.706168">
        <ele>732.8</ele>
      </trkpt>
      <trkpt lat="37.66506" lon="128.705922">
        <ele>732.8</ele>
      </trkpt>
      <trkpt lat="37.665053" lon="128.705714">
        <ele>732.8</ele>
      </trkpt>
      <trkpt lat="37.665025" lon="128.705501">
        <ele>732.8</ele>
      </trkpt>
      <trkpt lat="37.664947" lon="128.705185">
        <ele>732.8</ele>
      </trkpt>
      <trkpt lat="37.66490050128947" lon="128.70519876480105">
        <ele>732.8</ele>
      </trkpt>
      <trkpt lat="37.664945" lon="128.705178">
        <ele>732.8</ele>
      </trkpt>
      <trkpt lat="37.664889" lon="128.704976">
        <ele>732.8</ele>
      </trkpt>
      <trkpt lat="37.664794" lon="128.704457">
        <ele>732.7</ele>
      </trkpt>
      <trkpt lat="37.664761" lon="128.704114">
        <ele>732.7</ele>
      </trkpt>
      <trkpt lat="37.664751" lon="128.703635">
        <ele>732.6</ele>
      </trkpt>
      <trkpt lat="37.664724" lon="128.70287">
        <ele>732.5</ele>
      </trkpt>
      <trkpt lat="37.664715" lon="128.70262">
        <ele>732.5</ele>
      </trkpt>
      <trkpt lat="37.664675" lon="128.702353">
        <ele>732.4</ele>
      </trkpt>
      <trkpt lat="37.664603" lon="128.702101">
        <ele>732.3</ele>
      </trkpt>
      <trkpt lat="37.664482" lon="128.70185">
        <ele>732.1</ele>
      </trkpt>
      <trkpt lat="37.664301" lon="128.701591">
        <ele>732.0</ele>
      </trkpt>
      <trkpt lat="37.663795" lon="128.701084">
        <ele>731.8</ele>
      </trkpt>
      <trkpt lat="37.663167" lon="128.700441">
        <ele>731.6</ele>
      </trkpt>
      <trkpt lat="37.662534" lon="128.699763">
        <ele>731.4</ele>
      </trkpt>
      <trkpt lat="37.66244" lon="128.699634">
        <ele>731.2</ele>
      </trkpt>
      <trkpt lat="37.66193" lon="128.698926">
        <ele>731.0</ele>
      </trkpt>
      <trkpt lat="37.661535" lon="128.69826">
        <ele>730.8</ele>
      </trkpt>
      <trkpt lat="37.661283" lon="128.697841">
        <ele>730.6</ele>
      </trkpt>
      <trkpt lat="37.661097" lon="128.697499">
        <ele>730.4</ele>
      </trkpt>
      <trkpt lat="37.66107858654081" lon="128.6975169181824">
        <ele>730.1</ele>
      </trkpt>
      <trkpt lat="37.661097" lon="128.697499">
        <ele>729.9</ele>
      </trkpt>
      <trkpt lat="37.660533" lon="128.696465">
        <ele>729.7</ele>
      </trkpt>
      <trkpt lat="37.660361" lon="128.696105">
        <ele>729.4</ele>
      </trkpt>
      <trkpt lat="37.66027" lon="128.695897">
        <ele>729.1</ele>
      </trkpt>
      <trkpt lat="37.660205" lon="128.695669">
        <ele>728.9</ele>
      </trkpt>
      <trkpt lat="37.6601" lon="128.695216">
        <ele>728.5</ele>
      </trkpt>
      <trkpt lat="37.660027" lon="128.69478">
        <ele>728.3</ele>
      </trkpt>
      <trkpt lat="37.659878" lon="128.694388">
        <ele>728.0</ele>
      </trkpt>
      <trkpt lat="37.659743" lon="128.694179">
        <ele>727.7</ele>
      </trkpt>
      <trkpt lat="37.659596" lon="128.693996">
        <ele>727.4</ele>
      </trkpt>
      <trkpt lat="37.659398" lon="128.693835">
        <ele>727.1</ele>
      </trkpt>
      <trkpt lat="37.659226" lon="128.693735">
        <ele>726.8</ele>
      </trkpt>
      <trkpt lat="37.659051" lon="128.693685">
        <ele>726.5</ele>
      </trkpt>
      <trkpt lat="37.658883" lon="128.693647">
        <ele>726.3</ele>
      </trkpt>
      <trkpt lat="37.658717" lon="128.693644">
        <ele>726.1</ele>
      </trkpt>
      <trkpt lat="37.658563" lon="128.693667">
        <ele>725.9</ele>
      </trkpt>
      <trkpt lat="37.65835" lon="128.693728">
        <ele>725.7</ele>
      </trkpt>
      <trkpt lat="37.65817" lon="128.693829">
        <ele>725.5</ele>
      </trkpt>
      <trkpt lat="37.658013" lon="128.69395">
        <ele>725.4</ele>
      </trkpt>
      <trkpt lat="37.657864" lon="128.694105">
        <ele>725.3</ele>
      </trkpt>
      <trkpt lat="37.657732" lon="128.694296">
        <ele>725.2</ele>
      </trkpt>
      <trkpt lat="37.65762" lon="128.69452">
        <ele>725.2</ele>
      </trkpt>
      <trkpt lat="37.657365" lon="128.695242">
        <ele>725.2</ele>
      </trkpt>
      <trkpt lat="37.657244" lon="128.69555">
        <ele>725.2</ele>
      </trkpt>
      <trkpt lat="37.65704" lon="128.696002">
        <ele>725.2</ele>
      </trkpt>
      <trkpt lat="37.656862" lon="128.696351">
        <ele>725.2</ele>
      </trkpt>
      <trkpt lat="37.656636" lon="128.696722">
        <ele>725.3</ele>
      </trkpt>
      <trkpt lat="37.656539" lon="128.696866">
        <ele>725.4</ele>
      </trkpt>
      <trkpt lat="37.65652600464214" lon="128.6968517303467">
        <ele>725.5</ele>
      </trkpt>
      <trkpt lat="37.656539" lon="128.696866">
        <ele>725.6</ele>
      </trkpt>
      <trkpt lat="37.656339" lon="128.697165">
        <ele>725.8</ele>
      </trkpt>
      <trkpt lat="37.656002" lon="128.697565">
        <ele>726.0</ele>
      </trkpt>
      <trkpt lat="37.655725" lon="128.697846">
        <ele>726.2</ele>
      </trkpt>
      <trkpt lat="37.65546" lon="128.698085">
        <ele>726.5</ele>
      </trkpt>
      <trkpt lat="37.655102" lon="128.698384">
        <ele>726.7</ele>
      </trkpt>
      <trkpt lat="37.654834" lon="128.698588">
        <ele>727.0</ele>
      </trkpt>
      <trkpt lat="37.654644" lon="128.698765">
        <ele>727.4</ele>
      </trkpt>
      <trkpt lat="37.654497" lon="128.698938">
        <ele>727.7</ele>
      </trkpt>
      <trkpt lat="37.6543" lon="128.699229">
        <ele>728.1</ele>
      </trkpt>
      <trkpt lat="37.654125" lon="128.699515">
        <ele>728.5</ele>
      </trkpt>
      <trkpt lat="37.65393" lon="128.699638">
        <ele>728.9</ele>
      </trkpt>
      <trkpt lat="37.65384" lon="128.699682">
        <ele>729.4</ele>
      </trkpt>
      <trkpt lat="37.653752" lon="128.699681">
        <ele>729.9</ele>
      </trkpt>
      <trkpt lat="37.653463" lon="128.699661">
        <ele>730.4</ele>
      </trkpt>
      <trkpt lat="37.652893" lon="128.699622">
        <ele>731.0</ele>
      </trkpt>
      <trkpt lat="37.652605" lon="128.699635">
        <ele>731.5</ele>
      </trkpt>
      <trkpt lat="37.652435" lon="128.699669">
        <ele>732.1</ele>
      </trkpt>
      <trkpt lat="37.652183" lon="128.699752">
        <ele>732.6</ele>
      </trkpt>
      <trkpt lat="37.651971" lon="128.699864">
        <ele>733.2</ele>
      </trkpt>
      <trkpt lat="37.651149" lon="128.700426">
        <ele>733.8</ele>
      </trkpt>
      <trkpt lat="37.650915" lon="128.700532">
        <ele>734.4</ele>
      </trkpt>
      <trkpt lat="37.650737" lon="128.700583">
        <ele>735.0</ele>
      </trkpt>
      <trkpt lat="37.650556" lon="128.700605">
        <ele>735.6</ele>
      </trkpt>
      <trkpt lat="37.650369" lon="128.700597">
        <ele>736.2</ele>
      </trkpt>
      <trkpt lat="37.65021" lon="128.700564">
        <ele>736.8</ele>
      </trkpt>
      <trkpt lat="37.64997" lon="128.700484">
        <ele>737.4</ele>
      </trkpt>
      <trkpt lat="37.649741" lon="128.700358">
        <ele>738.1</ele>
      </trkpt>
      <trkpt lat="37.649576" lon="128.700245">
        <ele>738.7</ele>
      </trkpt>
      <trkpt lat="37.649422" lon="128.700064">
        <ele>739.3</ele>
      </trkpt>
      <trkpt lat="37.649309" lon="128.699916">
        <ele>740.0</ele>
      </trkpt>
      <trkpt lat="37.649236" lon="128.699809">
        <ele>740.6</ele>
      </trkpt>
      <trkpt lat="37.64925488449951" lon="128.69979143142703">
        <ele>741.2</ele>
      </trkpt>
      <trkpt lat="37.649236" lon="128.699809">
        <ele>741.8</ele>
      </trkpt>
      <trkpt lat="37.64918" lon="128.699727">
        <ele>742.4</ele>
      </trkpt>
      <trkpt lat="37.649056" lon="128.699466">
        <ele>743.0</ele>
      </trkpt>
      <trkpt lat="37.648951" lon="128.699163">
        <ele>743.6</ele>
      </trkpt>
      <trkpt lat="37.648886" lon="128.698837">
        <ele>744.2</ele>
      </trkpt>
      <trkpt lat="37.648851" lon="128.698562">
        <ele>744.8</ele>
      </trkpt>
      <trkpt lat="37.648851" lon="128.69826">
        <ele>745.3</ele>
      </trkpt>
      <trkpt lat="37.648882" lon="128.697991">
        <ele>745.9</ele>
      </trkpt>
      <trkpt lat="37.64892" lon="128.697799">
        <ele>746.4</ele>
      </trkpt>
      <trkpt lat="37.648985" lon="128.697546">
        <ele>746.9</ele>
      </trkpt>
      <trkpt lat="37.650006" lon="128.694834">
        <ele>747.3</ele>
      </trkpt>
      <trkpt lat="37.650091" lon="128.694493">
        <ele>747.8</ele>
      </trkpt>
      <trkpt lat="37.650161" lon="128.694146">
        <ele>748.2</ele>
      </trkpt>
      <trkpt lat="37.650204" lon="128.69383">
        <ele>748.5</ele>
      </trkpt>
      <trkpt lat="37.650228" lon="128.693503">
        <ele>748.9</ele>
      </trkpt>
      <trkpt lat="37.650233" lon="128.693241">
        <ele>749.3</ele>
      </trkpt>
      <trkpt lat="37.650225" lon="128.693022">
        <ele>749.6</ele>
      </trkpt>
      <trkpt lat="37.650173" lon="128.692383">
        <ele>749.9</ele>
      </trkpt>
      <trkpt lat="37.650118" lon="128.692228">
        <ele>750.2</ele>
      </trkpt>
      <trkpt lat="37.650104351150844" lon="128.6922383308411">
        <ele>750.5</ele>
      </trkpt>
      <trkpt lat="37.650118" lon="128.692228">
        <ele>750.7</ele>
      </trkpt>
      <trkpt lat="37.650173" lon="128.692383">
        <ele>751.0</ele>
      </trkpt>
      <trkpt lat="37.650165" lon="128.692177">
        <ele>751.2</ele>
      </trkpt>
      <trkpt lat="37.650132" lon="128.691986">
        <ele>751.4</ele>
      </trkpt>
      <trkpt lat="37.650034" lon="128.691595">
        <ele>751.5</ele>
      </trkpt>
      <trkpt lat="37.649921" lon="128.691259">
        <ele>751.7</ele>
      </trkpt>
      <trkpt lat="37.649886" lon="128.69113">
        <ele>751.8</ele>
      </trkpt>
      <trkpt lat="37.649865" lon="128.69098">
        <ele>751.9</ele>
      </trkpt>
      <trkpt lat="37.649877" lon="128.690938">
        <ele>752.1</ele>
      </trkpt>
      <trkpt lat="37.64988" lon="128.690893">
        <ele>752.2</ele>
      </trkpt>
      <trkpt lat="37.649874" lon="128.690849">
        <ele>752.3</ele>
      </trkpt>
      <trkpt lat="37.649859" lon="128.690809">
        <ele>752.4</ele>
      </trkpt>
      <trkpt lat="37.649836" lon="128.690775">
        <ele>752.5</ele>
      </trkpt>
      <trkpt lat="37.649807" lon="128.690749">
        <ele>752.5</ele>
      </trkpt>
      <trkpt lat="37.649791" lon="128.690742">
        <ele>752.6</ele>
      </trkpt>
      <trkpt lat="37.64978155496791" lon="128.690779209137">
        <ele>752.7</ele>
      </trkpt>
      <trkpt lat="37.649791" lon="128.690742">
        <ele>752.8</ele>
      </trkpt>
      <trkpt lat="37.649773" lon="128.690734">
        <ele>752.8</ele>
      </trkpt>
      <trkpt lat="37.649738" lon="128.690731">
        <ele>752.9</ele>
      </trkpt>
      <trkpt lat="37.649703" lon="128.690739">
        <ele>752.9</ele>
      </trkpt>
      <trkpt lat="37.649671" lon="128.690758">
        <ele>752.9</ele>
      </trkpt>
      <trkpt lat="37.649644" lon="128.690787">
        <ele>752.9</ele>
      </trkpt>
      <trkpt lat="37.649624" lon="128.690823">
        <ele>752.9</ele>
      </trkpt>
      <trkpt lat="37.649612" lon="128.690866">
        <ele>752.9</ele>
      </trkpt>
      <trkpt lat="37.649609" lon="128.69091">
        <ele>752.9</ele>
      </trkpt>
      <trkpt lat="37.649616" lon="128.690954">
        <ele>752.8</ele>
      </trkpt>
      <trkpt lat="37.649631" lon="128.690995">
        <ele>752.7</ele>
      </trkpt>
      <trkpt lat="37.649654" lon="128.691029">
        <ele>752.6</ele>
      </trkpt>
      <trkpt lat="37.649683" lon="128.691054">
        <ele>752.5</ele>
      </trkpt>
      <trkpt lat="37.64973" lon="128.69107">
        <ele>752.4</ele>
      </trkpt>
      <trkpt lat="37.649783" lon="128.691159">
        <ele>752.2</ele>
      </trkpt>
      <trkpt lat="37.649861" lon="128.691371">
        <ele>752.1</ele>
      </trkpt>
      <trkpt lat="37.650042" lon="128.691941">
        <ele>751.9</ele>
      </trkpt>
      <trkpt lat="37.650107" lon="128.692198">
        <ele>751.7</ele>
      </trkpt>
      <trkpt lat="37.650173" lon="128.692383">
        <ele>751.4</ele>
      </trkpt>
      <trkpt lat="37.650225" lon="128.693022">
        <ele>751.2</ele>
      </trkpt>
      <trkpt lat="37.650233" lon="128.693241">
        <ele>750.9</ele>
      </trkpt>
      <trkpt lat="37.650228" lon="128.69346">
        <ele>750.6</ele>
      </trkpt>
      <trkpt lat="37.65024026491339" lon="128.69346141815188">
        <ele>750.3</ele>
      </trkpt>
      <trkpt lat="37.650228" lon="128.69346">
        <ele>750.0</ele>
      </trkpt>
      <trkpt lat="37.650228" lon="128.693503">
        <ele>749.6</ele>
      </trkpt>
      <trkpt lat="37.650204" lon="128.69383">
        <ele>749.2</ele>
      </trkpt>
      <trkpt lat="37.650161" lon="128.694146">
        <ele>748.8</ele>
      </trkpt>
      <trkpt lat="37.650091" lon="128.694493">
        <ele>748.4</ele>
      </trkpt>
      <trkpt lat="37.650006" lon="128.694834">
        <ele>747.9</ele>
      </trkpt>
      <trkpt lat="37.648985" lon="128.697546">
        <ele>747.4</ele>
      </trkpt>
      <trkpt lat="37.64892" lon="128.697799">
        <ele>746.8</ele>
      </trkpt>
      <trkpt lat="37.648882" lon="128.697991">
        <ele>746.3</ele>
      </trkpt>
      <trkpt lat="37.648851" lon="128.69826">
        <ele>745.7</ele>
      </trkpt>
      <trkpt lat="37.648851" lon="128.698562">
        <ele>745.1</ele>
      </trkpt>
      <trkpt lat="37.648886" lon="128.698837">
        <ele>744.5</ele>
      </trkpt>
      <trkpt lat="37.648951" lon="128.699163">
        <ele>743.9</ele>
      </trkpt>
      <trkpt lat="37.649056" lon="128.699466">
        <ele>743.2</ele>
      </trkpt>
      <trkpt lat="37.649097" lon="128.699554">
        <ele>742.5</ele>
      </trkpt>
      <trkpt lat="37.6490680005323" lon="128.69957685470584">
        <ele>741.9</ele>
      </trkpt>
      <trkpt lat="37.649097" lon="128.699554">
        <ele>741.3</ele>
      </trkpt>
      <trkpt lat="37.64918" lon="128.699727">
        <ele>740.6</ele>
      </trkpt>
      <trkpt lat="37.649309" lon="128.699916">
        <ele>740.0</ele>
      </trkpt>
      <trkpt lat="37.649422" lon="128.700064">
        <ele>739.4</ele>
      </trkpt>
      <trkpt lat="37.649576" lon="128.700245">
        <ele>738.7</ele>
      </trkpt>
      <trkpt lat="37.649741" lon="128.700358">
        <ele>738.1</ele>
      </trkpt>
      <trkpt lat="37.64997" lon="128.700484">
        <ele>737.5</ele>
      </trkpt>
      <trkpt lat="37.65021" lon="128.700564">
        <ele>736.8</ele>
      </trkpt>
      <trkpt lat="37.650369" lon="128.700597">
        <ele>736.2</ele>
      </trkpt>
      <trkpt lat="37.650556" lon="128.700605">
        <ele>735.6</ele>
      </trkpt>
      <trkpt lat="37.650737" lon="128.700583">
        <ele>735.0</ele>
      </trkpt>
      <trkpt lat="37.650915" lon="128.700532">
        <ele>734.4</ele>
      </trkpt>
      <trkpt lat="37.651149" lon="128.700426">
        <ele>733.8</ele>
      </trkpt>
      <trkpt lat="37.651971" lon="128.699864">
        <ele>733.2</ele>
      </trkpt>
      <trkpt lat="37.652183" lon="128.699752">
        <ele>732.6</ele>
      </trkpt>
      <trkpt lat="37.652435" lon="128.699669">
        <ele>732.1</ele>
      </trkpt>
      <trkpt lat="37.652605" lon="128.699635">
        <ele>731.5</ele>
      </trkpt>
      <trkpt lat="37.652893" lon="128.699622">
        <ele>731.0</ele>
      </trkpt>
      <trkpt lat="37.653463" lon="128.699661">
        <ele>730.4</ele>
      </trkpt>
      <trkpt lat="37.653752" lon="128.699681">
        <ele>729.9</ele>
      </trkpt>
      <trkpt lat="37.65384" lon="128.699682">
        <ele>729.4</ele>
      </trkpt>
      <trkpt lat="37.653925" lon="128.699684">
        <ele>729.0</ele>
      </trkpt>
      <trkpt lat="37.653926830841925" lon="128.69966268539432">
        <ele>728.5</ele>
      </trkpt>
      <trkpt lat="37.653925" lon="128.699684">
        <ele>728.1</ele>
      </trkpt>
      <trkpt lat="37.654041" lon="128.699687">
        <ele>727.8</ele>
      </trkpt>
      <trkpt lat="37.654125" lon="128.699515">
        <ele>727.4</ele>
      </trkpt>
      <trkpt lat="37.6543" lon="128.699229">
        <ele>727.1</ele>
      </trkpt>
      <trkpt lat="37.654497" lon="128.698938">
        <ele>726.8</ele>
      </trkpt>
      <trkpt lat="37.654644" lon="128.698765">
        <ele>726.5</ele>
      </trkpt>
      <trkpt lat="37.654834" lon="128.698588">
        <ele>726.3</ele>
      </trkpt>
      <trkpt lat="37.655102" lon="128.698384">
        <ele>726.1</ele>
      </trkpt>
      <trkpt lat="37.65546" lon="128.698085">
        <ele>725.9</ele>
      </trkpt>
      <trkpt lat="37.655725" lon="128.697846">
        <ele>725.7</ele>
      </trkpt>
      <trkpt lat="37.656002" lon="128.697565">
        <ele>725.5</ele>
      </trkpt>
      <trkpt lat="37.656339" lon="128.697165">
        <ele>725.4</ele>
      </trkpt>
      <trkpt lat="37.656636" lon="128.696722">
        <ele>725.3</ele>
      </trkpt>
      <trkpt lat="37.656862" lon="128.696351">
        <ele>725.2</ele>
      </trkpt>
      <trkpt lat="37.65704" lon="128.696002">
        <ele>725.1</ele>
      </trkpt>
      <trkpt lat="37.657244" lon="128.69555">
        <ele>725.1</ele>
      </trkpt>
      <trkpt lat="37.657365" lon="128.695242">
        <ele>725.0</ele>
      </trkpt>
      <trkpt lat="37.65762" lon="128.69452">
        <ele>725.1</ele>
      </trkpt>
      <trkpt lat="37.657732" lon="128.694296">
        <ele>725.1</ele>
      </trkpt>
      <trkpt lat="37.657864" lon="128.694105">
        <ele>725.1</ele>
      </trkpt>
      <trkpt lat="37.658013" lon="128.69395">
        <ele>725.2</ele>
      </trkpt>
      <trkpt lat="37.65817" lon="128.693829">
        <ele>725.3</ele>
      </trkpt>
      <trkpt lat="37.65835" lon="128.693728">
        <ele>725.4</ele>
      </trkpt>
      <trkpt lat="37.658563" lon="128.693667">
        <ele>725.5</ele>
      </trkpt>
      <trkpt lat="37.658717" lon="128.693644">
        <ele>725.7</ele>
      </trkpt>
      <trkpt lat="37.658883" lon="128.693647">
        <ele>725.9</ele>
      </trkpt>
      <trkpt lat="37.659051" lon="128.693685">
        <ele>726.1</ele>
      </trkpt>
      <trkpt lat="37.659226" lon="128.693735">
        <ele>726.4</ele>
      </trkpt>
      <trkpt lat="37.659398" lon="128.693835">
        <ele>726.6</ele>
      </trkpt>
      <trkpt lat="37.659425" lon="128.693856">
        <ele>726.9</ele>
      </trkpt>
      <trkpt lat="37.6594308559248" lon="128.69384765625003">
        <ele>727.1</ele>
      </trkpt>
      <trkpt lat="37.659425" lon="128.693856">
        <ele>727.4</ele>
      </trkpt>
      <trkpt lat="37.659596" lon="128.693996">
        <ele>727.7</ele>
      </trkpt>
      <trkpt lat="37.659743" lon="128.694179">
        <ele>728.0</ele>
      </trkpt>
      <trkpt lat="37.659878" lon="128.694388">
        <ele>728.2</ele>
      </trkpt>
      <trkpt lat="37.660027" lon="128.69478">
        <ele>728.5</ele>
      </trkpt>
      <trkpt lat="37.6601" lon="128.695216">
        <ele>728.8</ele>
      </trkpt>
      <trkpt lat="37.660205" lon="128.695669">
        <ele>729.1</ele>
      </trkpt>
      <trkpt lat="37.66027" lon="128.695897">
        <ele>729.3</ele>
      </trkpt>
      <trkpt lat="37.660361" lon="128.696105">
        <ele>729.6</ele>
      </trkpt>
      <trkpt lat="37.660533" lon="128.696465">
        <ele>729.8</ele>
      </trkpt>
      <trkpt lat="37.661283" lon="128.697841">
        <ele>730.1</ele>
      </trkpt>
      <trkpt lat="37.661535" lon="128.69826">
        <ele>730.3</ele>
      </trkpt>
      <trkpt lat="37.66193" lon="128.698926">
        <ele>730.5</ele>
      </trkpt>
      <trkpt lat="37.66244" lon="128.699634">
        <ele>730.8</ele>
      </trkpt>
      <trkpt lat="37.662461" lon="128.699606">
        <ele>731.0</ele>
      </trkpt>
      <trkpt lat="37.66246299172371" lon="128.69960904121402">
        <ele>731.2</ele>
      </trkpt>
      <trkpt lat="37.662461" lon="128.699606">
        <ele>731.4</ele>
      </trkpt>
      <trkpt lat="37.66244" lon="128.699634">
        <ele>731.5</ele>
      </trkpt>
      <trkpt lat="37.662534" lon="128.699763">
        <ele>731.7</ele>
      </trkpt>
      <trkpt lat="37.663167" lon="128.700441">
        <ele>731.9</ele>
      </trkpt>
      <trkpt lat="37.663795" lon="128.701084">
        <ele>732.0</ele>
      </trkpt>
      <trkpt lat="37.664301" lon="128.701591">
        <ele>732.2</ele>
      </trkpt>
      <trkpt lat="37.664482" lon="128.70185">
        <ele>732.3</ele>
      </trkpt>
      <trkpt lat="37.664603" lon="128.702101">
        <ele>732.4</ele>
      </trkpt>
      <trkpt lat="37.664675" lon="128.702353">
        <ele>732.5</ele>
      </trkpt>
      <trkpt lat="37.664715" lon="128.70262">
        <ele>732.5</ele>
      </trkpt>
      <trkpt lat="37.664724" lon="128.70287">
        <ele>732.6</ele>
      </trkpt>
      <trkpt lat="37.664751" lon="128.703635">
        <ele>732.6</ele>
      </trkpt>
      <trkpt lat="37.664761" lon="128.704114">
        <ele>732.6</ele>
      </trkpt>
      <trkpt lat="37.664794" lon="128.704457">
        <ele>732.7</ele>
      </trkpt>
      <trkpt lat="37.664889" lon="128.704976">
        <ele>732.7</ele>
      </trkpt>
      <trkpt lat="37.664947" lon="128.705185">
        <ele>732.7</ele>
      </trkpt>
      <trkpt lat="37.665025" lon="128.705501">
        <ele>732.7</ele>
      </trkpt>
      <trkpt lat="37.665053" lon="128.705714">
        <ele>732.7</ele>
      </trkpt>
      <trkpt lat="37.66506" lon="128.705922">
        <ele>732.7</ele>
      </trkpt>
      <trkpt lat="37.665054" lon="128.706016">
        <ele>732.7</ele>
      </trkpt>
      <trkpt lat="37.6650278950588" lon="128.70601415634158">
        <ele>732.7</ele>
      </trkpt>
      <trkpt lat="37.665054" lon="128.706016">
        <ele>732.7</ele>
      </trkpt>
      <trkpt lat="37.665046" lon="128.706168">
        <ele>732.7</ele>
      </trkpt>
      <trkpt lat="37.664977" lon="128.70662">
        <ele>732.7</ele>
      </trkpt>
      <trkpt lat="37.664966" lon="128.706805">
        <ele>732.7</ele>
      </trkpt>
      <trkpt lat="37.664974" lon="128.706938">
        <ele>732.8</ele>
      </trkpt>
      <trkpt lat="37.664983" lon="128.707079">
        <ele>732.8</ele>
      </trkpt>
      <trkpt lat="37.665058" lon="128.707404">
        <ele>732.8</ele>
      </trkpt>
      <trkpt lat="37.665391" lon="128.708193">
        <ele>732.9</ele>
      </trkpt>
      <trkpt lat="37.665764" lon="128.709079">
        <ele>732.9</ele>
      </trkpt>
      <trkpt lat="37.665866" lon="128.709372">
        <ele>733.0</ele>
      </trkpt>
      <trkpt lat="37.665972" lon="128.709556">
        <ele>733.1</ele>
      </trkpt>
      <trkpt lat="37.66598758775987" lon="128.70954394340518">
        <ele>733.2</ele>
      </trkpt>
      <trkpt lat="37.665972" lon="128.709556">
        <ele>733.3</ele>
      </trkpt>
      <trkpt lat="37.666" lon="128.709605">
        <ele>733.4</ele>
      </trkpt>
      <trkpt lat="37.666169" lon="128.709668">
        <ele>733.5</ele>
      </trkpt>
      <trkpt lat="37.666692" lon="128.709774">
        <ele>733.6</ele>
      </trkpt>
      <trkpt lat="37.667029" lon="128.70986">
        <ele>733.8</ele>
      </trkpt>
      <trkpt lat="37.667279" lon="128.709924">
        <ele>734.0</ele>
      </trkpt>
      <trkpt lat="37.667543" lon="128.710077">
        <ele>734.2</ele>
      </trkpt>
      <trkpt lat="37.667837" lon="128.710219">
        <ele>734.4</ele>
      </trkpt>
      <trkpt lat="37.668003" lon="128.710271">
        <ele>734.6</ele>
      </trkpt>
      <trkpt lat="37.668207" lon="128.710309">
        <ele>734.9</ele>
      </trkpt>
      <trkpt lat="37.668307" lon="128.710307">
        <ele>735.2</ele>
      </trkpt>
      <trkpt lat="37.668364" lon="128.711323">
        <ele>735.4</ele>
      </trkpt>
      <trkpt lat="37.66837" lon="128.711398">
        <ele>735.7</ele>
      </trkpt>
      <trkpt lat="37.66836553390625" lon="128.71140003204349">
        <ele>736.0</ele>
      </trkpt>
      <trkpt lat="37.66837" lon="128.711398">
        <ele>736.4</ele>
      </trkpt>
      <trkpt lat="37.668391" lon="128.711619">
        <ele>736.7</ele>
      </trkpt>
      <trkpt lat="37.668459" lon="128.711983">
        <ele>737.0</ele>
      </trkpt>
      <trkpt lat="37.668539" lon="128.712216">
        <ele>737.4</ele>
      </trkpt>
      <trkpt lat="37.668612" lon="128.712406">
        <ele>737.7</ele>
      </trkpt>
      <trkpt lat="37.668952" lon="128.713049">
        <ele>738.1</ele>
      </trkpt>
      <trkpt lat="37.670139" lon="128.715223">
        <ele>738.5</ele>
      </trkpt>
      <trkpt lat="37.670394" lon="128.715677">
        <ele>738.9</ele>
      </trkpt>
      <trkpt lat="37.670603" lon="128.716053">
        <ele>739.3</ele>
      </trkpt>
      <trkpt lat="37.670859" lon="128.716539">
        <ele>739.7</ele>
      </trkpt>
      <trkpt lat="37.67107" lon="128.717021">
        <ele>740.1</ele>
      </trkpt>
      <trkpt lat="37.671245" lon="128.717442">
        <ele>740.5</ele>
      </trkpt>
      <trkpt lat="37.671391" lon="128.717989">
        <ele>741.0</ele>
      </trkpt>
      <trkpt lat="37.67139730474579" lon="128.71798753738406">
        <ele>741.4</ele>
      </trkpt>
      <trkpt lat="37.671391" lon="128.717989">
        <ele>741.9</ele>
      </trkpt>
      <trkpt lat="37.671731" lon="128.719261">
        <ele>742.4</ele>
      </trkpt>
      <trkpt lat="37.671831" lon="128.719641">
        <ele>742.8</ele>
      </trkpt>
      <trkpt lat="37.672157" lon="128.720922">
        <ele>743.3</ele>
      </trkpt>
      <trkpt lat="37.672352" lon="128.721683">
        <ele>743.8</ele>
      </trkpt>
      <trkpt lat="37.672528" lon="128.7224">
        <ele>744.3</ele>
      </trkpt>
      <trkpt lat="37.672706" lon="128.723054">
        <ele>744.7</ele>
      </trkpt>
      <trkpt lat="37.672815" lon="128.723332">
        <ele>745.2</ele>
      </trkpt>
      <trkpt lat="37.672928" lon="128.723566">
        <ele>745.7</ele>
      </trkpt>
      <trkpt lat="37.673042" lon="128.723692">
        <ele>746.1</ele>
      </trkpt>
      <trkpt lat="37.673125" lon="128.723812">
        <ele>746.6</ele>
      </trkpt>
      <trkpt lat="37.673186" lon="128.72391">
        <ele>747.0</ele>
      </trkpt>
      <trkpt lat="37.673221" lon="128.724027">
        <ele>747.5</ele>
      </trkpt>
      <trkpt lat="37.67322" lon="128.724055">
        <ele>747.9</ele>
      </trkpt>
      <trkpt lat="37.67323" lon="128.724109">
        <ele>748.3</ele>
      </trkpt>
      <trkpt lat="37.673254" lon="128.724156">
        <ele>748.8</ele>
      </trkpt>
      <trkpt lat="37.673288" lon="128.724191">
        <ele>749.2</ele>
      </trkpt>
      <trkpt lat="37.673321" lon="128.724206">
        <ele>749.6</ele>
      </trkpt>
      <trkpt lat="37.673462" lon="128.724385">
        <ele>750.0</ele>
      </trkpt>
      <trkpt lat="37.673502" lon="128.724469">
        <ele>750.4</ele>
      </trkpt>
      <trkpt lat="37.67352031983263" lon="128.72445702552798">
        <ele>750.8</ele>
      </trkpt>
      <trkpt lat="37.673502" lon="128.724469">
        <ele>751.2</ele>
      </trkpt>
      <trkpt lat="37.673585" lon="128.724641">
        <ele>751.6</ele>
      </trkpt>
      <trkpt lat="37.673831" lon="128.725193">
        <ele>752.0</ele>
      </trkpt>
      <trkpt lat="37.673926" lon="128.72542">
        <ele>752.4</ele>
      </trkpt>
      <trkpt lat="37.674043" lon="128.725611">
        <ele>752.8</ele>
      </trkpt>
      <trkpt lat="37.674784" lon="128.726596">
        <ele>753.1</ele>
      </trkpt>
      <trkpt lat="37.674827" lon="128.726647">
        <ele>753.5</ele>
      </trkpt>
      <trkpt lat="37.67494" lon="128.726815">
        <ele>753.8</ele>
      </trkpt>
      <trkpt lat="37.675042" lon="128.727008">
        <ele>754.1</ele>
      </trkpt>
      <trkpt lat="37.67513" lon="128.727227">
        <ele>754.4</ele>
      </trkpt>
      <trkpt lat="37.675201" lon="128.727482">
        <ele>754.7</ele>
      </trkpt>
      <trkpt lat="37.675238" lon="128.727765">
        <ele>755.0</ele>
      </trkpt>
      <trkpt lat="37.675283" lon="128.72891">
        <ele>755.4</ele>
      </trkpt>
      <trkpt lat="37.675314" lon="128.729212">
        <ele>755.7</ele>
      </trkpt>
      <trkpt lat="37.675371" lon="128.72953">
        <ele>756.0</ele>
      </trkpt>
      <trkpt lat="37.67544" lon="128.729803">
        <ele>756.4</ele>
      </trkpt>
      <trkpt lat="37.675521" lon="128.730055">
        <ele>756.7</ele>
      </trkpt>
      <trkpt lat="37.675655" lon="128.730437">
        <ele>757.0</ele>
      </trkpt>
      <trkpt lat="37.675933" lon="128.731157">
        <ele>757.4</ele>
      </trkpt>
      <trkpt lat="37.676047" lon="128.731417">
        <ele>757.7</ele>
      </trkpt>
      <trkpt lat="37.676186" lon="128.731692">
        <ele>758.1</ele>
      </trkpt>
      <trkpt lat="37.676351" lon="128.731986">
        <ele>758.5</ele>
      </trkpt>
      <trkpt lat="37.676427" lon="128.732101">
        <ele>758.9</ele>
      </trkpt>
      <trkpt lat="37.67638204804573" lon="128.7321496009827">
        <ele>759.3</ele>
      </trkpt>
      <trkpt lat="37.676427" lon="128.732101">
        <ele>759.7</ele>
      </trkpt>
      <trkpt lat="37.676504" lon="128.732218">
        <ele>760.1</ele>
      </trkpt>
      <trkpt lat="37.676607" lon="128.732344">
        <ele>760.5</ele>
      </trkpt>
      <trkpt lat="37.676859" lon="128.73259">
        <ele>761.0</ele>
      </trkpt>
      <trkpt lat="37.677001" lon="128.732754">
        <ele>761.5</ele>
      </trkpt>
      <trkpt lat="37.677088" lon="128.732887">
        <ele>762.0</ele>
      </trkpt>
      <trkpt lat="37.677136" lon="128.732989">
        <ele>762.5</ele>
      </trkpt>
      <trkpt lat="37.677296" lon="128.733612">
        <ele>763.1</ele>
      </trkpt>
      <trkpt lat="37.677332" lon="128.733733">
        <ele>763.7</ele>
      </trkpt>
      <trkpt lat="37.677399" lon="128.733883">
        <ele>764.3</ele>
      </trkpt>
      <trkpt lat="37.677468" lon="128.734004">
        <ele>764.9</ele>
      </trkpt>
      <trkpt lat="37.678165" lon="128.734905">
        <ele>765.6</ele>
      </trkpt>
      <trkpt lat="37.6783" lon="128.735063">
        <ele>766.3</ele>
      </trkpt>
      <trkpt lat="37.67882" lon="128.735533">
        <ele>767.1</ele>
      </trkpt>
      <trkpt lat="37.679487" lon="128.736137">
        <ele>767.9</ele>
      </trkpt>
      <trkpt lat="37.679577" lon="128.736207">
        <ele>768.7</ele>
      </trkpt>
      <trkpt lat="37.680519" lon="128.736754">
        <ele>769.6</ele>
      </trkpt>
      <trkpt lat="37.681741" lon="128.737291">
        <ele>770.5</ele>
      </trkpt>
      <trkpt lat="37.682201" lon="128.737575">
        <ele>771.4</ele>
      </trkpt>
      <trkpt lat="37.682226" lon="128.737606">
        <ele>772.4</ele>
      </trkpt>
      <trkpt lat="37.68221555569914" lon="128.73762130737308">
        <ele>773.3</ele>
      </trkpt>
      <trkpt lat="37.682226" lon="128.737606">
        <ele>774.4</ele>
      </trkpt>
      <trkpt lat="37.682867" lon="128.738417">
        <ele>775.4</ele>
      </trkpt>
      <trkpt lat="37.683599" lon="128.739147">
        <ele>776.4</ele>
      </trkpt>
      <trkpt lat="37.683984" lon="128.739531">
        <ele>777.5</ele>
      </trkpt>
      <trkpt lat="37.684434" lon="128.740258">
        <ele>778.6</ele>
      </trkpt>
      <trkpt lat="37.685014" lon="128.741195">
        <ele>779.7</ele>
      </trkpt>
      <trkpt lat="37.685082" lon="128.741427">
        <ele>780.8</ele>
      </trkpt>
      <trkpt lat="37.685059967291636" lon="128.74143004417422">
        <ele>781.9</ele>
      </trkpt>
      <trkpt lat="37.68508" lon="128.741435">
        <ele>783.0</ele>
      </trkpt>
      <trkpt lat="37.684741" lon="128.743624">
        <ele>784.2</ele>
      </trkpt>
      <trkpt lat="37.684695" lon="128.744338">
        <ele>785.3</ele>
      </trkpt>
      <trkpt lat="37.684652" lon="128.744643">
        <ele>786.4</ele>
      </trkpt>
      <trkpt lat="37.684617" lon="128.744821">
        <ele>787.5</ele>
      </trkpt>
      <trkpt lat="37.68403" lon="128.745854">
        <ele>788.5</ele>
      </trkpt>
      <trkpt lat="37.683886" lon="128.746108">
        <ele>789.5</ele>
      </trkpt>
      <trkpt lat="37.683448" lon="128.748072">
        <ele>790.5</ele>
      </trkpt>
      <trkpt lat="37.683092" lon="128.748975">
        <ele>791.4</ele>
      </trkpt>
      <trkpt lat="37.683004" lon="128.749168">
        <ele>792.3</ele>
      </trkpt>
      <trkpt lat="37.682971245836484" lon="128.74914407730105">
        <ele>793.1</ele>
      </trkpt>
      <trkpt lat="37.683004" lon="128.749168">
        <ele>793.9</ele>
      </trkpt>
      <trkpt lat="37.682678" lon="128.749888">
        <ele>794.6</ele>
      </trkpt>
      <trkpt lat="37.68258" lon="128.750556">
        <ele>795.3</ele>
      </trkpt>
      <trkpt lat="37.68254" lon="128.751357">
        <ele>795.9</ele>
      </trkpt>
      <trkpt lat="37.682697" lon="128.752116">
        <ele>796.4</ele>
      </trkpt>
      <trkpt lat="37.682932" lon="128.75271">
        <ele>796.8</ele>
      </trkpt>
      <trkpt lat="37.68356" lon="128.753222">
        <ele>797.1</ele>
      </trkpt>
      <trkpt lat="37.684239" lon="128.75425">
        <ele>797.4</ele>
      </trkpt>
      <trkpt lat="37.684182" lon="128.754222">
        <ele>797.5</ele>
      </trkpt>
      <trkpt lat="37.68418542847428" lon="128.75421881675723">
        <ele>797.5</ele>
      </trkpt>
      <trkpt lat="37.684182" lon="128.754222">
        <ele>797.5</ele>
      </trkpt>
      <trkpt lat="37.683777" lon="128.754021">
        <ele>797.3</ele>
      </trkpt>
      <trkpt lat="37.683219" lon="128.753423">
        <ele>797.0</ele>
      </trkpt>
      <trkpt lat="37.682294" lon="128.751972">
        <ele>796.7</ele>
      </trkpt>
      <trkpt lat="37.682291974152804" lon="128.75197649002078">
        <ele>796.2</ele>
      </trkpt>
      <trkpt lat="37.682294" lon="128.751972">
        <ele>795.7</ele>
      </trkpt>
      <trkpt lat="37.682174" lon="128.751783">
        <ele>795.2</ele>
      </trkpt>
      <trkpt lat="37.681483" lon="128.750672">
        <ele>794.5</ele>
      </trkpt>
      <trkpt lat="37.681192" lon="128.750191">
        <ele>793.9</ele>
      </trkpt>
      <trkpt lat="37.680896" lon="128.749601">
        <ele>793.1</ele>
      </trkpt>
      <trkpt lat="37.680601" lon="128.748937">
        <ele>792.4</ele>
      </trkpt>
      <trkpt lat="37.679886" lon="128.747223">
        <ele>791.5</ele>
      </trkpt>
      <trkpt lat="37.679734" lon="128.746855">
        <ele>790.6</ele>
      </trkpt>
      <trkpt lat="37.678885" lon="128.744787">
        <ele>789.7</ele>
      </trkpt>
      <trkpt lat="37.678689" lon="128.744247">
        <ele>788.7</ele>
      </trkpt>
      <trkpt lat="37.678587" lon="128.743944">
        <ele>787.8</ele>
      </trkpt>
      <trkpt lat="37.678504" lon="128.743646">
        <ele>786.8</ele>
      </trkpt>
      <trkpt lat="37.678416" lon="128.74329">
        <ele>785.7</ele>
      </trkpt>
      <trkpt lat="37.678354" lon="128.742961">
        <ele>784.7</ele>
      </trkpt>
      <trkpt lat="37.678295" lon="128.742604">
        <ele>783.7</ele>
      </trkpt>
      <trkpt lat="37.678253" lon="128.742215">
        <ele>782.6</ele>
      </trkpt>
      <trkpt lat="37.678224" lon="128.741692">
        <ele>781.6</ele>
      </trkpt>
      <trkpt lat="37.67821" lon="128.74121">
        <ele>780.6</ele>
      </trkpt>
      <trkpt lat="37.678245" lon="128.740207">
        <ele>779.6</ele>
      </trkpt>
      <trkpt lat="37.67823319622784" lon="128.74020695686343">
        <ele>778.7</ele>
      </trkpt>
      <trkpt lat="37.678245" lon="128.740207">
        <ele>777.7</ele>
      </trkpt>
      <trkpt lat="37.67825" lon="128.74007">
        <ele>776.8</ele>
      </trkpt>
      <trkpt lat="37.678357" lon="128.738888">
        <ele>776.0</ele>
      </trkpt>
      <trkpt lat="37.678622" lon="128.735513">
        <ele>775.1</ele>
      </trkpt>
      <trkpt lat="37.678644" lon="128.735252">
        <ele>774.4</ele>
      </trkpt>
      <trkpt lat="37.678692" lon="128.734748">
        <ele>773.7</ele>
      </trkpt>
      <trkpt lat="37.678733" lon="128.734308">
        <ele>773.0</ele>
      </trkpt>
      <trkpt lat="37.678816" lon="128.733419">
        <ele>772.5</ele>
      </trkpt>
      <trkpt lat="37.67884" lon="128.733162">
        <ele>772.0</ele>
      </trkpt>
      <trkpt lat="37.678856" lon="128.732907">
        <ele>771.6</ele>
      </trkpt>
      <trkpt lat="37.678976" lon="128.731479">
        <ele>771.2</ele>
      </trkpt>
      <trkpt lat="37.67893797903775" lon="128.73147368431094">
        <ele>770.8</ele>
      </trkpt>
      <trkpt lat="37.678976" lon="128.731479">
        <ele>770.4</ele>
      </trkpt>
      <trkpt lat="37.679108" lon="128.729927">
        <ele>770.0</ele>
      </trkpt>
      <trkpt lat="37.67919" lon="128.72888">
        <ele>769.7</ele>
      </trkpt>
      <trkpt lat="37.67924" lon="128.72816">
        <ele>769.3</ele>
      </trkpt>
      <trkpt lat="37.67924" lon="128.72706">
        <ele>769.0</ele>
      </trkpt>
      <trkpt lat="37.67919" lon="128.72601">
        <ele>768.6</ele>
      </trkpt>
      <trkpt lat="37.679014" lon="128.724731">
        <ele>768.4</ele>
      </trkpt>
      <trkpt lat="37.678998" lon="128.724599">
        <ele>768.1</ele>
      </trkpt>
      <trkpt lat="37.67883" lon="128.72355">
        <ele>767.8</ele>
      </trkpt>
      <trkpt lat="37.67869" lon="128.722743">
        <ele>767.6</ele>
      </trkpt>
      <trkpt lat="37.678512" lon="128.721772">
        <ele>767.4</ele>
      </trkpt>
      <trkpt lat="37.678405" lon="128.721071">
        <ele>767.1</ele>
      </trkpt>
      <trkpt lat="37.67838604126121" lon="128.72107744216922">
        <ele>766.9</ele>
      </trkpt>
      <trkpt lat="37.678405" lon="128.721071">
        <ele>766.7</ele>
      </trkpt>
      <trkpt lat="37.678369" lon="128.720833">
        <ele>766.5</ele>
      </trkpt>
      <trkpt lat="37.678382" lon="128.720648">
        <ele>766.3</ele>
      </trkpt>
      <trkpt lat="37.678409" lon="128.720618">
        <ele>766.1</ele>
      </trkpt>
      <trkpt lat="37.678426" lon="128.720577">
        <ele>765.9</ele>
      </trkpt>
      <trkpt lat="37.678431" lon="128.720531">
        <ele>765.7</ele>
      </trkpt>
      <trkpt lat="37.678425" lon="128.720486">
        <ele>765.4</ele>
      </trkpt>
      <trkpt lat="37.678391" lon="128.72043">
        <ele>765.2</ele>
      </trkpt>
      <trkpt lat="37.678351" lon="128.720403">
        <ele>765.0</ele>
      </trkpt>
      <trkpt lat="37.678328" lon="128.7204">
        <ele>764.7</ele>
      </trkpt>
      <trkpt lat="37.678256" lon="128.720274">
        <ele>764.5</ele>
      </trkpt>
      <trkpt lat="37.678139" lon="128.719772">
        <ele>764.2</ele>
      </trkpt>
      <trkpt lat="37.678116" lon="128.719698">
        <ele>763.9</ele>
      </trkpt>
      <trkpt lat="37.677983" lon="128.719257">
        <ele>763.6</ele>
      </trkpt>
      <trkpt lat="37.67706" lon="128.71672">
        <ele>763.3</ele>
      </trkpt>
      <trkpt lat="37.6769" lon="128.71626">
        <ele>763.0</ele>
      </trkpt>
      <trkpt lat="37.67678" lon="128.7159">
        <ele>762.6</ele>
      </trkpt>
      <trkpt lat="37.676661" lon="128.715446">
        <ele>762.3</ele>
      </trkpt>
      <trkpt lat="37.67661" lon="128.71497">
        <ele>762.0</ele>
      </trkpt>
      <trkpt lat="37.676593" lon="128.714477">
        <ele>761.8</ele>
      </trkpt>
      <trkpt lat="37.67661" lon="128.71397">
        <ele>761.5</ele>
      </trkpt>
      <trkpt lat="37.67668" lon="128.71342">
        <ele>761.3</ele>
      </trkpt>
      <trkpt lat="37.67677" lon="128.71304">
        <ele>761.1</ele>
      </trkpt>
      <trkpt lat="37.67679" lon="128.71296">
        <ele>761.0</ele>
      </trkpt>
      <trkpt lat="37.676781152706056" lon="128.71295571327212">
        <ele>760.8</ele>
      </trkpt>
      <trkpt lat="37.67679" lon="128.71296">
        <ele>760.6</ele>
      </trkpt>
      <trkpt lat="37.676849" lon="128.712738">
        <ele>760.5</ele>
      </trkpt>
      <trkpt lat="37.676952" lon="128.712456">
        <ele>760.4</ele>
      </trkpt>
      <trkpt lat="37.67708" lon="128.71216">
        <ele>760.3</ele>
      </trkpt>
      <trkpt lat="37.677218" lon="128.711861">
        <ele>760.1</ele>
      </trkpt>
      <trkpt lat="37.677419" lon="128.711482">
        <ele>760.0</ele>
      </trkpt>
      <trkpt lat="37.677693" lon="128.711001">
        <ele>759.9</ele>
      </trkpt>
      <trkpt lat="37.678095" lon="128.71034">
        <ele>759.8</ele>
      </trkpt>
      <trkpt lat="37.678416" lon="128.709752">
        <ele>759.7</ele>
      </trkpt>
      <trkpt lat="37.678637" lon="128.709291">
        <ele>759.6</ele>
      </trkpt>
      <trkpt lat="37.678904" lon="128.708608">
        <ele>759.5</ele>
      </trkpt>
      <trkpt lat="37.679035" lon="128.708179">
        <ele>759.4</ele>
      </trkpt>
      <trkpt lat="37.679084" lon="128.70787">
        <ele>759.3</ele>
      </trkpt>
      <trkpt lat="37.679141" lon="128.707383">
        <ele>759.2</ele>
      </trkpt>
      <trkpt lat="37.679156" lon="128.706837">
        <ele>759.1</ele>
      </trkpt>
      <trkpt lat="37.679055" lon="128.704454">
        <ele>759.0</ele>
      </trkpt>
      <trkpt lat="37.67902289217739" lon="128.70445847511294">
        <ele>758.8</ele>
      </trkpt>
      <trkpt lat="37.679055" lon="128.704454">
        <ele>758.7</ele>
      </trkpt>
      <trkpt lat="37.679022" lon="128.703671">
        <ele>758.5</ele>
      </trkpt>
      <trkpt lat="37.678994" lon="128.703392">
        <ele>758.3</ele>
      </trkpt>
      <trkpt lat="37.678929" lon="128.703192">
        <ele>758.1</ele>
      </trkpt>
      <trkpt lat="37.678851" lon="128.703077">
        <ele>758.0</ele>
      </trkpt>
      <trkpt lat="37.678752" lon="128.702963">
        <ele>757.8</ele>
      </trkpt>
      <trkpt lat="37.678637" lon="128.70285">
        <ele>757.5</ele>
      </trkpt>
      <trkpt lat="37.678479" lon="128.702659">
        <ele>757.3</ele>
      </trkpt>
      <trkpt lat="37.67845" lon="128.702598">
        <ele>757.0</ele>
      </trkpt>
      <trkpt lat="37.678436" lon="128.702523">
        <ele>756.8</ele>
      </trkpt>
      <trkpt lat="37.678439" lon="128.702426">
        <ele>756.5</ele>
      </trkpt>
      <trkpt lat="37.67846" lon="128.70232">
        <ele>756.2</ele>
      </trkpt>
      <trkpt lat="37.678653" lon="128.701895">
        <ele>755.8</ele>
      </trkpt>
      <trkpt lat="37.678677" lon="128.701778">
        <ele>755.5</ele>
      </trkpt>
      <trkpt lat="37.678691" lon="128.701666">
        <ele>755.1</ele>
      </trkpt>
      <trkpt lat="37.678708" lon="128.701283">
        <ele>754.8</ele>
      </trkpt>
      <trkpt lat="37.678718" lon="128.700924">
        <ele>754.4</ele>
      </trkpt>
      <trkpt lat="37.678737" lon="128.700835">
        <ele>754.0</ele>
      </trkpt>
      <trkpt lat="37.678735" lon="128.700617">
        <ele>753.6</ele>
      </trkpt>
      <trkpt lat="37.678725" lon="128.700475">
        <ele>753.2</ele>
      </trkpt>
      <trkpt lat="37.678736" lon="128.700444">
        <ele>752.8</ele>
      </trkpt>
      <trkpt lat="37.678743" lon="128.700378">
        <ele>752.4</ele>
      </trkpt>
      <trkpt lat="37.678741" lon="128.700369">
        <ele>752.0</ele>
      </trkpt>
      <trkpt lat="37.67873418710611" lon="128.70037078857425">
        <ele>751.7</ele>
      </trkpt>
      <trkpt lat="37.678741" lon="128.700369">
        <ele>751.3</ele>
      </trkpt>
      <trkpt lat="37.678739" lon="128.700344">
        <ele>751.0</ele>
      </trkpt>
      <trkpt lat="37.678719" lon="128.700282">
        <ele>750.6</ele>
      </trkpt>
      <trkpt lat="37.678703" lon="128.700255">
        <ele>750.3</ele>
      </trkpt>
      <trkpt lat="37.678661" lon="128.700214">
        <ele>750.0</ele>
      </trkpt>
      <trkpt lat="37.67861" lon="128.700194">
        <ele>749.7</ele>
      </trkpt>
      <trkpt lat="37.678557" lon="128.700196">
        <ele>749.4</ele>
      </trkpt>
      <trkpt lat="37.678508" lon="128.700222">
        <ele>749.1</ele>
      </trkpt>
      <trkpt lat="37.678469" lon="128.700267">
        <ele>748.9</ele>
      </trkpt>
      <trkpt lat="37.678178" lon="128.700299">
        <ele>748.6</ele>
      </trkpt>
      <trkpt lat="37.678112" lon="128.700333">
        <ele>748.4</ele>
      </trkpt>
      <trkpt lat="37.677862" lon="128.700342">
        <ele>748.2</ele>
      </trkpt>
      <trkpt lat="37.675593" lon="128.700425">
        <ele>748.0</ele>
      </trkpt>
      <trkpt lat="37.675104" lon="128.700443">
        <ele>747.8</ele>
      </trkpt>
      <trkpt lat="37.674996" lon="128.700454">
        <ele>747.6</ele>
      </trkpt>
      <trkpt lat="37.674864" lon="128.700467">
        <ele>747.4</ele>
      </trkpt>
      <trkpt lat="37.674464" lon="128.700565">
        <ele>747.2</ele>
      </trkpt>
      <trkpt lat="37.674252" lon="128.700651">
        <ele>747.0</ele>
      </trkpt>
      <trkpt lat="37.674109" lon="128.700675">
        <ele>746.9</ele>
      </trkpt>
      <trkpt lat="37.673677" lon="128.70087">
        <ele>746.7</ele>
      </trkpt>
      <trkpt lat="37.673516" lon="128.700935">
        <ele>746.5</ele>
      </trkpt>
      <trkpt lat="37.673493" lon="128.700914">
        <ele>746.4</ele>
      </trkpt>
      <trkpt lat="37.673453" lon="128.700891">
        <ele>746.2</ele>
      </trkpt>
      <trkpt lat="37.67341" lon="128.700882">
        <ele>746.1</ele>
      </trkpt>
      <trkpt lat="37.673375" lon="128.700886">
        <ele>745.9</ele>
      </trkpt>
      <trkpt lat="37.673341" lon="128.700899">
        <ele>745.8</ele>
      </trkpt>
      <trkpt lat="37.67331" lon="128.70092">
        <ele>745.6</ele>
      </trkpt>
      <trkpt lat="37.673284" lon="128.700949">
        <ele>745.5</ele>
      </trkpt>
      <trkpt lat="37.673262" lon="128.700985">
        <ele>745.3</ele>
      </trkpt>
      <trkpt lat="37.673248" lon="128.701025">
        <ele>745.1</ele>
      </trkpt>
      <trkpt lat="37.67324" lon="128.701068">
        <ele>744.9</ele>
      </trkpt>
      <trkpt lat="37.67324" lon="128.701113">
        <ele>744.8</ele>
      </trkpt>
      <trkpt lat="37.673187" lon="128.701179">
        <ele>744.6</ele>
      </trkpt>
      <trkpt lat="37.673102" lon="128.701268">
        <ele>744.4</ele>
      </trkpt>
      <trkpt lat="37.672956" lon="128.701393">
        <ele>744.2</ele>
      </trkpt>
      <trkpt lat="37.672787" lon="128.701529">
        <ele>744.0</ele>
      </trkpt>
      <trkpt lat="37.672726" lon="128.701568">
        <ele>743.8</ele>
      </trkpt>
      <trkpt lat="37.672622" lon="128.701617">
        <ele>743.6</ele>
      </trkpt>
      <trkpt lat="37.672587" lon="128.701599">
        <ele>743.4</ele>
      </trkpt>
      <trkpt lat="37.672549" lon="128.70159">
        <ele>743.2</ele>
      </trkpt>
      <trkpt lat="37.672511" lon="128.701592">
        <ele>743.0</ele>
      </trkpt>
      <trkpt lat="37.672474" lon="128.701604">
        <ele>742.8</ele>
      </trkpt>
      <trkpt lat="37.67244" lon="128.701626">
        <ele>742.6</ele>
      </trkpt>
      <trkpt lat="37.67241" lon="128.701657">
        <ele>742.3</ele>
      </trkpt>
      <trkpt lat="37.672386" lon="128.701695">
        <ele>742.1</ele>
      </trkpt>
      <trkpt lat="37.67237" lon="128.701738">
        <ele>741.8</ele>
      </trkpt>
      <trkpt lat="37.672361" lon="128.701806">
        <ele>741.6</ele>
      </trkpt>
      <trkpt lat="37.672368" lon="128.701882">
        <ele>741.3</ele>
      </trkpt>
      <trkpt lat="37.672383" lon="128.701926">
        <ele>741.1</ele>
      </trkpt>
      <trkpt lat="37.672309" lon="128.702049">
        <ele>740.9</ele>
      </trkpt>
      <trkpt lat="37.672086" lon="128.702326">
        <ele>740.6</ele>
      </trkpt>
      <trkpt lat="37.672059" lon="128.702394">
        <ele>740.4</ele>
      </trkpt>
      <trkpt lat="37.671778" lon="128.702713">
        <ele>740.1</ele>
      </trkpt>
      <trkpt lat="37.671735" lon="128.702761">
        <ele>739.9</ele>
      </trkpt>
      <trkpt lat="37.67173699124136" lon="128.70276331901553">
        <ele>739.7</ele>
      </trkpt>
      <trkpt lat="37.671735" lon="128.702761">
        <ele>739.5</ele>
      </trkpt>
      <trkpt lat="37.670951" lon="128.703651">
        <ele>739.3</ele>
      </trkpt>
      <trkpt lat="37.670244" lon="128.704427">
        <ele>739.1</ele>
      </trkpt>
      <trkpt lat="37.66916" lon="128.705652">
        <ele>738.9</ele>
      </trkpt>
      <trkpt lat="37.668793" lon="128.706263">
        <ele>738.7</ele>
      </trkpt>
      <trkpt lat="37.668612" lon="128.706649">
        <ele>738.5</ele>
      </trkpt>
      <trkpt lat="37.668489" lon="128.707">
        <ele>738.3</ele>
      </trkpt>
      <trkpt lat="37.668413" lon="128.707265">
        <ele>738.2</ele>
      </trkpt>
      <trkpt lat="37.66839950401352" lon="128.7072587013245">
        <ele>738.1</ele>
      </trkpt>
      <trkpt lat="37.668413" lon="128.707265">
        <ele>738.0</ele>
      </trkpt>
      <trkpt lat="37.668395" lon="128.707332">
        <ele>737.8</ele>
      </trkpt>
      <trkpt lat="37.667601" lon="128.707334">
        <ele>737.7</ele>
      </trkpt>
      <trkpt lat="37.667427" lon="128.707346">
        <ele>737.6</ele>
      </trkpt>
      <trkpt lat="37.667116" lon="128.707323">
        <ele>737.5</ele>
      </trkpt>
      <trkpt lat="37.667068" lon="128.707288">
        <ele>737.3</ele>
      </trkpt>
      <trkpt lat="37.666352" lon="128.706627">
        <ele>737.2</ele>
      </trkpt>
      <trkpt lat="37.666145" lon="128.706443">
        <ele>737.1</ele>
      </trkpt>
      <trkpt lat="37.66614045801789" lon="128.70645403862002">
        <ele>737.0</ele>
      </trkpt>
      <trkpt lat="37.66578376025945" lon="128.70732843875888">
        <ele>736.9</ele>
      </trkpt>
      <trkpt lat="37.66631880625427" lon="128.7077844142914">
        <ele>736.8</ele>
      </trkpt>
      <trkpt lat="37.66653112502455" lon="128.7073123455048">
        <ele>736.7</ele>
      </trkpt>
      <trkpt lat="37.66633154539762" lon="128.70707094669345">
        <ele>736.6</ele>
      </trkpt>
    </trkseg>
  </trk>
</gpx>