<?xml version="1.0" encoding="UTF-8"?>
 <gpx creator="Garmin Connect" version="1.1"
	 xsi:schemaLocation="http://www.topografix.com/GPX/1/1 http://www.topografix.com/GPX/11.xsd"
	 xmlns:ns3="http://www.garmin.com/xmlschemas/TrackPointExtension/v1"
	 xmlns="http://www.topografix.com/GPX/1/1"
	 xmlns:xsi="http://www.w3.org/2001/XMLSchema-instance" xmlns:ns2="http://www.garmin.com/xmlschemas/GpxExtensions/v3">
	 <metadata>
		<name>TCS London Marathon 2026 - 42.195 km</name>
		 <link href="https://www.goandrace.com">
		 <text>Garmin Connect</text>
		 </link>
	 <time>2026-05-08T00:01:11</time>
	 </metadata>
	 <trk>
		 <name>TCS London Marathon 2026 - 42.195 km</name>
		 <trkseg>
			 <trkpt lat="51.47309" lon="0.01158">
				 <ele>42.2</ele>
			 </trkpt>
			 <trkpt lat="51.47325" lon="0.012842">
				 <ele>42.4</ele>
			 </trkpt>
			 <trkpt lat="51.47341" lon="0.014105">
				 <ele>42.8</ele>
			 </trkpt>
			 <trkpt lat="51.47357" lon="0.015367">
				 <ele>43</ele>
			 </trkpt>
			 <trkpt lat="51.47373" lon="0.01663">
				 <ele>43.2</ele>
			 </trkpt>
			 <trkpt lat="51.473843" lon="0.01766">
				 <ele>43.4</ele>
			 </trkpt>
			 <trkpt lat="51.473957" lon="0.01869">
				 <ele>43.9</ele>
			 </trkpt>
			 <trkpt lat="51.47407" lon="0.01972">
				 <ele>44.5</ele>
			 </trkpt>
			 <trkpt lat="51.474195" lon="0.02057">
				 <ele>44.8</ele>
			 </trkpt>
			 <trkpt lat="51.47432" lon="0.02142">
				 <ele>45.1</ele>
			 </trkpt>
			 <trkpt lat="51.47433" lon="0.02149">
				 <ele>45.2</ele>
			 </trkpt>
			 <trkpt lat="51.474436" lon="0.022071">
				 <ele>45.1</ele>
			 </trkpt>
			 <trkpt lat="51.47455" lon="0.02277">
				 <ele>45.1</ele>
			 </trkpt>
			 <trkpt lat="51.474664" lon="0.023468">
				 <ele>45</ele>
			 </trkpt>
			 <trkpt lat="51.47475" lon="0.0239">
				 <ele>44.9</ele>
			 </trkpt>
			 <trkpt lat="51.4748" lon="0.02399">
				 <ele>44.8</ele>
			 </trkpt>
			 <trkpt lat="51.47501" lon="0.02415">
				 <ele>44.8</ele>
			 </trkpt>
			 <trkpt lat="51.47507" lon="0.0243">
				 <ele>44.8</ele>
			 </trkpt>
			 <trkpt lat="51.4751" lon="0.02444">
				 <ele>45</ele>
			 </trkpt>
			 <trkpt lat="51.47508" lon="0.02466">
				 <ele>45.4</ele>
			 </trkpt>
			 <trkpt lat="51.47498" lon="0.02495">
				 <ele>45.6</ele>
			 </trkpt>
			 <trkpt lat="51.47497" lon="0.02513">
				 <ele>46.1</ele>
			 </trkpt>
			 <trkpt lat="51.47497" lon="0.02542">
				 <ele>46.6</ele>
			 </trkpt>
			 <trkpt lat="51.47511" lon="0.02638">
				 <ele>47.2</ele>
			 </trkpt>
			 <trkpt lat="51.47525" lon="0.02734">
				 <ele>47.5</ele>
			 </trkpt>
			 <trkpt lat="51.4753" lon="0.02781">
				 <ele>47.9</ele>
			 </trkpt>
			 <trkpt lat="51.47533" lon="0.02817">
				 <ele>48.2</ele>
			 </trkpt>
			 <trkpt lat="51.47537" lon="0.02918">
				 <ele>48.4</ele>
			 </trkpt>
			 <trkpt lat="51.47538" lon="0.02961">
				 <ele>48.5</ele>
			 </trkpt>
			 <trkpt lat="51.47533" lon="0.03043">
				 <ele>48.3</ele>
			 </trkpt>
			 <trkpt lat="51.47517" lon="0.03166">
				 <ele>48</ele>
			 </trkpt>
			 <trkpt lat="51.475055" lon="0.03248">
				 <ele>47.9</ele>
			 </trkpt>
			 <trkpt lat="51.47494" lon="0.0333">
				 <ele>47.7</ele>
			 </trkpt>
			 <trkpt lat="51.47476" lon="0.034467">
				 <ele>47.5</ele>
			 </trkpt>
			 <trkpt lat="51.47458" lon="0.035633">
				 <ele>47.5</ele>
			 </trkpt>
			 <trkpt lat="51.4744" lon="0.0368">
				 <ele>47.6</ele>
			 </trkpt>
			 <trkpt lat="51.47436" lon="0.03732">
				 <ele>48</ele>
			 </trkpt>
			 <trkpt lat="51.474333" lon="0.03731">
				 <ele>48.5</ele>
			 </trkpt>
			 <trkpt lat="51.474385" lon="0.037386">
				 <ele>49</ele>
			 </trkpt>
			 <trkpt lat="51.475067" lon="0.037968">
				 <ele>49.5</ele>
			 </trkpt>
			 <trkpt lat="51.475855" lon="0.038663">
				 <ele>49.9</ele>
			 </trkpt>
			 <trkpt lat="51.476441" lon="0.039198">
				 <ele>50.4</ele>
			 </trkpt>
			 <trkpt lat="51.476572" lon="0.039351">
				 <ele>50.9</ele>
			 </trkpt>
			 <trkpt lat="51.476809" lon="0.039716">
				 <ele>51.5</ele>
			 </trkpt>
			 <trkpt lat="51.477158" lon="0.040343">
				 <ele>51.9</ele>
			 </trkpt>
			 <trkpt lat="51.477223" lon="0.040473">
				 <ele>52.3</ele>
			 </trkpt>
			 <trkpt lat="51.477344" lon="0.040795">
				 <ele>52.5</ele>
			 </trkpt>
			 <trkpt lat="51.477512" lon="0.041348">
				 <ele>52.6</ele>
			 </trkpt>
			 <trkpt lat="51.477641" lon="0.041671">
				 <ele>52.6</ele>
			 </trkpt>
			 <trkpt lat="51.477753" lon="0.04192">
				 <ele>52.5</ele>
			 </trkpt>
			 <trkpt lat="51.478042" lon="0.042458">
				 <ele>52.5</ele>
			 </trkpt>
			 <trkpt lat="51.478515" lon="0.043298">
				 <ele>52.7</ele>
			 </trkpt>
			 <trkpt lat="51.478657" lon="0.043566">
				 <ele>52.9</ele>
			 </trkpt>
			 <trkpt lat="51.478829" lon="0.043951">
				 <ele>53</ele>
			 </trkpt>
			 <trkpt lat="51.478914" lon="0.044061">
				 <ele>53</ele>
			 </trkpt>
			 <trkpt lat="51.478926" lon="0.044231">
				 <ele>53.2</ele>
			 </trkpt>
			 <trkpt lat="51.479009" lon="0.044765">
				 <ele>53.5</ele>
			 </trkpt>
			 <trkpt lat="51.479109" lon="0.045889">
				 <ele>53.7</ele>
			 </trkpt>
			 <trkpt lat="51.479129" lon="0.046233">
				 <ele>53.9</ele>
			 </trkpt>
			 <trkpt lat="51.479141" lon="0.046994">
				 <ele>53.9</ele>
			 </trkpt>
			 <trkpt lat="51.479332" lon="0.048147">
				 <ele>53.8</ele>
			 </trkpt>
			 <trkpt lat="51.479363" lon="0.048276">
				 <ele>53.7</ele>
			 </trkpt>
			 <trkpt lat="51.479411" lon="0.048393">
				 <ele>53.5</ele>
			 </trkpt>
			 <trkpt lat="51.479446" lon="0.048571">
				 <ele>53.3</ele>
			 </trkpt>
			 <trkpt lat="51.479577" lon="0.048984">
				 <ele>52.8</ele>
			 </trkpt>
			 <trkpt lat="51.479877" lon="0.050285">
				 <ele>52.5</ele>
			 </trkpt>
			 <trkpt lat="51.480106" lon="0.051325">
				 <ele>51.9</ele>
			 </trkpt>
			 <trkpt lat="51.480215" lon="0.05232">
				 <ele>51.3</ele>
			 </trkpt>
			 <trkpt lat="51.480325" lon="0.052922">
				 <ele>50.6</ele>
			 </trkpt>
			 <trkpt lat="51.480595" lon="0.054612">
				 <ele>50</ele>
			 </trkpt>
			 <trkpt lat="51.480603" lon="0.054769">
				 <ele>49.7</ele>
			 </trkpt>
			 <trkpt lat="51.480822" lon="0.056024">
				 <ele>49.5</ele>
			 </trkpt>
			 <trkpt lat="51.480889" lon="0.056359">
				 <ele>49.4</ele>
			 </trkpt>
			 <trkpt lat="51.480984" lon="0.056752">
				 <ele>49</ele>
			 </trkpt>
			 <trkpt lat="51.481739" lon="0.059287">
				 <ele>48.7</ele>
			 </trkpt>
			 <trkpt lat="51.482252" lon="0.061074">
				 <ele>48.6</ele>
			 </trkpt>
			 <trkpt lat="51.482296" lon="0.061176">
				 <ele>48.4</ele>
			 </trkpt>
			 <trkpt lat="51.482335" lon="0.061292">
				 <ele>48.1</ele>
			 </trkpt>
			 <trkpt lat="51.482437" lon="0.061693">
				 <ele>47.8</ele>
			 </trkpt>
			 <trkpt lat="51.482471" lon="0.061884">
				 <ele>47.5</ele>
			 </trkpt>
			 <trkpt lat="51.482662" lon="0.061985">
				 <ele>47.2</ele>
			 </trkpt>
			 <trkpt lat="51.482964" lon="0.062063">
				 <ele>46.5</ele>
			 </trkpt>
			 <trkpt lat="51.483346" lon="0.062147">
				 <ele>45.6</ele>
			 </trkpt>
			 <trkpt lat="51.483602" lon="0.062137">
				 <ele>44.7</ele>
			 </trkpt>
			 <trkpt lat="51.483739" lon="0.06213">
				 <ele>43.9</ele>
			 </trkpt>
			 <trkpt lat="51.483852" lon="0.062148">
				 <ele>42.9</ele>
			 </trkpt>
			 <trkpt lat="51.485614" lon="0.062768">
				 <ele>41.9</ele>
			 </trkpt>
			 <trkpt lat="51.485872" lon="0.062881">
				 <ele>41.1</ele>
			 </trkpt>
			 <trkpt lat="51.486038" lon="0.062971">
				 <ele>40.2</ele>
			 </trkpt>
			 <trkpt lat="51.486401" lon="0.063141">
				 <ele>39.3</ele>
			 </trkpt>
			 <trkpt lat="51.486816" lon="0.063362">
				 <ele>38.4</ele>
			 </trkpt>
			 <trkpt lat="51.486808" lon="0.063406">
				 <ele>37.4</ele>
			 </trkpt>
			 <trkpt lat="51.486816" lon="0.063362">
				 <ele>36.5</ele>
			 </trkpt>
			 <trkpt lat="51.486942" lon="0.063424">
				 <ele>35.8</ele>
			 </trkpt>
			 <trkpt lat="51.487046" lon="0.063393">
				 <ele>35.1</ele>
			 </trkpt>
			 <trkpt lat="51.487137" lon="0.063409">
				 <ele>34.2</ele>
			 </trkpt>
			 <trkpt lat="51.487236" lon="0.063405">
				 <ele>33.3</ele>
			 </trkpt>
			 <trkpt lat="51.487462" lon="0.063346">
				 <ele>32.4</ele>
			 </trkpt>
			 <trkpt lat="51.487611" lon="0.06327">
				 <ele>31.3</ele>
			 </trkpt>
			 <trkpt lat="51.488288" lon="0.062866">
				 <ele>30.3</ele>
			 </trkpt>
			 <trkpt lat="51.488718" lon="0.062623">
				 <ele>29.1</ele>
			 </trkpt>
			 <trkpt lat="51.489052" lon="0.062513">
				 <ele>27.9</ele>
			 </trkpt>
			 <trkpt lat="51.489615" lon="0.062404">
				 <ele>26.6</ele>
			 </trkpt>
			 <trkpt lat="51.490129" lon="0.062288">
				 <ele>25.5</ele>
			 </trkpt>
			 <trkpt lat="51.490487" lon="0.062165">
				 <ele>24.3</ele>
			 </trkpt>
			 <trkpt lat="51.491179" lon="0.061844">
				 <ele>23</ele>
			 </trkpt>
			 <trkpt lat="51.491622" lon="0.061564">
				 <ele>21.8</ele>
			 </trkpt>
			 <trkpt lat="51.491825" lon="0.061428">
				 <ele>20.8</ele>
			 </trkpt>
			 <trkpt lat="51.49228" lon="0.061095">
				 <ele>19.6</ele>
			 </trkpt>
			 <trkpt lat="51.49251" lon="0.060979">
				 <ele>18.5</ele>
			 </trkpt>
			 <trkpt lat="51.492687" lon="0.060935">
				 <ele>17.4</ele>
			 </trkpt>
			 <trkpt lat="51.492877" lon="0.060932">
				 <ele>16.4</ele>
			 </trkpt>
			 <trkpt lat="51.493019" lon="0.060955">
				 <ele>15.4</ele>
			 </trkpt>
			 <trkpt lat="51.493336" lon="0.061083">
				 <ele>14.5</ele>
			 </trkpt>
			 <trkpt lat="51.493397" lon="0.061073">
				 <ele>13.8</ele>
			 </trkpt>
			 <trkpt lat="51.493516" lon="0.061031">
				 <ele>12.9</ele>
			 </trkpt>
			 <trkpt lat="51.493576" lon="0.060925">
				 <ele>12.2</ele>
			 </trkpt>
			 <trkpt lat="51.493647" lon="0.06057">
				 <ele>11.5</ele>
			 </trkpt>
			 <trkpt lat="51.493655" lon="0.060496">
				 <ele>10.9</ele>
			 </trkpt>
			 <trkpt lat="51.49365" lon="0.060317">
				 <ele>10.5</ele>
			 </trkpt>
			 <trkpt lat="51.493547" lon="0.058463">
				 <ele>10.2</ele>
			 </trkpt>
			 <trkpt lat="51.493522" lon="0.0583">
				 <ele>10</ele>
			 </trkpt>
			 <trkpt lat="51.493502" lon="0.058177">
				 <ele>9.9</ele>
			 </trkpt>
			 <trkpt lat="51.49346" lon="0.058003">
				 <ele>10</ele>
			 </trkpt>
			 <trkpt lat="51.493402" lon="0.057815">
				 <ele>10.2</ele>
			 </trkpt>
			 <trkpt lat="51.493326" lon="0.05763">
				 <ele>10.3</ele>
			 </trkpt>
			 <trkpt lat="51.493125" lon="0.057225">
				 <ele>10.5</ele>
			 </trkpt>
			 <trkpt lat="51.493065" lon="0.057085">
				 <ele>10.9</ele>
			 </trkpt>
			 <trkpt lat="51.493009" lon="0.056882">
				 <ele>11.3</ele>
			 </trkpt>
			 <trkpt lat="51.492981" lon="0.056659">
				 <ele>11.5</ele>
			 </trkpt>
			 <trkpt lat="51.492834" lon="0.055461">
				 <ele>11.8</ele>
			 </trkpt>
			 <trkpt lat="51.492841" lon="0.05507">
				 <ele>12</ele>
			 </trkpt>
			 <trkpt lat="51.492801" lon="0.054738">
				 <ele>12.4</ele>
			 </trkpt>
			 <trkpt lat="51.492796" lon="0.054523">
				 <ele>12.5</ele>
			 </trkpt>
			 <trkpt lat="51.492821" lon="0.053735">
				 <ele>12.6</ele>
			 </trkpt>
			 <trkpt lat="51.492813" lon="0.053303">
				 <ele>12.6</ele>
			 </trkpt>
			 <trkpt lat="51.492742" lon="0.052828">
				 <ele>12.6</ele>
			 </trkpt>
			 <trkpt lat="51.492517" lon="0.052203">
				 <ele>12.6</ele>
			 </trkpt>
			 <trkpt lat="51.49248" lon="0.052102">
				 <ele>12.5</ele>
			 </trkpt>
			 <trkpt lat="51.49235" lon="0.051763">
				 <ele>12.2</ele>
			 </trkpt>
			 <trkpt lat="51.49223" lon="0.051406">
				 <ele>11.8</ele>
			 </trkpt>
			 <trkpt lat="51.492151" lon="0.050975">
				 <ele>11.3</ele>
			 </trkpt>
			 <trkpt lat="51.492139" lon="0.050896">
				 <ele>10.7</ele>
			 </trkpt>
			 <trkpt lat="51.492123" lon="0.050647">
				 <ele>10</ele>
			 </trkpt>
			 <trkpt lat="51.492122" lon="0.050417">
				 <ele>9.3</ele>
			 </trkpt>
			 <trkpt lat="51.492139" lon="0.050138">
				 <ele>8.6</ele>
			 </trkpt>
			 <trkpt lat="51.49243" lon="0.046832">
				 <ele>8.2</ele>
			 </trkpt>
			 <trkpt lat="51.492458" lon="0.046553">
				 <ele>7.8</ele>
			 </trkpt>
			 <trkpt lat="51.492554" lon="0.04593">
				 <ele>7.5</ele>
			 </trkpt>
			 <trkpt lat="51.492564" lon="0.045782">
				 <ele>7.4</ele>
			 </trkpt>
			 <trkpt lat="51.49241" lon="0.04515">
				 <ele>7.2</ele>
			 </trkpt>
			 <trkpt lat="51.49221" lon="0.04457">
				 <ele>7.2</ele>
			 </trkpt>
			 <trkpt lat="51.49177" lon="0.04344">
				 <ele>7.4</ele>
			 </trkpt>
			 <trkpt lat="51.49153" lon="0.04247">
				 <ele>7.4</ele>
			 </trkpt>
			 <trkpt lat="51.49136" lon="0.04193">
				 <ele>7.4</ele>
			 </trkpt>
			 <trkpt lat="51.491075" lon="0.041271">
				 <ele>7.5</ele>
			 </trkpt>
			 <trkpt lat="51.491007" lon="0.041105">
				 <ele>7.6</ele>
			 </trkpt>
			 <trkpt lat="51.490969" lon="0.04101">
				 <ele>7.5</ele>
			 </trkpt>
			 <trkpt lat="51.490536" lon="0.040212">
				 <ele>7.5</ele>
			 </trkpt>
			 <trkpt lat="51.490415" lon="0.040058">
				 <ele>7.3</ele>
			 </trkpt>
			 <trkpt lat="51.490332" lon="0.039974">
				 <ele>7.1</ele>
			 </trkpt>
			 <trkpt lat="51.490281" lon="0.039956">
				 <ele>6.9</ele>
			 </trkpt>
			 <trkpt lat="51.490234" lon="0.039895">
				 <ele>6.8</ele>
			 </trkpt>
			 <trkpt lat="51.490207" lon="0.039805">
				 <ele>6.7</ele>
			 </trkpt>
			 <trkpt lat="51.490205" lon="0.039739">
				 <ele>6.8</ele>
			 </trkpt>
			 <trkpt lat="51.490151" lon="0.039623">
				 <ele>6.9</ele>
			 </trkpt>
			 <trkpt lat="51.489651" lon="0.038099">
				 <ele>6.9</ele>
			 </trkpt>
			 <trkpt lat="51.488923" lon="0.036016">
				 <ele>6.9</ele>
			 </trkpt>
			 <trkpt lat="51.488848" lon="0.035712">
				 <ele>6.9</ele>
			 </trkpt>
			 <trkpt lat="51.488777" lon="0.035233">
				 <ele>6.9</ele>
			 </trkpt>
			 <trkpt lat="51.488753" lon="0.035117">
				 <ele>6.9</ele>
			 </trkpt>
			 <trkpt lat="51.488692" lon="0.034984">
				 <ele>6.9</ele>
			 </trkpt>
			 <trkpt lat="51.488651" lon="0.034943">
				 <ele>7</ele>
			 </trkpt>
			 <trkpt lat="51.48862" lon="0.034885">
				 <ele>7</ele>
			 </trkpt>
			 <trkpt lat="51.488602" lon="0.034813">
				 <ele>6.9</ele>
			 </trkpt>
			 <trkpt lat="51.488599" lon="0.034731">
				 <ele>6.7</ele>
			 </trkpt>
			 <trkpt lat="51.488613" lon="0.034651">
				 <ele>6.5</ele>
			 </trkpt>
			 <trkpt lat="51.488528" lon="0.034473">
				 <ele>6.3</ele>
			 </trkpt>
			 <trkpt lat="51.488458" lon="0.034209">
				 <ele>6</ele>
			 </trkpt>
			 <trkpt lat="51.488232" lon="0.03295">
				 <ele>5.7</ele>
			 </trkpt>
			 <trkpt lat="51.488043" lon="0.031939">
				 <ele>5.5</ele>
			 </trkpt>
			 <trkpt lat="51.487994" lon="0.03186">
				 <ele>5.1</ele>
			 </trkpt>
			 <trkpt lat="51.487873" lon="0.031271">
				 <ele>4.8</ele>
			 </trkpt>
			 <trkpt lat="51.487834" lon="0.031009">
				 <ele>4.5</ele>
			 </trkpt>
			 <trkpt lat="51.487749" lon="0.030325">
				 <ele>4.3</ele>
			 </trkpt>
			 <trkpt lat="51.487717" lon="0.03015">
				 <ele>4.2</ele>
			 </trkpt>
			 <trkpt lat="51.48767" lon="0.029787">
				 <ele>4.2</ele>
			 </trkpt>
			 <trkpt lat="51.487561" lon="0.029077">
				 <ele>4.2</ele>
			 </trkpt>
			 <trkpt lat="51.487536" lon="0.02876">
				 <ele>4.2</ele>
			 </trkpt>
			 <trkpt lat="51.487517" lon="0.02861">
				 <ele>4.2</ele>
			 </trkpt>
			 <trkpt lat="51.487434" lon="0.027526">
				 <ele>4.2</ele>
			 </trkpt>
			 <trkpt lat="51.48737" lon="0.026804">
				 <ele>4.2</ele>
			 </trkpt>
			 <trkpt lat="51.487349" lon="0.0267">
				 <ele>4.3</ele>
			 </trkpt>
			 <trkpt lat="51.487299" lon="0.026107">
				 <ele>4.2</ele>
			 </trkpt>
			 <trkpt lat="51.487295" lon="0.025901">
				 <ele>4.1</ele>
			 </trkpt>
			 <trkpt lat="51.487157" lon="0.024572">
				 <ele>4</ele>
			 </trkpt>
			 <trkpt lat="51.48709" lon="0.024005">
				 <ele>3.9</ele>
			 </trkpt>
			 <trkpt lat="51.487054" lon="0.023818">
				 <ele>3.8</ele>
			 </trkpt>
			 <trkpt lat="51.48697" lon="0.023474">
				 <ele>3.7</ele>
			 </trkpt>
			 <trkpt lat="51.486883" lon="0.02324">
				 <ele>3.7</ele>
			 </trkpt>
			 <trkpt lat="51.486787" lon="0.023019">
				 <ele>3.7</ele>
			 </trkpt>
			 <trkpt lat="51.486704" lon="0.022732">
				 <ele>3.7</ele>
			 </trkpt>
			 <trkpt lat="51.48666" lon="0.022432">
				 <ele>3.7</ele>
			 </trkpt>
			 <trkpt lat="51.48664" lon="0.022088">
				 <ele>3.7</ele>
			 </trkpt>
			 <trkpt lat="51.48664" lon="0.021789">
				 <ele>3.9</ele>
			 </trkpt>
			 <trkpt lat="51.486675" lon="0.021296">
				 <ele>4.1</ele>
			 </trkpt>
			 <trkpt lat="51.486673" lon="0.021194">
				 <ele>4.3</ele>
			 </trkpt>
			 <trkpt lat="51.486718" lon="0.020574">
				 <ele>4.4</ele>
			 </trkpt>
			 <trkpt lat="51.486734" lon="0.020472">
				 <ele>4.4</ele>
			 </trkpt>
			 <trkpt lat="51.486733" lon="0.019807">
				 <ele>4.4</ele>
			 </trkpt>
			 <trkpt lat="51.486709" lon="0.019365">
				 <ele>4.4</ele>
			 </trkpt>
			 <trkpt lat="51.486691" lon="0.019198">
				 <ele>4.5</ele>
			 </trkpt>
			 <trkpt lat="51.486649" lon="0.019125">
				 <ele>4.5</ele>
			 </trkpt>
			 <trkpt lat="51.486559" lon="0.018502">
				 <ele>4.6</ele>
			 </trkpt>
			 <trkpt lat="51.486539" lon="0.018436">
				 <ele>4.7</ele>
			 </trkpt>
			 <trkpt lat="51.486481" lon="0.018347">
				 <ele>4.7</ele>
			 </trkpt>
			 <trkpt lat="51.486422" lon="0.018303">
				 <ele>4.7</ele>
			 </trkpt>
			 <trkpt lat="51.48638" lon="0.018274">
				 <ele>4.7</ele>
			 </trkpt>
			 <trkpt lat="51.486339" lon="0.018226">
				 <ele>4.7</ele>
			 </trkpt>
			 <trkpt lat="51.486315" lon="0.018177">
				 <ele>4.8</ele>
			 </trkpt>
			 <trkpt lat="51.486303" lon="0.018111">
				 <ele>4.9</ele>
			 </trkpt>
			 <trkpt lat="51.486306" lon="0.018037">
				 <ele>5</ele>
			 </trkpt>
			 <trkpt lat="51.48634" lon="0.017919">
				 <ele>5.1</ele>
			 </trkpt>
			 <trkpt lat="51.486398" lon="0.017832">
				 <ele>5.2</ele>
			 </trkpt>
			 <trkpt lat="51.486438" lon="0.017693">
				 <ele>5.3</ele>
			 </trkpt>
			 <trkpt lat="51.486448" lon="0.017613">
				 <ele>5.5</ele>
			 </trkpt>
			 <trkpt lat="51.48645" lon="0.017528">
				 <ele>5.5</ele>
			 </trkpt>
			 <trkpt lat="51.486389" lon="0.017135">
				 <ele>5.5</ele>
			 </trkpt>
			 <trkpt lat="51.486334" lon="0.016648">
				 <ele>5.5</ele>
			 </trkpt>
			 <trkpt lat="51.486348" lon="0.016452">
				 <ele>5.5</ele>
			 </trkpt>
			 <trkpt lat="51.486312" lon="0.016177">
				 <ele>5.5</ele>
			 </trkpt>
			 <trkpt lat="51.486218" lon="0.01562">
				 <ele>5.5</ele>
			 </trkpt>
			 <trkpt lat="51.486138" lon="0.015322">
				 <ele>5.5</ele>
			 </trkpt>
			 <trkpt lat="51.486078" lon="0.014998">
				 <ele>5.4</ele>
			 </trkpt>
			 <trkpt lat="51.486054" lon="0.014832">
				 <ele>5.4</ele>
			 </trkpt>
			 <trkpt lat="51.486023" lon="0.014525">
				 <ele>5.3</ele>
			 </trkpt>
			 <trkpt lat="51.48602" lon="0.01437">
				 <ele>5</ele>
			 </trkpt>
			 <trkpt lat="51.48602" lon="0.01413">
				 <ele>4.7</ele>
			 </trkpt>
			 <trkpt lat="51.48613" lon="0.01314">
				 <ele>4.6</ele>
			 </trkpt>
			 <trkpt lat="51.48615" lon="0.01231">
				 <ele>4.6</ele>
			 </trkpt>
			 <trkpt lat="51.48618" lon="0.01126">
				 <ele>4.5</ele>
			 </trkpt>
			 <trkpt lat="51.48627" lon="0.01007">
				 <ele>4.5</ele>
			 </trkpt>
			 <trkpt lat="51.48628" lon="0.00946">
				 <ele>4.5</ele>
			 </trkpt>
			 <trkpt lat="51.48629" lon="0.00895">
				 <ele>4.5</ele>
			 </trkpt>
			 <trkpt lat="51.48624" lon="0.0085">
				 <ele>4.6</ele>
			 </trkpt>
			 <trkpt lat="51.48616" lon="0.00817">
				 <ele>4.5</ele>
			 </trkpt>
			 <trkpt lat="51.48608" lon="0.00795">
				 <ele>4.6</ele>
			 </trkpt>
			 <trkpt lat="51.48581" lon="0.00725">
				 <ele>4.8</ele>
			 </trkpt>
			 <trkpt lat="51.48566" lon="0.00678">
				 <ele>5.1</ele>
			 </trkpt>
			 <trkpt lat="51.48546" lon="0.00611">
				 <ele>5.2</ele>
			 </trkpt>
			 <trkpt lat="51.48535" lon="0.00567">
				 <ele>5.4</ele>
			 </trkpt>
			 <trkpt lat="51.48524" lon="0.00519">
				 <ele>5.6</ele>
			 </trkpt>
			 <trkpt lat="51.48515" lon="0.0046">
				 <ele>5.9</ele>
			 </trkpt>
			 <trkpt lat="51.48482" lon="0.00353">
				 <ele>6.2</ele>
			 </trkpt>
			 <trkpt lat="51.48456" lon="0.002735">
				 <ele>6.5</ele>
			 </trkpt>
			 <trkpt lat="51.4843" lon="0.00194">
				 <ele>6.8</ele>
			 </trkpt>
			 <trkpt lat="51.483935" lon="0.00085">
				 <ele>7.2</ele>
			 </trkpt>
			 <trkpt lat="51.48357" lon="-0.00024">
				 <ele>7.6</ele>
			 </trkpt>
			 <trkpt lat="51.48339" lon="-0.00092">
				 <ele>8.1</ele>
			 </trkpt>
			 <trkpt lat="51.48318" lon="-0.00198">
				 <ele>8.6</ele>
			 </trkpt>
			 <trkpt lat="51.48303" lon="-0.00255">
				 <ele>9</ele>
			 </trkpt>
			 <trkpt lat="51.4829" lon="-0.00299">
				 <ele>9.4</ele>
			 </trkpt>
			 <trkpt lat="51.48268" lon="-0.00363">
				 <ele>9.6</ele>
			 </trkpt>
			 <trkpt lat="51.48246" lon="-0.00427">
				 <ele>9.8</ele>
			 </trkpt>
			 <trkpt lat="51.48247" lon="-0.00423">
				 <ele>9.9</ele>
			 </trkpt>
			 <trkpt lat="51.48221" lon="-0.00501">
				 <ele>9.9</ele>
			 </trkpt>
			 <trkpt lat="51.48195" lon="-0.00579">
				 <ele>9.9</ele>
			 </trkpt>
			 <trkpt lat="51.48173" lon="-0.00645">
				 <ele>10.1</ele>
			 </trkpt>
			 <trkpt lat="51.48151" lon="-0.0071">
				 <ele>9.7</ele>
			 </trkpt>
			 <trkpt lat="51.48132" lon="-0.00765">
				 <ele>9.4</ele>
			 </trkpt>
			 <trkpt lat="51.48126" lon="-0.00784">
				 <ele>8.8</ele>
			 </trkpt>
			 <trkpt lat="51.48128" lon="-0.00802">
				 <ele>8.5</ele>
			 </trkpt>
			 <trkpt lat="51.48152" lon="-0.00835">
				 <ele>8.1</ele>
			 </trkpt>
			 <trkpt lat="51.48212" lon="-0.00885">
				 <ele>7.6</ele>
			 </trkpt>
			 <trkpt lat="51.48221" lon="-0.00889">
				 <ele>7.5</ele>
			 </trkpt>
			 <trkpt lat="51.482705" lon="-0.00924">
				 <ele>7.5</ele>
			 </trkpt>
			 <trkpt lat="51.4832" lon="-0.00959">
				 <ele>7.5</ele>
			 </trkpt>
			 <trkpt lat="51.48316" lon="-0.00987">
				 <ele>7.4</ele>
			 </trkpt>
			 <trkpt lat="51.48262" lon="-0.00982">
				 <ele>7.1</ele>
			 </trkpt>
			 <trkpt lat="51.48202" lon="-0.01008">
				 <ele>7</ele>
			 </trkpt>
			 <trkpt lat="51.48165" lon="-0.01013">
				 <ele>6.8</ele>
			 </trkpt>
			 <trkpt lat="51.48152" lon="-0.01017">
				 <ele>6.7</ele>
			 </trkpt>
			 <trkpt lat="51.48144" lon="-0.01032">
				 <ele>6.6</ele>
			 </trkpt>
			 <trkpt lat="51.48143" lon="-0.01108">
				 <ele>6.5</ele>
			 </trkpt>
			 <trkpt lat="51.48144" lon="-0.012265">
				 <ele>6.5</ele>
			 </trkpt>
			 <trkpt lat="51.48145" lon="-0.01344">
				 <ele>6.1</ele>
			 </trkpt>
			 <trkpt lat="51.481415" lon="-0.01431">
				 <ele>5.7</ele>
			 </trkpt>
			 <trkpt lat="51.48138" lon="-0.01518">
				 <ele>5.8</ele>
			 </trkpt>
			 <trkpt lat="51.481345" lon="-0.01646">
				 <ele>6</ele>
			 </trkpt>
			 <trkpt lat="51.48131" lon="-0.01774">
				 <ele>6.1</ele>
			 </trkpt>
			 <trkpt lat="51.4812" lon="-0.018825">
				 <ele>6.3</ele>
			 </trkpt>
			 <trkpt lat="51.48109" lon="-0.01991">
				 <ele>6.5</ele>
			 </trkpt>
			 <trkpt lat="51.480935" lon="-0.021255">
				 <ele>6.8</ele>
			 </trkpt>
			 <trkpt lat="51.48078" lon="-0.0226">
				 <ele>7.2</ele>
			 </trkpt>
			 <trkpt lat="51.480734" lon="-0.02272">
				 <ele>7.5</ele>
			 </trkpt>
			 <trkpt lat="51.480709" lon="-0.022926">
				 <ele>7.9</ele>
			 </trkpt>
			 <trkpt lat="51.480705" lon="-0.023072">
				 <ele>8.5</ele>
			 </trkpt>
			 <trkpt lat="51.480729" lon="-0.023269">
				 <ele>8.6</ele>
			 </trkpt>
			 <trkpt lat="51.480765" lon="-0.02349">
				 <ele>8.5</ele>
			 </trkpt>
			 <trkpt lat="51.480933" lon="-0.024096">
				 <ele>8.1</ele>
			 </trkpt>
			 <trkpt lat="51.481026" lon="-0.024197">
				 <ele>7.8</ele>
			 </trkpt>
			 <trkpt lat="51.481285" lon="-0.025296">
				 <ele>7.5</ele>
			 </trkpt>
			 <trkpt lat="51.481504" lon="-0.026343">
				 <ele>7.1</ele>
			 </trkpt>
			 <trkpt lat="51.481571" lon="-0.026632">
				 <ele>6.9</ele>
			 </trkpt>
			 <trkpt lat="51.481614" lon="-0.026784">
				 <ele>6.7</ele>
			 </trkpt>
			 <trkpt lat="51.4817" lon="-0.027085">
				 <ele>6.5</ele>
			 </trkpt>
			 <trkpt lat="51.481802" lon="-0.027408">
				 <ele>6.4</ele>
			 </trkpt>
			 <trkpt lat="51.481938" lon="-0.02778">
				 <ele>6.3</ele>
			 </trkpt>
			 <trkpt lat="51.482469" lon="-0.029014">
				 <ele>6.3</ele>
			 </trkpt>
			 <trkpt lat="51.483342" lon="-0.030825">
				 <ele>6.2</ele>
			 </trkpt>
			 <trkpt lat="51.483857" lon="-0.031865">
				 <ele>6.2</ele>
			 </trkpt>
			 <trkpt lat="51.484187" lon="-0.032531">
				 <ele>6.1</ele>
			 </trkpt>
			 <trkpt lat="51.484363" lon="-0.032846">
				 <ele>6.1</ele>
			 </trkpt>
			 <trkpt lat="51.484513" lon="-0.033075">
				 <ele>6.3</ele>
			 </trkpt>
			 <trkpt lat="51.485227" lon="-0.033936">
				 <ele>6.1</ele>
			 </trkpt>
			 <trkpt lat="51.485452" lon="-0.034287">
				 <ele>5.8</ele>
			 </trkpt>
			 <trkpt lat="51.48576" lon="-0.034682">
				 <ele>5.6</ele>
			 </trkpt>
			 <trkpt lat="51.485931" lon="-0.034902">
				 <ele>5.3</ele>
			 </trkpt>
			 <trkpt lat="51.485996" lon="-0.03501">
				 <ele>4.9</ele>
			 </trkpt>
			 <trkpt lat="51.486439" lon="-0.035581">
				 <ele>4.6</ele>
			 </trkpt>
			 <trkpt lat="51.486789" lon="-0.036162">
				 <ele>4.5</ele>
			 </trkpt>
			 <trkpt lat="51.487081" lon="-0.03671">
				 <ele>4.3</ele>
			 </trkpt>
			 <trkpt lat="51.487373" lon="-0.03726">
				 <ele>4.3</ele>
			 </trkpt>
			 <trkpt lat="51.487664" lon="-0.03781">
				 <ele>4.3</ele>
			 </trkpt>
			 <trkpt lat="51.487793" lon="-0.038053">
				 <ele>4.2</ele>
			 </trkpt>
			 <trkpt lat="51.488071" lon="-0.03862">
				 <ele>4.2</ele>
			 </trkpt>
			 <trkpt lat="51.488349" lon="-0.039187">
				 <ele>4.1</ele>
			 </trkpt>
			 <trkpt lat="51.488628" lon="-0.039754">
				 <ele>4</ele>
			 </trkpt>
			 <trkpt lat="51.488906" lon="-0.040322">
				 <ele>4.1</ele>
			 </trkpt>
			 <trkpt lat="51.489212" lon="-0.040874">
				 <ele>4.1</ele>
			 </trkpt>
			 <trkpt lat="51.489512" lon="-0.041413">
				 <ele>4.1</ele>
			 </trkpt>
			 <trkpt lat="51.489848" lon="-0.041946">
				 <ele>4.1</ele>
			 </trkpt>
			 <trkpt lat="51.489885" lon="-0.042004">
				 <ele>4.2</ele>
			 </trkpt>
			 <trkpt lat="51.490213" lon="-0.042464">
				 <ele>4.1</ele>
			 </trkpt>
			 <trkpt lat="51.490548" lon="-0.042946">
				 <ele>4</ele>
			 </trkpt>
			 <trkpt lat="51.490883" lon="-0.043428">
				 <ele>4.1</ele>
			 </trkpt>
			 <trkpt lat="51.491218" lon="-0.04391">
				 <ele>4.1</ele>
			 </trkpt>
			 <trkpt lat="51.491382" lon="-0.044146">
				 <ele>4.1</ele>
			 </trkpt>
			 <trkpt lat="51.491719" lon="-0.044623">
				 <ele>4.1</ele>
			 </trkpt>
			 <trkpt lat="51.492046" lon="-0.045085">
				 <ele>3.9</ele>
			 </trkpt>
			 <trkpt lat="51.492339" lon="-0.045632">
				 <ele>3.9</ele>
			 </trkpt>
			 <trkpt lat="51.492632" lon="-0.04618">
				 <ele>4</ele>
			 </trkpt>
			 <trkpt lat="51.492889" lon="-0.046662">
				 <ele>4.2</ele>
			 </trkpt>
			 <trkpt lat="51.49298" lon="-0.04677">
				 <ele>4.4</ele>
			 </trkpt>
			 <trkpt lat="51.493088" lon="-0.046768">
				 <ele>4.8</ele>
			 </trkpt>
			 <trkpt lat="51.493304" lon="-0.046538">
				 <ele>5.2</ele>
			 </trkpt>
			 <trkpt lat="51.493469" lon="-0.046047">
				 <ele>5.5</ele>
			 </trkpt>
			 <trkpt lat="51.493742" lon="-0.04548">
				 <ele>5.7</ele>
			 </trkpt>
			 <trkpt lat="51.494005" lon="-0.045154">
				 <ele>6.1</ele>
			 </trkpt>
			 <trkpt lat="51.494324" lon="-0.044864">
				 <ele>6.5</ele>
			 </trkpt>
			 <trkpt lat="51.494722" lon="-0.044528">
				 <ele>6.7</ele>
			 </trkpt>
			 <trkpt lat="51.494746" lon="-0.044508">
				 <ele>6.9</ele>
			 </trkpt>
			 <trkpt lat="51.494819" lon="-0.044446">
				 <ele>7</ele>
			 </trkpt>
			 <trkpt lat="51.494917" lon="-0.044396">
				 <ele>7</ele>
			 </trkpt>
			 <trkpt lat="51.494974" lon="-0.044512">
				 <ele>6.8</ele>
			 </trkpt>
			 <trkpt lat="51.494988" lon="-0.044562">
				 <ele>6.5</ele>
			 </trkpt>
			 <trkpt lat="51.495022" lon="-0.044867">
				 <ele>6.3</ele>
			 </trkpt>
			 <trkpt lat="51.495051" lon="-0.045044">
				 <ele>6.1</ele>
			 </trkpt>
			 <trkpt lat="51.495085" lon="-0.045165">
				 <ele>6</ele>
			 </trkpt>
			 <trkpt lat="51.495162" lon="-0.045337">
				 <ele>5.9</ele>
			 </trkpt>
			 <trkpt lat="51.495266" lon="-0.045502">
				 <ele>5.8</ele>
			 </trkpt>
			 <trkpt lat="51.495399" lon="-0.045695">
				 <ele>5.8</ele>
			 </trkpt>
			 <trkpt lat="51.495456" lon="-0.045749">
				 <ele>5.8</ele>
			 </trkpt>
			 <trkpt lat="51.495698" lon="-0.045906">
				 <ele>5.9</ele>
			 </trkpt>
			 <trkpt lat="51.495867" lon="-0.04599">
				 <ele>6</ele>
			 </trkpt>
			 <trkpt lat="51.495987" lon="-0.046037">
				 <ele>6.3</ele>
			 </trkpt>
			 <trkpt lat="51.496098" lon="-0.046064">
				 <ele>6.5</ele>
			 </trkpt>
			 <trkpt lat="51.496153" lon="-0.046063">
				 <ele>6.7</ele>
			 </trkpt>
			 <trkpt lat="51.496208" lon="-0.046062">
				 <ele>6.8</ele>
			 </trkpt>
			 <trkpt lat="51.496392" lon="-0.046017">
				 <ele>6.9</ele>
			 </trkpt>
			 <trkpt lat="51.497145" lon="-0.045766">
				 <ele>7</ele>
			 </trkpt>
			 <trkpt lat="51.497316" lon="-0.045742">
				 <ele>7.2</ele>
			 </trkpt>
			 <trkpt lat="51.497491" lon="-0.045738">
				 <ele>7.4</ele>
			 </trkpt>
			 <trkpt lat="51.497692" lon="-0.045786">
				 <ele>7.6</ele>
			 </trkpt>
			 <trkpt lat="51.497836" lon="-0.045871">
				 <ele>7.8</ele>
			 </trkpt>
			 <trkpt lat="51.498054" lon="-0.045988">
				 <ele>7.8</ele>
			 </trkpt>
			 <trkpt lat="51.498218" lon="-0.045911">
				 <ele>7.7</ele>
			 </trkpt>
			 <trkpt lat="51.498377" lon="-0.045719">
				 <ele>7.7</ele>
			 </trkpt>
			 <trkpt lat="51.498519" lon="-0.045574">
				 <ele>7.7</ele>
			 </trkpt>
			 <trkpt lat="51.498755" lon="-0.045438">
				 <ele>7.7</ele>
			 </trkpt>
			 <trkpt lat="51.499049" lon="-0.045312">
				 <ele>7.7</ele>
			 </trkpt>
			 <trkpt lat="51.499258" lon="-0.045083">
				 <ele>7.8</ele>
			 </trkpt>
			 <trkpt lat="51.499462" lon="-0.044899">
				 <ele>7.9</ele>
			 </trkpt>
			 <trkpt lat="51.499548" lon="-0.044675">
				 <ele>7.7</ele>
			 </trkpt>
			 <trkpt lat="51.499478" lon="-0.044486">
				 <ele>7.5</ele>
			 </trkpt>
			 <trkpt lat="51.499236" lon="-0.043877">
				 <ele>7.2</ele>
			 </trkpt>
			 <trkpt lat="51.498995" lon="-0.043267">
				 <ele>7.1</ele>
			 </trkpt>
			 <trkpt lat="51.498754" lon="-0.042658">
				 <ele>7</ele>
			 </trkpt>
			 <trkpt lat="51.498512" lon="-0.042048">
				 <ele>6.9</ele>
			 </trkpt>
			 <trkpt lat="51.49841" lon="-0.04179">
				 <ele>6.9</ele>
			 </trkpt>
			 <trkpt lat="51.49813" lon="-0.04151">
				 <ele>7</ele>
			 </trkpt>
			 <trkpt lat="51.49736" lon="-0.041335">
				 <ele>7.1</ele>
			 </trkpt>
			 <trkpt lat="51.49659" lon="-0.04116">
				 <ele>7.2</ele>
			 </trkpt>
			 <trkpt lat="51.49628" lon="-0.04095">
				 <ele>7.2</ele>
			 </trkpt>
			 <trkpt lat="51.49628" lon="-0.04044">
				 <ele>7.3</ele>
			 </trkpt>
			 <trkpt lat="51.49629" lon="-0.0404">
				 <ele>7.3</ele>
			 </trkpt>
			 <trkpt lat="51.49639" lon="-0.03998">
				 <ele>7.5</ele>
			 </trkpt>
			 <trkpt lat="51.49656" lon="-0.03948">
				 <ele>7.7</ele>
			 </trkpt>
			 <trkpt lat="51.4968" lon="-0.03895">
				 <ele>7.9</ele>
			 </trkpt>
			 <trkpt lat="51.49732" lon="-0.03805">
				 <ele>8</ele>
			 </trkpt>
			 <trkpt lat="51.49777" lon="-0.03736">
				 <ele>8</ele>
			 </trkpt>
			 <trkpt lat="51.4983" lon="-0.03656">
				 <ele>8</ele>
			 </trkpt>
			 <trkpt lat="51.49866" lon="-0.03607">
				 <ele>8.1</ele>
			 </trkpt>
			 <trkpt lat="51.49893" lon="-0.03575">
				 <ele>8.3</ele>
			 </trkpt>
			 <trkpt lat="51.49907" lon="-0.03565">
				 <ele>8.5</ele>
			 </trkpt>
			 <trkpt lat="51.49963" lon="-0.03539">
				 <ele>8.5</ele>
			 </trkpt>
			 <trkpt lat="51.49981" lon="-0.03535">
				 <ele>8.5</ele>
			 </trkpt>
			 <trkpt lat="51.50012" lon="-0.03533">
				 <ele>8.2</ele>
			 </trkpt>
			 <trkpt lat="51.50054" lon="-0.03536">
				 <ele>7.9</ele>
			 </trkpt>
			 <trkpt lat="51.50081" lon="-0.0354">
				 <ele>7.7</ele>
			 </trkpt>
			 <trkpt lat="51.50148" lon="-0.03557">
				 <ele>7.5</ele>
			 </trkpt>
			 <trkpt lat="51.50194" lon="-0.03567">
				 <ele>7.6</ele>
			 </trkpt>
			 <trkpt lat="51.50242" lon="-0.03574">
				 <ele>7.9</ele>
			 </trkpt>
			 <trkpt lat="51.50288" lon="-0.03584">
				 <ele>8</ele>
			 </trkpt>
			 <trkpt lat="51.50331" lon="-0.03592">
				 <ele>7.9</ele>
			 </trkpt>
			 <trkpt lat="51.50383" lon="-0.03606">
				 <ele>7.6</ele>
			 </trkpt>
			 <trkpt lat="51.50416" lon="-0.03618">
				 <ele>7.9</ele>
			 </trkpt>
			 <trkpt lat="51.50435" lon="-0.03628">
				 <ele>8.1</ele>
			 </trkpt>
			 <trkpt lat="51.50453" lon="-0.03642">
				 <ele>8.4</ele>
			 </trkpt>
			 <trkpt lat="51.50487" lon="-0.03676">
				 <ele>8.5</ele>
			 </trkpt>
			 <trkpt lat="51.5051" lon="-0.03714">
				 <ele>8.5</ele>
			 </trkpt>
			 <trkpt lat="51.50527" lon="-0.03747">
				 <ele>8.5</ele>
			 </trkpt>
			 <trkpt lat="51.50543" lon="-0.03794">
				 <ele>8.4</ele>
			 </trkpt>
			 <trkpt lat="51.50552" lon="-0.03828">
				 <ele>8.1</ele>
			 </trkpt>
			 <trkpt lat="51.50563" lon="-0.03897">
				 <ele>7.8</ele>
			 </trkpt>
			 <trkpt lat="51.50566" lon="-0.03935">
				 <ele>7.6</ele>
			 </trkpt>
			 <trkpt lat="51.50565" lon="-0.04018">
				 <ele>7.5</ele>
			 </trkpt>
			 <trkpt lat="51.50561" lon="-0.041">
				 <ele>7.4</ele>
			 </trkpt>
			 <trkpt lat="51.50555" lon="-0.04162">
				 <ele>7.4</ele>
			 </trkpt>
			 <trkpt lat="51.50539" lon="-0.04263">
				 <ele>7.4</ele>
			 </trkpt>
			 <trkpt lat="51.50517" lon="-0.04358">
				 <ele>7.5</ele>
			 </trkpt>
			 <trkpt lat="51.50489" lon="-0.04452">
				 <ele>7.4</ele>
			 </trkpt>
			 <trkpt lat="51.50464" lon="-0.04517">
				 <ele>7.5</ele>
			 </trkpt>
			 <trkpt lat="51.50437" lon="-0.04579">
				 <ele>7.1</ele>
			 </trkpt>
			 <trkpt lat="51.50429" lon="-0.04595">
				 <ele>6.8</ele>
			 </trkpt>
			 <trkpt lat="51.50376" lon="-0.046855">
				 <ele>6.6</ele>
			 </trkpt>
			 <trkpt lat="51.50323" lon="-0.04776">
				 <ele>6.3</ele>
			 </trkpt>
			 <trkpt lat="51.502805" lon="-0.04844">
				 <ele>5.9</ele>
			 </trkpt>
			 <trkpt lat="51.50238" lon="-0.04912">
				 <ele>5.7</ele>
			 </trkpt>
			 <trkpt lat="51.50178" lon="-0.05011">
				 <ele>5.5</ele>
			 </trkpt>
			 <trkpt lat="51.5013" lon="-0.05078">
				 <ele>5.2</ele>
			 </trkpt>
			 <trkpt lat="51.500895" lon="-0.05153">
				 <ele>4.9</ele>
			 </trkpt>
			 <trkpt lat="51.50049" lon="-0.05228">
				 <ele>4.9</ele>
			 </trkpt>
			 <trkpt lat="51.50016" lon="-0.0529">
				 <ele>4.8</ele>
			 </trkpt>
			 <trkpt lat="51.49983" lon="-0.05352">
				 <ele>5</ele>
			 </trkpt>
			 <trkpt lat="51.49963" lon="-0.05393">
				 <ele>4.8</ele>
			 </trkpt>
			 <trkpt lat="51.49958" lon="-0.05406">
				 <ele>4.8</ele>
			 </trkpt>
			 <trkpt lat="51.49953" lon="-0.05441">
				 <ele>5.1</ele>
			 </trkpt>
			 <trkpt lat="51.49956" lon="-0.05501">
				 <ele>5.5</ele>
			 </trkpt>
			 <trkpt lat="51.499475" lon="-0.055276">
				 <ele>5.8</ele>
			 </trkpt>
			 <trkpt lat="51.499224" lon="-0.055305">
				 <ele>6.1</ele>
			 </trkpt>
			 <trkpt lat="51.499081" lon="-0.055668">
				 <ele>6.3</ele>
			 </trkpt>
			 <trkpt lat="51.499019" lon="-0.056092">
				 <ele>6.5</ele>
			 </trkpt>
			 <trkpt lat="51.499036" lon="-0.056636">
				 <ele>6.5</ele>
			 </trkpt>
			 <trkpt lat="51.498979" lon="-0.057352">
				 <ele>6.7</ele>
			 </trkpt>
			 <trkpt lat="51.498976" lon="-0.057398">
				 <ele>6.9</ele>
			 </trkpt>
			 <trkpt lat="51.498904" lon="-0.058111">
				 <ele>7</ele>
			 </trkpt>
			 <trkpt lat="51.498872" lon="-0.058434">
				 <ele>7</ele>
			 </trkpt>
			 <trkpt lat="51.4988" lon="-0.059147">
				 <ele>6.8</ele>
			 </trkpt>
			 <trkpt lat="51.498727" lon="-0.05986">
				 <ele>6.5</ele>
			 </trkpt>
			 <trkpt lat="51.498672" lon="-0.060409">
				 <ele>6.3</ele>
			 </trkpt>
			 <trkpt lat="51.498582" lon="-0.060846">
				 <ele>6.1</ele>
			 </trkpt>
			 <trkpt lat="51.498486" lon="-0.061552">
				 <ele>6</ele>
			 </trkpt>
			 <trkpt lat="51.49839" lon="-0.062257">
				 <ele>6.1</ele>
			 </trkpt>
			 <trkpt lat="51.498377" lon="-0.062355">
				 <ele>6.1</ele>
			 </trkpt>
			 <trkpt lat="51.498284" lon="-0.063062">
				 <ele>5.9</ele>
			 </trkpt>
			 <trkpt lat="51.498192" lon="-0.063769">
				 <ele>5.7</ele>
			 </trkpt>
			 <trkpt lat="51.498099" lon="-0.064476">
				 <ele>5.9</ele>
			 </trkpt>
			 <trkpt lat="51.49804" lon="-0.06493">
				 <ele>6.1</ele>
			 </trkpt>
			 <trkpt lat="51.497979" lon="-0.065646">
				 <ele>6.5</ele>
			 </trkpt>
			 <trkpt lat="51.497957" lon="-0.065895">
				 <ele>6.9</ele>
			 </trkpt>
			 <trkpt lat="51.497987" lon="-0.066616">
				 <ele>7.2</ele>
			 </trkpt>
			 <trkpt lat="51.498005" lon="-0.067042">
				 <ele>7.1</ele>
			 </trkpt>
			 <trkpt lat="51.49807" lon="-0.067584">
				 <ele>7</ele>
			 </trkpt>
			 <trkpt lat="51.498188" lon="-0.068281">
				 <ele>6.7</ele>
			 </trkpt>
			 <trkpt lat="51.498225" lon="-0.068502">
				 <ele>6.6</ele>
			 </trkpt>
			 <trkpt lat="51.498432" lon="-0.069144">
				 <ele>6.7</ele>
			 </trkpt>
			 <trkpt lat="51.498585" lon="-0.06962">
				 <ele>6.7</ele>
			 </trkpt>
			 <trkpt lat="51.498823" lon="-0.070234">
				 <ele>6.5</ele>
			 </trkpt>
			 <trkpt lat="51.498878" lon="-0.070377">
				 <ele>6.3</ele>
			 </trkpt>
			 <trkpt lat="51.499024" lon="-0.070829">
				 <ele>5.9</ele>
			 </trkpt>
			 <trkpt lat="51.499306" lon="-0.071392">
				 <ele>5.7</ele>
			 </trkpt>
			 <trkpt lat="51.499618" lon="-0.071934">
				 <ele>5.7</ele>
			 </trkpt>
			 <trkpt lat="51.499738" lon="-0.072141">
				 <ele>6.1</ele>
			 </trkpt>
			 <trkpt lat="51.499995" lon="-0.072521">
				 <ele>6.3</ele>
			 </trkpt>
			 <trkpt lat="51.500138" lon="-0.072818">
				 <ele>6.5</ele>
			 </trkpt>
			 <trkpt lat="51.500256" lon="-0.073212">
				 <ele>6.5</ele>
			 </trkpt>
			 <trkpt lat="51.500445" lon="-0.073868">
				 <ele>6.6</ele>
			 </trkpt>
			 <trkpt lat="51.500457" lon="-0.073909">
				 <ele>6.9</ele>
			 </trkpt>
			 <trkpt lat="51.500597" lon="-0.074372">
				 <ele>7.4</ele>
			 </trkpt>
			 <trkpt lat="51.50088" lon="-0.074935">
				 <ele>8</ele>
			 </trkpt>
			 <trkpt lat="51.501162" lon="-0.075497">
				 <ele>8.8</ele>
			 </trkpt>
			 <trkpt lat="51.501444" lon="-0.076059">
				 <ele>8.7</ele>
			 </trkpt>
			 <trkpt lat="51.50158" lon="-0.07633">
				 <ele>8.5</ele>
			 </trkpt>
			 <trkpt lat="51.501907" lon="-0.076826">
				 <ele>8.5</ele>
			 </trkpt>
			 <trkpt lat="51.502164" lon="-0.077215">
				 <ele>8.5</ele>
			 </trkpt>
			 <trkpt lat="51.502375" lon="-0.077408">
				 <ele>8.6</ele>
			 </trkpt>
			 <trkpt lat="51.502799" lon="-0.077166">
				 <ele>8.2</ele>
			 </trkpt>
			 <trkpt lat="51.50302" lon="-0.07704">
				 <ele>7.5</ele>
			 </trkpt>
			 <trkpt lat="51.50369" lon="-0.07659">
				 <ele>6.9</ele>
			 </trkpt>
			 <trkpt lat="51.5039" lon="-0.07645">
				 <ele>6.5</ele>
			 </trkpt>
			 <trkpt lat="51.50383" lon="-0.0765">
				 <ele>6</ele>
			 </trkpt>
			 <trkpt lat="51.50456" lon="-0.076008">
				 <ele>5.4</ele>
			 </trkpt>
			 <trkpt lat="51.50529" lon="-0.075515">
				 <ele>5.4</ele>
			 </trkpt>
			 <trkpt lat="51.50602" lon="-0.075023">
				 <ele>5.5</ele>
			 </trkpt>
			 <trkpt lat="51.50675" lon="-0.07453">
				 <ele>5</ele>
			 </trkpt>
			 <trkpt lat="51.50697" lon="-0.07439">
				 <ele>5</ele>
			 </trkpt>
			 <trkpt lat="51.50701" lon="-0.07434">
				 <ele>5.2</ele>
			 </trkpt>
			 <trkpt lat="51.50711" lon="-0.07427">
				 <ele>5.9</ele>
			 </trkpt>
			 <trkpt lat="51.50714" lon="-0.07427">
				 <ele>6.8</ele>
			 </trkpt>
			 <trkpt lat="51.5077" lon="-0.0742">
				 <ele>9</ele>
			 </trkpt>
			 <trkpt lat="51.50835" lon="-0.07405">
				 <ele>10.8</ele>
			 </trkpt>
			 <trkpt lat="51.50867" lon="-0.07398">
				 <ele>12.3</ele>
			 </trkpt>
			 <trkpt lat="51.50892" lon="-0.0738">
				 <ele>12.9</ele>
			 </trkpt>
			 <trkpt lat="51.50901" lon="-0.07367">
				 <ele>13.2</ele>
			 </trkpt>
			 <trkpt lat="51.5086" lon="-0.07246">
				 <ele>13.7</ele>
			 </trkpt>
			 <trkpt lat="51.5083" lon="-0.07149">
				 <ele>15.3</ele>
			 </trkpt>
			 <trkpt lat="51.5083" lon="-0.07105">
				 <ele>16.1</ele>
			 </trkpt>
			 <trkpt lat="51.50849" lon="-0.06976">
				 <ele>16</ele>
			 </trkpt>
			 <trkpt lat="51.50862" lon="-0.0691">
				 <ele>15.9</ele>
			 </trkpt>
			 <trkpt lat="51.50877" lon="-0.06856">
				 <ele>16.5</ele>
			 </trkpt>
			 <trkpt lat="51.50897" lon="-0.067905">
				 <ele>16.3</ele>
			 </trkpt>
			 <trkpt lat="51.50917" lon="-0.06725">
				 <ele>15.5</ele>
			 </trkpt>
			 <trkpt lat="51.50934" lon="-0.06627">
				 <ele>14.7</ele>
			 </trkpt>
			 <trkpt lat="51.50933" lon="-0.0658">
				 <ele>14.5</ele>
			 </trkpt>
			 <trkpt lat="51.50928" lon="-0.06479">
				 <ele>14.4</ele>
			 </trkpt>
			 <trkpt lat="51.509285" lon="-0.064045">
				 <ele>14.1</ele>
			 </trkpt>
			 <trkpt lat="51.50929" lon="-0.0633">
				 <ele>13.5</ele>
			 </trkpt>
			 <trkpt lat="51.509335" lon="-0.06202">
				 <ele>13.1</ele>
			 </trkpt>
			 <trkpt lat="51.50938" lon="-0.06074">
				 <ele>13.4</ele>
			 </trkpt>
			 <trkpt lat="51.509459" lon="-0.060029">
				 <ele>13.5</ele>
			 </trkpt>
			 <trkpt lat="51.509537" lon="-0.059317">
				 <ele>12.8</ele>
			 </trkpt>
			 <trkpt lat="51.509616" lon="-0.058606">
				 <ele>11.7</ele>
			 </trkpt>
			 <trkpt lat="51.509648" lon="-0.05832">
				 <ele>11.4</ele>
			 </trkpt>
			 <trkpt lat="51.50969" lon="-0.057601">
				 <ele>11.1</ele>
			 </trkpt>
			 <trkpt lat="51.509713" lon="-0.056921">
				 <ele>11.1</ele>
			 </trkpt>
			 <trkpt lat="51.509671" lon="-0.056202">
				 <ele>11.2</ele>
			 </trkpt>
			 <trkpt lat="51.50963" lon="-0.055482">
				 <ele>11.5</ele>
			 </trkpt>
			 <trkpt lat="51.509611" lon="-0.055155">
				 <ele>11.5</ele>
			 </trkpt>
			 <trkpt lat="51.509618" lon="-0.054433">
				 <ele>11.4</ele>
			 </trkpt>
			 <trkpt lat="51.509622" lon="-0.053953">
				 <ele>11.2</ele>
			 </trkpt>
			 <trkpt lat="51.509642" lon="-0.053432">
				 <ele>11.2</ele>
			 </trkpt>
			 <trkpt lat="51.509664" lon="-0.05271">
				 <ele>11.2</ele>
			 </trkpt>
			 <trkpt lat="51.509686" lon="-0.051988">
				 <ele>11.4</ele>
			 </trkpt>
			 <trkpt lat="51.509708" lon="-0.051267">
				 <ele>11.4</ele>
			 </trkpt>
			 <trkpt lat="51.509711" lon="-0.051176">
				 <ele>11.4</ele>
			 </trkpt>
			 <trkpt lat="51.509723" lon="-0.050454">
				 <ele>11.5</ele>
			 </trkpt>
			 <trkpt lat="51.509735" lon="-0.049732">
				 <ele>11.9</ele>
			 </trkpt>
			 <trkpt lat="51.509746" lon="-0.049009">
				 <ele>11.7</ele>
			 </trkpt>
			 <trkpt lat="51.509758" lon="-0.048287">
				 <ele>11.5</ele>
			 </trkpt>
			 <trkpt lat="51.50977" lon="-0.04757">
				 <ele>11.2</ele>
			 </trkpt>
			 <trkpt lat="51.50989" lon="-0.04693">
				 <ele>11</ele>
			 </trkpt>
			 <trkpt lat="51.51016" lon="-0.04595">
				 <ele>11</ele>
			 </trkpt>
			 <trkpt lat="51.51025" lon="-0.04477">
				 <ele>11</ele>
			 </trkpt>
			 <trkpt lat="51.51034" lon="-0.04359">
				 <ele>10.9</ele>
			 </trkpt>
			 <trkpt lat="51.51049" lon="-0.04218">
				 <ele>11.1</ele>
			 </trkpt>
			 <trkpt lat="51.51046" lon="-0.04183">
				 <ele>11.3</ele>
			 </trkpt>
			 <trkpt lat="51.510194" lon="-0.041692">
				 <ele>11.2</ele>
			 </trkpt>
			 <trkpt lat="51.510156" lon="-0.041674">
				 <ele>10.5</ele>
			 </trkpt>
			 <trkpt lat="51.510123" lon="-0.041603">
				 <ele>10.3</ele>
			 </trkpt>
			 <trkpt lat="51.510074" lon="-0.040529">
				 <ele>9.8</ele>
			 </trkpt>
			 <trkpt lat="51.510058" lon="-0.040429">
				 <ele>9.7</ele>
			 </trkpt>
			 <trkpt lat="51.510003" lon="-0.039526">
				 <ele>9.5</ele>
			 </trkpt>
			 <trkpt lat="51.509932" lon="-0.038654">
				 <ele>9.1</ele>
			 </trkpt>
			 <trkpt lat="51.509863" lon="-0.038225">
				 <ele>9</ele>
			 </trkpt>
			 <trkpt lat="51.509826" lon="-0.03793">
				 <ele>8.9</ele>
			 </trkpt>
			 <trkpt lat="51.509825" lon="-0.037875">
				 <ele>8.5</ele>
			 </trkpt>
			 <trkpt lat="51.509648" lon="-0.036864">
				 <ele>8</ele>
			 </trkpt>
			 <trkpt lat="51.509433" lon="-0.035817">
				 <ele>7.5</ele>
			 </trkpt>
			 <trkpt lat="51.509293" lon="-0.034976">
				 <ele>7.8</ele>
			 </trkpt>
			 <trkpt lat="51.509228" lon="-0.034712">
				 <ele>8</ele>
			 </trkpt>
			 <trkpt lat="51.508994" lon="-0.03393">
				 <ele>8.2</ele>
			 </trkpt>
			 <trkpt lat="51.508954" lon="-0.033772">
				 <ele>8.3</ele>
			 </trkpt>
			 <trkpt lat="51.508821" lon="-0.033063">
				 <ele>8.4</ele>
			 </trkpt>
			 <trkpt lat="51.508664" lon="-0.032279">
				 <ele>8.6</ele>
			 </trkpt>
			 <trkpt lat="51.508644" lon="-0.032033">
				 <ele>8.4</ele>
			 </trkpt>
			 <trkpt lat="51.508644" lon="-0.031863">
				 <ele>8.1</ele>
			 </trkpt>
			 <trkpt lat="51.508654" lon="-0.031702">
				 <ele>7.9</ele>
			 </trkpt>
			 <trkpt lat="51.508706" lon="-0.031408">
				 <ele>7.7</ele>
			 </trkpt>
			 <trkpt lat="51.509041" lon="-0.030339">
				 <ele>7.6</ele>
			 </trkpt>
			 <trkpt lat="51.509135" lon="-0.029981">
				 <ele>7.5</ele>
			 </trkpt>
			 <trkpt lat="51.50916" lon="-0.029843">
				 <ele>7.3</ele>
			 </trkpt>
			 <trkpt lat="51.509311" lon="-0.02872">
				 <ele>7.1</ele>
			 </trkpt>
			 <trkpt lat="51.509311" lon="-0.02864">
				 <ele>6.9</ele>
			 </trkpt>
			 <trkpt lat="51.509258" lon="-0.027987">
				 <ele>6.9</ele>
			 </trkpt>
			 <trkpt lat="51.509252" lon="-0.027428">
				 <ele>6.6</ele>
			 </trkpt>
			 <trkpt lat="51.509278" lon="-0.027273">
				 <ele>6.5</ele>
			 </trkpt>
			 <trkpt lat="51.50937" lon="-0.026937">
				 <ele>6.3</ele>
			 </trkpt>
			 <trkpt lat="51.5091" lon="-0.0268">
				 <ele>6</ele>
			 </trkpt>
			 <trkpt lat="51.5089" lon="-0.02683">
				 <ele>5.6</ele>
			 </trkpt>
			 <trkpt lat="51.50851" lon="-0.0271">
				 <ele>5.3</ele>
			 </trkpt>
			 <trkpt lat="51.50848" lon="-0.02712">
				 <ele>5.2</ele>
			 </trkpt>
			 <trkpt lat="51.50839" lon="-0.02719">
				 <ele>6.4</ele>
			 </trkpt>
			 <trkpt lat="51.50792" lon="-0.02736">
				 <ele>8</ele>
			 </trkpt>
			 <trkpt lat="51.50778" lon="-0.02742">
				 <ele>8.7</ele>
			 </trkpt>
			 <trkpt lat="51.50769" lon="-0.02745">
				 <ele>9.2</ele>
			 </trkpt>
			 <trkpt lat="51.50707" lon="-0.02757">
				 <ele>9.7</ele>
			 </trkpt>
			 <trkpt lat="51.506629" lon="-0.027426">
				 <ele>10.2</ele>
			 </trkpt>
			 <trkpt lat="51.506401" lon="-0.027352">
				 <ele>10.4</ele>
			 </trkpt>
			 <trkpt lat="51.505951" lon="-0.027344">
				 <ele>9.9</ele>
			 </trkpt>
			 <trkpt lat="51.50568" lon="-0.02734">
				 <ele>9.6</ele>
			 </trkpt>
			 <trkpt lat="51.5055" lon="-0.0272">
				 <ele>9.4</ele>
			 </trkpt>
			 <trkpt lat="51.50543" lon="-0.02694">
				 <ele>8.7</ele>
			 </trkpt>
			 <trkpt lat="51.50529" lon="-0.02668">
				 <ele>6.7</ele>
			 </trkpt>
			 <trkpt lat="51.5047" lon="-0.02592">
				 <ele>4.6</ele>
			 </trkpt>
			 <trkpt lat="51.50454" lon="-0.02578">
				 <ele>3.6</ele>
			 </trkpt>
			 <trkpt lat="51.5044" lon="-0.02571">
				 <ele>2.9</ele>
			 </trkpt>
			 <trkpt lat="51.50422" lon="-0.02567">
				 <ele>2.4</ele>
			 </trkpt>
			 <trkpt lat="51.50381" lon="-0.02568">
				 <ele>1.9</ele>
			 </trkpt>
			 <trkpt lat="51.50355" lon="-0.02567">
				 <ele>1.5</ele>
			 </trkpt>
			 <trkpt lat="51.50342" lon="-0.02573">
				 <ele>2.1</ele>
			 </trkpt>
			 <trkpt lat="51.50326" lon="-0.02571">
				 <ele>3</ele>
			 </trkpt>
			 <trkpt lat="51.50322" lon="-0.02569">
				 <ele>3.8</ele>
			 </trkpt>
			 <trkpt lat="51.50318" lon="-0.02569">
				 <ele>4.4</ele>
			 </trkpt>
			 <trkpt lat="51.5024" lon="-0.02587">
				 <ele>5</ele>
			 </trkpt>
			 <trkpt lat="51.50158" lon="-0.02594">
				 <ele>5.4</ele>
			 </trkpt>
			 <trkpt lat="51.50093" lon="-0.02603">
				 <ele>5.5</ele>
			 </trkpt>
			 <trkpt lat="51.50069" lon="-0.02603">
				 <ele>5.6</ele>
			 </trkpt>
			 <trkpt lat="51.4999" lon="-0.02603">
				 <ele>5.7</ele>
			 </trkpt>
			 <trkpt lat="51.499285" lon="-0.025975">
				 <ele>5.7</ele>
			 </trkpt>
			 <trkpt lat="51.49867" lon="-0.02592">
				 <ele>5.9</ele>
			 </trkpt>
			 <trkpt lat="51.49817" lon="-0.0259">
				 <ele>5.7</ele>
			 </trkpt>
			 <trkpt lat="51.49777" lon="-0.02585">
				 <ele>5.1</ele>
			 </trkpt>
			 <trkpt lat="51.49729" lon="-0.02582">
				 <ele>4.9</ele>
			 </trkpt>
			 <trkpt lat="51.49681" lon="-0.02579">
				 <ele>4.9</ele>
			 </trkpt>
			 <trkpt lat="51.495955" lon="-0.025695">
				 <ele>4.9</ele>
			 </trkpt>
			 <trkpt lat="51.4951" lon="-0.0256">
				 <ele>4.8</ele>
			 </trkpt>
			 <trkpt lat="51.49504" lon="-0.02558">
				 <ele>4.7</ele>
			 </trkpt>
			 <trkpt lat="51.49457" lon="-0.02503">
				 <ele>4.5</ele>
			 </trkpt>
			 <trkpt lat="51.49442" lon="-0.02494">
				 <ele>4.5</ele>
			 </trkpt>
			 <trkpt lat="51.49425" lon="-0.02492">
				 <ele>4.4</ele>
			 </trkpt>
			 <trkpt lat="51.49369" lon="-0.02488">
				 <ele>4.1</ele>
			 </trkpt>
			 <trkpt lat="51.49289" lon="-0.0249">
				 <ele>4.1</ele>
			 </trkpt>
			 <trkpt lat="51.49281" lon="-0.02489">
				 <ele>4.1</ele>
			 </trkpt>
			 <trkpt lat="51.49239" lon="-0.02468">
				 <ele>3.8</ele>
			 </trkpt>
			 <trkpt lat="51.49204" lon="-0.02446">
				 <ele>3.5</ele>
			 </trkpt>
			 <trkpt lat="51.49162" lon="-0.02416">
				 <ele>3.5</ele>
			 </trkpt>
			 <trkpt lat="51.49127" lon="-0.02385">
				 <ele>3.5</ele>
			 </trkpt>
			 <trkpt lat="51.490875" lon="-0.02337">
				 <ele>3.5</ele>
			 </trkpt>
			 <trkpt lat="51.49048" lon="-0.02289">
				 <ele>4</ele>
			 </trkpt>
			 <trkpt lat="51.49007" lon="-0.02236">
				 <ele>4.3</ele>
			 </trkpt>
			 <trkpt lat="51.48965" lon="-0.02166">
				 <ele>4.4</ele>
			 </trkpt>
			 <trkpt lat="51.48948" lon="-0.02133">
				 <ele>4.6</ele>
			 </trkpt>
			 <trkpt lat="51.48917" lon="-0.020675">
				 <ele>4.9</ele>
			 </trkpt>
			 <trkpt lat="51.48886" lon="-0.02002">
				 <ele>5.1</ele>
			 </trkpt>
			 <trkpt lat="51.488455" lon="-0.01908">
				 <ele>5.3</ele>
			 </trkpt>
			 <trkpt lat="51.48805" lon="-0.01814">
				 <ele>5.4</ele>
			 </trkpt>
			 <trkpt lat="51.48775" lon="-0.01737">
				 <ele>5.5</ele>
			 </trkpt>
			 <trkpt lat="51.48757" lon="-0.01687">
				 <ele>5.4</ele>
			 </trkpt>
			 <trkpt lat="51.48737" lon="-0.01624">
				 <ele>5.4</ele>
			 </trkpt>
			 <trkpt lat="51.48728" lon="-0.01563">
				 <ele>4.9</ele>
			 </trkpt>
			 <trkpt lat="51.48721" lon="-0.01471">
				 <ele>4.5</ele>
			 </trkpt>
			 <trkpt lat="51.48722" lon="-0.01391">
				 <ele>4.3</ele>
			 </trkpt>
			 <trkpt lat="51.48727" lon="-0.01342">
				 <ele>4</ele>
			 </trkpt>
			 <trkpt lat="51.48761" lon="-0.01338">
				 <ele>3.7</ele>
			 </trkpt>
			 <trkpt lat="51.48828" lon="-0.01343">
				 <ele>3.5</ele>
			 </trkpt>
			 <trkpt lat="51.48852" lon="-0.01349">
				 <ele>3.4</ele>
			 </trkpt>
			 <trkpt lat="51.48883" lon="-0.01364">
				 <ele>3.4</ele>
			 </trkpt>
			 <trkpt lat="51.48933" lon="-0.01407">
				 <ele>3.2</ele>
			 </trkpt>
			 <trkpt lat="51.4895" lon="-0.01412">
				 <ele>3.2</ele>
			 </trkpt>
			 <trkpt lat="51.48977" lon="-0.01416">
				 <ele>3.2</ele>
			 </trkpt>
			 <trkpt lat="51.49002" lon="-0.01414">
				 <ele>3.3</ele>
			 </trkpt>
			 <trkpt lat="51.49023" lon="-0.01419">
				 <ele>3.4</ele>
			 </trkpt>
			 <trkpt lat="51.49047" lon="-0.01431">
				 <ele>3.5</ele>
			 </trkpt>
			 <trkpt lat="51.49056" lon="-0.01436">
				 <ele>3.8</ele>
			 </trkpt>
			 <trkpt lat="51.49078" lon="-0.01454">
				 <ele>4.3</ele>
			 </trkpt>
			 <trkpt lat="51.49101" lon="-0.01462">
				 <ele>4.8</ele>
			 </trkpt>
			 <trkpt lat="51.4911" lon="-0.01467">
				 <ele>5.2</ele>
			 </trkpt>
			 <trkpt lat="51.49152" lon="-0.01472">
				 <ele>5.6</ele>
			 </trkpt>
			 <trkpt lat="51.492" lon="-0.01467">
				 <ele>5.9</ele>
			 </trkpt>
			 <trkpt lat="51.49248" lon="-0.01462">
				 <ele>6</ele>
			 </trkpt>
			 <trkpt lat="51.493185" lon="-0.014505">
				 <ele>6.2</ele>
			 </trkpt>
			 <trkpt lat="51.49389" lon="-0.01439">
				 <ele>6.4</ele>
			 </trkpt>
			 <trkpt lat="51.494595" lon="-0.014275">
				 <ele>6.7</ele>
			 </trkpt>
			 <trkpt lat="51.4953" lon="-0.01416">
				 <ele>7.1</ele>
			 </trkpt>
			 <trkpt lat="51.49573" lon="-0.01411">
				 <ele>7</ele>
			 </trkpt>
			 <trkpt lat="51.49596" lon="-0.01411">
				 <ele>6.8</ele>
			 </trkpt>
			 <trkpt lat="51.49628" lon="-0.01415">
				 <ele>6.7</ele>
			 </trkpt>
			 <trkpt lat="51.49666" lon="-0.01411">
				 <ele>6.9</ele>
			 </trkpt>
			 <trkpt lat="51.49687" lon="-0.01405">
				 <ele>7</ele>
			 </trkpt>
			 <trkpt lat="51.49737" lon="-0.01382">
				 <ele>7.5</ele>
			 </trkpt>
			 <trkpt lat="51.49758" lon="-0.01377">
				 <ele>7.7</ele>
			 </trkpt>
			 <trkpt lat="51.49842" lon="-0.01364">
				 <ele>7.7</ele>
			 </trkpt>
			 <trkpt lat="51.49926" lon="-0.01351">
				 <ele>8.3</ele>
			 </trkpt>
			 <trkpt lat="51.49977" lon="-0.0137">
				 <ele>7.4</ele>
			 </trkpt>
			 <trkpt lat="51.49997" lon="-0.0146">
				 <ele>7.5</ele>
			 </trkpt>
			 <trkpt lat="51.5001" lon="-0.01574">
				 <ele>8</ele>
			 </trkpt>
			 <trkpt lat="51.50022" lon="-0.01688">
				 <ele>8.2</ele>
			 </trkpt>
			 <trkpt lat="51.50034" lon="-0.01802">
				 <ele>8.3</ele>
			 </trkpt>
			 <trkpt lat="51.50046" lon="-0.01916">
				 <ele>8.3</ele>
			 </trkpt>
			 <trkpt lat="51.50072" lon="-0.0204">
				 <ele>8.2</ele>
			 </trkpt>
			 <trkpt lat="51.50098" lon="-0.02164">
				 <ele>8</ele>
			 </trkpt>
			 <trkpt lat="51.50124" lon="-0.02299">
				 <ele>7.7</ele>
			 </trkpt>
			 <trkpt lat="51.50129" lon="-0.02315">
				 <ele>7.7</ele>
			 </trkpt>
			 <trkpt lat="51.50138" lon="-0.02338">
				 <ele>7.2</ele>
			 </trkpt>
			 <trkpt lat="51.50148" lon="-0.02355">
				 <ele>7.9</ele>
			 </trkpt>
			 <trkpt lat="51.502115" lon="-0.0243">
				 <ele>7.5</ele>
			 </trkpt>
			 <trkpt lat="51.50275" lon="-0.02505">
				 <ele>7.1</ele>
			 </trkpt>
			 <trkpt lat="51.50292" lon="-0.02513">
				 <ele>7</ele>
			 </trkpt>
			 <trkpt lat="51.50328" lon="-0.02521">
				 <ele>6.8</ele>
			 </trkpt>
			 <trkpt lat="51.50358" lon="-0.02524">
				 <ele>6.4</ele>
			 </trkpt>
			 <trkpt lat="51.50354" lon="-0.02524">
				 <ele>6.7</ele>
			 </trkpt>
			 <trkpt lat="51.50385" lon="-0.02518">
				 <ele>8.9</ele>
			 </trkpt>
			 <trkpt lat="51.50387" lon="-0.02508">
				 <ele>11.5</ele>
			 </trkpt>
			 <trkpt lat="51.50382" lon="-0.0246">
				 <ele>13.9</ele>
			 </trkpt>
			 <trkpt lat="51.50374" lon="-0.02378">
				 <ele>16.4</ele>
			 </trkpt>
			 <trkpt lat="51.5036" lon="-0.02258">
				 <ele>18.6</ele>
			 </trkpt>
			 <trkpt lat="51.5035" lon="-0.02124">
				 <ele>20.2</ele>
			 </trkpt>
			 <trkpt lat="51.50339" lon="-0.0204">
				 <ele>21.4</ele>
			 </trkpt>
			 <trkpt lat="51.50333" lon="-0.02007">
				 <ele>22.9</ele>
			 </trkpt>
			 <trkpt lat="51.50328" lon="-0.01996">
				 <ele>24.5</ele>
			 </trkpt>
			 <trkpt lat="51.50323" lon="-0.0199">
				 <ele>26</ele>
			 </trkpt>
			 <trkpt lat="51.50312" lon="-0.01992">
				 <ele>26.5</ele>
			 </trkpt>
			 <trkpt lat="51.50302" lon="-0.01986">
				 <ele>25.4</ele>
			 </trkpt>
			 <trkpt lat="51.50297" lon="-0.01958">
				 <ele>24.1</ele>
			 </trkpt>
			 <trkpt lat="51.50288" lon="-0.0188">
				 <ele>22.9</ele>
			 </trkpt>
			 <trkpt lat="51.50276" lon="-0.01764">
				 <ele>21.6</ele>
			 </trkpt>
			 <trkpt lat="51.50322" lon="-0.01747">
				 <ele>20.5</ele>
			 </trkpt>
			 <trkpt lat="51.50349" lon="-0.01743">
				 <ele>20.6</ele>
			 </trkpt>
			 <trkpt lat="51.50357" lon="-0.01737">
				 <ele>20.5</ele>
			 </trkpt>
			 <trkpt lat="51.50371" lon="-0.01735">
				 <ele>20.1</ele>
			 </trkpt>
			 <trkpt lat="51.504355" lon="-0.017165">
				 <ele>19.2</ele>
			 </trkpt>
			 <trkpt lat="51.505" lon="-0.01698">
				 <ele>18.5</ele>
			 </trkpt>
			 <trkpt lat="51.504895" lon="-0.01598">
				 <ele>18.5</ele>
			 </trkpt>
			 <trkpt lat="51.50479" lon="-0.01498">
				 <ele>17.8</ele>
			 </trkpt>
			 <trkpt lat="51.50474" lon="-0.01468">
				 <ele>17.9</ele>
			 </trkpt>
			 <trkpt lat="51.50471" lon="-0.0146">
				 <ele>17.9</ele>
			 </trkpt>
			 <trkpt lat="51.50464" lon="-0.0145">
				 <ele>17.6</ele>
			 </trkpt>
			 <trkpt lat="51.50456" lon="-0.01441">
				 <ele>16.5</ele>
			 </trkpt>
			 <trkpt lat="51.50441" lon="-0.01437">
				 <ele>14.8</ele>
			 </trkpt>
			 <trkpt lat="51.50433" lon="-0.0144">
				 <ele>13.9</ele>
			 </trkpt>
			 <trkpt lat="51.50429" lon="-0.01441">
				 <ele>12.4</ele>
			 </trkpt>
			 <trkpt lat="51.504114" lon="-0.014665">
				 <ele>11.1</ele>
			 </trkpt>
			 <trkpt lat="51.504135" lon="-0.015386">
				 <ele>10</ele>
			 </trkpt>
			 <trkpt lat="51.504139" lon="-0.01554">
				 <ele>8.5</ele>
			 </trkpt>
			 <trkpt lat="51.503705" lon="-0.01573">
				 <ele>7.7</ele>
			 </trkpt>
			 <trkpt lat="51.503317" lon="-0.0159">
				 <ele>6.2</ele>
			 </trkpt>
			 <trkpt lat="51.503041" lon="-0.015926">
				 <ele>4.7</ele>
			 </trkpt>
			 <trkpt lat="51.502963" lon="-0.015214">
				 <ele>3.7</ele>
			 </trkpt>
			 <trkpt lat="51.502885" lon="-0.014503">
				 <ele>3.7</ele>
			 </trkpt>
			 <trkpt lat="51.502807" lon="-0.013791">
				 <ele>3.7</ele>
			 </trkpt>
			 <trkpt lat="51.50241" lon="-0.013743">
				 <ele>3.7</ele>
			 </trkpt>
			 <trkpt lat="51.502319" lon="-0.013036">
				 <ele>4.5</ele>
			 </trkpt>
			 <trkpt lat="51.5023" lon="-0.01289">
				 <ele>5.7</ele>
			 </trkpt>
			 <trkpt lat="51.50307" lon="-0.01268">
				 <ele>7.5</ele>
			 </trkpt>
			 <trkpt lat="51.50384" lon="-0.01247">
				 <ele>9.3</ele>
			 </trkpt>
			 <trkpt lat="51.50391" lon="-0.01249">
				 <ele>10</ele>
			 </trkpt>
			 <trkpt lat="51.50404" lon="-0.01282">
				 <ele>10.1</ele>
			 </trkpt>
			 <trkpt lat="51.50406" lon="-0.01301">
				 <ele>10.5</ele>
			 </trkpt>
			 <trkpt lat="51.50413" lon="-0.01317">
				 <ele>10.7</ele>
			 </trkpt>
			 <trkpt lat="51.50424" lon="-0.01314">
				 <ele>10.8</ele>
			 </trkpt>
			 <trkpt lat="51.50445" lon="-0.01266">
				 <ele>11</ele>
			 </trkpt>
			 <trkpt lat="51.50489" lon="-0.01196">
				 <ele>11.1</ele>
			 </trkpt>
			 <trkpt lat="51.50542" lon="-0.01126">
				 <ele>10.8</ele>
			 </trkpt>
			 <trkpt lat="51.50569" lon="-0.01096">
				 <ele>10.2</ele>
			 </trkpt>
			 <trkpt lat="51.50587" lon="-0.01081">
				 <ele>9.1</ele>
			 </trkpt>
			 <trkpt lat="51.50606" lon="-0.01071">
				 <ele>7.8</ele>
			 </trkpt>
			 <trkpt lat="51.50658" lon="-0.0105">
				 <ele>7.4</ele>
			 </trkpt>
			 <trkpt lat="51.5067" lon="-0.01036">
				 <ele>7.5</ele>
			 </trkpt>
			 <trkpt lat="51.50673" lon="-0.01031">
				 <ele>7.4</ele>
			 </trkpt>
			 <trkpt lat="51.50674" lon="-0.01022">
				 <ele>7.2</ele>
			 </trkpt>
			 <trkpt lat="51.50676" lon="-0.00993">
				 <ele>7</ele>
			 </trkpt>
			 <trkpt lat="51.50672" lon="-0.0097">
				 <ele>6.7</ele>
			 </trkpt>
			 <trkpt lat="51.50673" lon="-0.0095">
				 <ele>6.5</ele>
			 </trkpt>
			 <trkpt lat="51.50672" lon="-0.0093">
				 <ele>6.1</ele>
			 </trkpt>
			 <trkpt lat="51.50673" lon="-0.00902">
				 <ele>5.6</ele>
			 </trkpt>
			 <trkpt lat="51.50679" lon="-0.00879">
				 <ele>5.2</ele>
			 </trkpt>
			 <trkpt lat="51.50686" lon="-0.00865">
				 <ele>4.9</ele>
			 </trkpt>
			 <trkpt lat="51.50698" lon="-0.00852">
				 <ele>4.6</ele>
			 </trkpt>
			 <trkpt lat="51.50706" lon="-0.00834">
				 <ele>4.5</ele>
			 </trkpt>
			 <trkpt lat="51.50713" lon="-0.00797">
				 <ele>4.6</ele>
			 </trkpt>
			 <trkpt lat="51.50719" lon="-0.00778">
				 <ele>4.7</ele>
			 </trkpt>
			 <trkpt lat="51.50727" lon="-0.00763">
				 <ele>4.7</ele>
			 </trkpt>
			 <trkpt lat="51.50733" lon="-0.00757">
				 <ele>4.7</ele>
			 </trkpt>
			 <trkpt lat="51.50747" lon="-0.00751">
				 <ele>4.8</ele>
			 </trkpt>
			 <trkpt lat="51.50757" lon="-0.00755">
				 <ele>5.3</ele>
			 </trkpt>
			 <trkpt lat="51.507905" lon="-0.008035">
				 <ele>5.8</ele>
			 </trkpt>
			 <trkpt lat="51.50824" lon="-0.00852">
				 <ele>6.4</ele>
			 </trkpt>
			 <trkpt lat="51.50868" lon="-0.00895">
				 <ele>6.4</ele>
			 </trkpt>
			 <trkpt lat="51.50875" lon="-0.00933">
				 <ele>6.4</ele>
			 </trkpt>
			 <trkpt lat="51.50876" lon="-0.01033">
				 <ele>6.5</ele>
			 </trkpt>
			 <trkpt lat="51.50875" lon="-0.01051">
				 <ele>6.6</ele>
			 </trkpt>
			 <trkpt lat="51.508795" lon="-0.01133">
				 <ele>6.6</ele>
			 </trkpt>
			 <trkpt lat="51.50884" lon="-0.01215">
				 <ele>7</ele>
			 </trkpt>
			 <trkpt lat="51.50887" lon="-0.01265">
				 <ele>7.3</ele>
			 </trkpt>
			 <trkpt lat="51.508875" lon="-0.013585">
				 <ele>7.5</ele>
			 </trkpt>
			 <trkpt lat="51.50888" lon="-0.01452">
				 <ele>7.4</ele>
			 </trkpt>
			 <trkpt lat="51.50892" lon="-0.0156">
				 <ele>7.1</ele>
			 </trkpt>
			 <trkpt lat="51.50893" lon="-0.0168">
				 <ele>6.8</ele>
			 </trkpt>
			 <trkpt lat="51.50896" lon="-0.01768">
				 <ele>6.9</ele>
			 </trkpt>
			 <trkpt lat="51.50906" lon="-0.01854">
				 <ele>6.9</ele>
			 </trkpt>
			 <trkpt lat="51.50922" lon="-0.0196">
				 <ele>6.6</ele>
			 </trkpt>
			 <trkpt lat="51.50931" lon="-0.02058">
				 <ele>6.3</ele>
			 </trkpt>
			 <trkpt lat="51.50935" lon="-0.02119">
				 <ele>6</ele>
			 </trkpt>
			 <trkpt lat="51.50937" lon="-0.02126">
				 <ele>5.7</ele>
			 </trkpt>
			 <trkpt lat="51.50933" lon="-0.02125">
				 <ele>5.5</ele>
			 </trkpt>
			 <trkpt lat="51.509155" lon="-0.0224">
				 <ele>5.1</ele>
			 </trkpt>
			 <trkpt lat="51.50898" lon="-0.02355">
				 <ele>5.1</ele>
			 </trkpt>
			 <trkpt lat="51.50897" lon="-0.0241">
				 <ele>5.3</ele>
			 </trkpt>
			 <trkpt lat="51.50919" lon="-0.02476">
				 <ele>5.4</ele>
			 </trkpt>
			 <trkpt lat="51.50958" lon="-0.02538">
				 <ele>5.5</ele>
			 </trkpt>
			 <trkpt lat="51.50976" lon="-0.02594">
				 <ele>6.1</ele>
			 </trkpt>
			 <trkpt lat="51.510257" lon="-0.026567">
				 <ele>6.8</ele>
			 </trkpt>
			 <trkpt lat="51.510753" lon="-0.027193">
				 <ele>7.8</ele>
			 </trkpt>
			 <trkpt lat="51.51125" lon="-0.02782">
				 <ele>8.7</ele>
			 </trkpt>
			 <trkpt lat="51.51181" lon="-0.02871">
				 <ele>9.1</ele>
			 </trkpt>
			 <trkpt lat="51.51214" lon="-0.02932">
				 <ele>9.6</ele>
			 </trkpt>
			 <trkpt lat="51.51228" lon="-0.02962">
				 <ele>10.5</ele>
			 </trkpt>
			 <trkpt lat="51.51237" lon="-0.03012">
				 <ele>10.9</ele>
			 </trkpt>
			 <trkpt lat="51.51236" lon="-0.03066">
				 <ele>11.2</ele>
			 </trkpt>
			 <trkpt lat="51.51228" lon="-0.03145">
				 <ele>11.5</ele>
			 </trkpt>
			 <trkpt lat="51.51239" lon="-0.0326">
				 <ele>11.6</ele>
			 </trkpt>
			 <trkpt lat="51.512455" lon="-0.033875">
				 <ele>11.5</ele>
			 </trkpt>
			 <trkpt lat="51.51251" lon="-0.03515">
				 <ele>11.5</ele>
			 </trkpt>
			 <trkpt lat="51.51249" lon="-0.0354">
				 <ele>11.2</ele>
			 </trkpt>
			 <trkpt lat="51.51251" lon="-0.03577">
				 <ele>11</ele>
			 </trkpt>
			 <trkpt lat="51.51255" lon="-0.03587">
				 <ele>11.3</ele>
			 </trkpt>
			 <trkpt lat="51.512615" lon="-0.037195">
				 <ele>11.5</ele>
			 </trkpt>
			 <trkpt lat="51.51268" lon="-0.03852">
				 <ele>11.5</ele>
			 </trkpt>
			 <trkpt lat="51.51264" lon="-0.03869">
				 <ele>11.8</ele>
			 </trkpt>
			 <trkpt lat="51.51265" lon="-0.03878">
				 <ele>12.1</ele>
			 </trkpt>
			 <trkpt lat="51.5127" lon="-0.03894">
				 <ele>12.4</ele>
			 </trkpt>
			 <trkpt lat="51.51271" lon="-0.0391">
				 <ele>12.5</ele>
			 </trkpt>
			 <trkpt lat="51.51274" lon="-0.0397">
				 <ele>12.6</ele>
			 </trkpt>
			 <trkpt lat="51.51271" lon="-0.03982">
				 <ele>12.6</ele>
			 </trkpt>
			 <trkpt lat="51.51271" lon="-0.04003">
				 <ele>12.5</ele>
			 </trkpt>
			 <trkpt lat="51.51276" lon="-0.04018">
				 <ele>12.4</ele>
			 </trkpt>
			 <trkpt lat="51.51278" lon="-0.04082">
				 <ele>12.1</ele>
			 </trkpt>
			 <trkpt lat="51.51274" lon="-0.04122">
				 <ele>11.5</ele>
			 </trkpt>
			 <trkpt lat="51.51251" lon="-0.04149">
				 <ele>10.9</ele>
			 </trkpt>
			 <trkpt lat="51.51199" lon="-0.0418">
				 <ele>10.5</ele>
			 </trkpt>
			 <trkpt lat="51.51147" lon="-0.04211">
				 <ele>10.4</ele>
			 </trkpt>
			 <trkpt lat="51.51134" lon="-0.04216">
				 <ele>10.2</ele>
			 </trkpt>
			 <trkpt lat="51.51088" lon="-0.04218">
				 <ele>10.4</ele>
			 </trkpt>
			 <trkpt lat="51.51062" lon="-0.04229">
				 <ele>10.7</ele>
			 </trkpt>
			 <trkpt lat="51.51045" lon="-0.04301">
				 <ele>10.7</ele>
			 </trkpt>
			 <trkpt lat="51.51038" lon="-0.04384">
				 <ele>10.8</ele>
			 </trkpt>
			 <trkpt lat="51.510295" lon="-0.044855">
				 <ele>10.8</ele>
			 </trkpt>
			 <trkpt lat="51.51021" lon="-0.04587">
				 <ele>10.9</ele>
			 </trkpt>
			 <trkpt lat="51.51007" lon="-0.04641">
				 <ele>11.4</ele>
			 </trkpt>
			 <trkpt lat="51.50992" lon="-0.04696">
				 <ele>11.7</ele>
			 </trkpt>
			 <trkpt lat="51.50986" lon="-0.04729">
				 <ele>11.7</ele>
			 </trkpt>
			 <trkpt lat="51.50984" lon="-0.04771">
				 <ele>11.7</ele>
			 </trkpt>
			 <trkpt lat="51.5098" lon="-0.04837">
				 <ele>12</ele>
			 </trkpt>
			 <trkpt lat="51.509786" lon="-0.049092">
				 <ele>12</ele>
			 </trkpt>
			 <trkpt lat="51.509773" lon="-0.049814">
				 <ele>11.6</ele>
			 </trkpt>
			 <trkpt lat="51.509759" lon="-0.050536">
				 <ele>11.5</ele>
			 </trkpt>
			 <trkpt lat="51.509745" lon="-0.051259">
				 <ele>11.5</ele>
			 </trkpt>
			 <trkpt lat="51.509733" lon="-0.05187">
				 <ele>11.6</ele>
			 </trkpt>
			 <trkpt lat="51.509708" lon="-0.052592">
				 <ele>11.7</ele>
			 </trkpt>
			 <trkpt lat="51.509682" lon="-0.053313">
				 <ele>11.5</ele>
			 </trkpt>
			 <trkpt lat="51.509656" lon="-0.054034">
				 <ele>11.5</ele>
			 </trkpt>
			 <trkpt lat="51.509654" lon="-0.054083">
				 <ele>11.5</ele>
			 </trkpt>
			 <trkpt lat="51.509637" lon="-0.054805">
				 <ele>11.6</ele>
			 </trkpt>
			 <trkpt lat="51.50963" lon="-0.05509">
				 <ele>11.5</ele>
			 </trkpt>
			 <trkpt lat="51.509676" lon="-0.055809">
				 <ele>11.4</ele>
			 </trkpt>
			 <trkpt lat="51.509722" lon="-0.056527">
				 <ele>11.2</ele>
			 </trkpt>
			 <trkpt lat="51.509749" lon="-0.056943">
				 <ele>11.2</ele>
			 </trkpt>
			 <trkpt lat="51.509708" lon="-0.057663">
				 <ele>11.5</ele>
			 </trkpt>
			 <trkpt lat="51.509668" lon="-0.058368">
				 <ele>11.8</ele>
			 </trkpt>
			 <trkpt lat="51.509582" lon="-0.059077">
				 <ele>11.9</ele>
			 </trkpt>
			 <trkpt lat="51.509524" lon="-0.059813">
				 <ele>12.2</ele>
			 </trkpt>
			 <trkpt lat="51.509468" lon="-0.06053">
				 <ele>12.9</ele>
			 </trkpt>
			 <trkpt lat="51.509411" lon="-0.061246">
				 <ele>13.7</ele>
			 </trkpt>
			 <trkpt lat="51.50936" lon="-0.0619">
				 <ele>14.3</ele>
			 </trkpt>
			 <trkpt lat="51.509342" lon="-0.062622">
				 <ele>14.1</ele>
			 </trkpt>
			 <trkpt lat="51.509329" lon="-0.063111">
				 <ele>13.8</ele>
			 </trkpt>
			 <trkpt lat="51.509326" lon="-0.063833">
				 <ele>13.8</ele>
			 </trkpt>
			 <trkpt lat="51.509323" lon="-0.064556">
				 <ele>14.3</ele>
			 </trkpt>
			 <trkpt lat="51.509322" lon="-0.064792">
				 <ele>14.8</ele>
			 </trkpt>
			 <trkpt lat="51.50934" lon="-0.065514">
				 <ele>14.9</ele>
			 </trkpt>
			 <trkpt lat="51.509359" lon="-0.066236">
				 <ele>14.6</ele>
			 </trkpt>
			 <trkpt lat="51.50936" lon="-0.06629">
				 <ele>14.8</ele>
			 </trkpt>
			 <trkpt lat="51.50923" lon="-0.06716">
				 <ele>15</ele>
			 </trkpt>
			 <trkpt lat="51.50908" lon="-0.06772">
				 <ele>15.4</ele>
			 </trkpt>
			 <trkpt lat="51.50886" lon="-0.068425">
				 <ele>16.1</ele>
			 </trkpt>
			 <trkpt lat="51.50864" lon="-0.06913">
				 <ele>17.9</ele>
			 </trkpt>
			 <trkpt lat="51.50851" lon="-0.06986">
				 <ele>18.6</ele>
			 </trkpt>
			 <trkpt lat="51.50835" lon="-0.07091">
				 <ele>18.9</ele>
			 </trkpt>
			 <trkpt lat="51.50833" lon="-0.07112">
				 <ele>18.5</ele>
			 </trkpt>
			 <trkpt lat="51.50836" lon="-0.0715">
				 <ele>17.6</ele>
			 </trkpt>
			 <trkpt lat="51.50846" lon="-0.07192">
				 <ele>17.5</ele>
			 </trkpt>
			 <trkpt lat="51.50875" lon="-0.07278">
				 <ele>17.8</ele>
			 </trkpt>
			 <trkpt lat="51.50898" lon="-0.07334">
				 <ele>17.6</ele>
			 </trkpt>
			 <trkpt lat="51.50928" lon="-0.07387">
				 <ele>16.6</ele>
			 </trkpt>
			 <trkpt lat="51.50958" lon="-0.0744">
				 <ele>15.5</ele>
			 </trkpt>
			 <trkpt lat="51.50977" lon="-0.07485">
				 <ele>14.2</ele>
			 </trkpt>
			 <trkpt lat="51.50976" lon="-0.07512">
				 <ele>12.5</ele>
			 </trkpt>
			 <trkpt lat="51.50971" lon="-0.07545">
				 <ele>12.3</ele>
			 </trkpt>
			 <trkpt lat="51.50957" lon="-0.07605">
				 <ele>12.8</ele>
			 </trkpt>
			 <trkpt lat="51.50949" lon="-0.07672">
				 <ele>13.3</ele>
			 </trkpt>
			 <trkpt lat="51.50943" lon="-0.07775">
				 <ele>14.1</ele>
			 </trkpt>
			 <trkpt lat="51.50943" lon="-0.07796">
				 <ele>14.7</ele>
			 </trkpt>
			 <trkpt lat="51.50955" lon="-0.07863">
				 <ele>15.3</ele>
			 </trkpt>
			 <trkpt lat="51.50961" lon="-0.07955">
				 <ele>15.5</ele>
			 </trkpt>
			 <trkpt lat="51.50958" lon="-0.07985">
				 <ele>15.9</ele>
			 </trkpt>
			 <trkpt lat="51.509329" lon="-0.080449">
				 <ele>16.5</ele>
			 </trkpt>
			 <trkpt lat="51.509238" lon="-0.080666">
				 <ele>17.4</ele>
			 </trkpt>
			 <trkpt lat="51.509106" lon="-0.081143">
				 <ele>18.4</ele>
			 </trkpt>
			 <trkpt lat="51.509018" lon="-0.081852">
				 <ele>20.5</ele>
			 </trkpt>
			 <trkpt lat="51.50901" lon="-0.08192">
				 <ele>21.2</ele>
			 </trkpt>
			 <trkpt lat="51.50904" lon="-0.08243">
				 <ele>22</ele>
			 </trkpt>
			 <trkpt lat="51.50917" lon="-0.0835">
				 <ele>22.6</ele>
			 </trkpt>
			 <trkpt lat="51.50929" lon="-0.084483">
				 <ele>23</ele>
			 </trkpt>
			 <trkpt lat="51.50941" lon="-0.085467">
				 <ele>23.3</ele>
			 </trkpt>
			 <trkpt lat="51.50953" lon="-0.08645">
				 <ele>24.5</ele>
			 </trkpt>
			 <trkpt lat="51.50969" lon="-0.08757">
				 <ele>25.5</ele>
			 </trkpt>
			 <trkpt lat="51.50973" lon="-0.08766">
				 <ele>25.6</ele>
			 </trkpt>
			 <trkpt lat="51.5098" lon="-0.08808">
				 <ele>24.7</ele>
			 </trkpt>
			 <trkpt lat="51.50999" lon="-0.08904">
				 <ele>24.1</ele>
			 </trkpt>
			 <trkpt lat="51.51027" lon="-0.08992">
				 <ele>22.1</ele>
			 </trkpt>
			 <trkpt lat="51.51048" lon="-0.09115">
				 <ele>21.5</ele>
			 </trkpt>
			 <trkpt lat="51.51055" lon="-0.09146">
				 <ele>20.5</ele>
			 </trkpt>
			 <trkpt lat="51.510695" lon="-0.09224">
				 <ele>19</ele>
			 </trkpt>
			 <trkpt lat="51.51084" lon="-0.09303">
				 <ele>18.1</ele>
			 </trkpt>
			 <trkpt lat="51.51085" lon="-0.09326">
				 <ele>17.9</ele>
			 </trkpt>
			 <trkpt lat="51.510965" lon="-0.094175">
				 <ele>16.7</ele>
			 </trkpt>
			 <trkpt lat="51.51108" lon="-0.09509">
				 <ele>15.5</ele>
			 </trkpt>
			 <trkpt lat="51.51112" lon="-0.09594">
				 <ele>14.5</ele>
			 </trkpt>
			 <trkpt lat="51.51115" lon="-0.09656">
				 <ele>13.7</ele>
			 </trkpt>
			 <trkpt lat="51.511155" lon="-0.09756">
				 <ele>12.6</ele>
			 </trkpt>
			 <trkpt lat="51.51116" lon="-0.09856">
				 <ele>11.5</ele>
			 </trkpt>
			 <trkpt lat="51.511155" lon="-0.09964">
				 <ele>10.1</ele>
			 </trkpt>
			 <trkpt lat="51.51115" lon="-0.10072">
				 <ele>9.4</ele>
			 </trkpt>
			 <trkpt lat="51.51096" lon="-0.10203">
				 <ele>8.9</ele>
			 </trkpt>
			 <trkpt lat="51.51097" lon="-0.103">
				 <ele>8.2</ele>
			 </trkpt>
			 <trkpt lat="51.510993" lon="-0.104425">
				 <ele>6.9</ele>
			 </trkpt>
			 <trkpt lat="51.511015" lon="-0.10585">
				 <ele>5.6</ele>
			 </trkpt>
			 <trkpt lat="51.511038" lon="-0.107275">
				 <ele>5.1</ele>
			 </trkpt>
			 <trkpt lat="51.51106" lon="-0.1087">
				 <ele>5</ele>
			 </trkpt>
			 <trkpt lat="51.51106" lon="-0.109715">
				 <ele>5.1</ele>
			 </trkpt>
			 <trkpt lat="51.51107" lon="-0.11073">
				 <ele>5.3</ele>
			 </trkpt>
			 <trkpt lat="51.51104" lon="-0.11203">
				 <ele>5.4</ele>
			 </trkpt>
			 <trkpt lat="51.510975" lon="-0.112745">
				 <ele>5.5</ele>
			 </trkpt>
			 <trkpt lat="51.51091" lon="-0.11346">
				 <ele>5.3</ele>
			 </trkpt>
			 <trkpt lat="51.510785" lon="-0.11428">
				 <ele>5.3</ele>
			 </trkpt>
			 <trkpt lat="51.51066" lon="-0.1151">
				 <ele>5.5</ele>
			 </trkpt>
			 <trkpt lat="51.51062" lon="-0.11521">
				 <ele>5.7</ele>
			 </trkpt>
			 <trkpt lat="51.51056" lon="-0.11554">
				 <ele>6.2</ele>
			 </trkpt>
			 <trkpt lat="51.51057" lon="-0.11566">
				 <ele>6.4</ele>
			 </trkpt>
			 <trkpt lat="51.51055" lon="-0.11572">
				 <ele>6.5</ele>
			 </trkpt>
			 <trkpt lat="51.51029" lon="-0.11686">
				 <ele>6.7</ele>
			 </trkpt>
			 <trkpt lat="51.50999" lon="-0.11787">
				 <ele>7</ele>
			 </trkpt>
			 <trkpt lat="51.50962" lon="-0.119">
				 <ele>7.3</ele>
			 </trkpt>
			 <trkpt lat="51.50959" lon="-0.11905">
				 <ele>7.5</ele>
			 </trkpt>
			 <trkpt lat="51.50955" lon="-0.11906">
				 <ele>7.7</ele>
			 </trkpt>
			 <trkpt lat="51.50911" lon="-0.11987">
				 <ele>8.1</ele>
			 </trkpt>
			 <trkpt lat="51.50861" lon="-0.12061">
				 <ele>7.7</ele>
			 </trkpt>
			 <trkpt lat="51.50819" lon="-0.12103">
				 <ele>7.5</ele>
			 </trkpt>
			 <trkpt lat="51.5077" lon="-0.12147">
				 <ele>7.7</ele>
			 </trkpt>
			 <trkpt lat="51.50719" lon="-0.12189">
				 <ele>7.9</ele>
			 </trkpt>
			 <trkpt lat="51.5069" lon="-0.12212">
				 <ele>8.2</ele>
			 </trkpt>
			 <trkpt lat="51.50646" lon="-0.12242">
				 <ele>8.2</ele>
			 </trkpt>
			 <trkpt lat="51.50626" lon="-0.12259">
				 <ele>8.5</ele>
			 </trkpt>
			 <trkpt lat="51.50604" lon="-0.12271">
				 <ele>8.4</ele>
			 </trkpt>
			 <trkpt lat="51.50581" lon="-0.12287">
				 <ele>8.3</ele>
			 </trkpt>
			 <trkpt lat="51.50514" lon="-0.12312">
				 <ele>8.3</ele>
			 </trkpt>
			 <trkpt lat="51.50465" lon="-0.12321">
				 <ele>8.2</ele>
			 </trkpt>
			 <trkpt lat="51.503885" lon="-0.12343">
				 <ele>8.4</ele>
			 </trkpt>
			 <trkpt lat="51.50312" lon="-0.12365">
				 <ele>8.5</ele>
			 </trkpt>
			 <trkpt lat="51.50249" lon="-0.12386">
				 <ele>8.4</ele>
			 </trkpt>
			 <trkpt lat="51.50169" lon="-0.12406">
				 <ele>8.2</ele>
			 </trkpt>
			 <trkpt lat="51.50149" lon="-0.12407">
				 <ele>8.2</ele>
			 </trkpt>
			 <trkpt lat="51.50145" lon="-0.12412">
				 <ele>8.8</ele>
			 </trkpt>
			 <trkpt lat="51.50109" lon="-0.1242">
				 <ele>9.3</ele>
			 </trkpt>
			 <trkpt lat="51.50104" lon="-0.12526">
				 <ele>10.3</ele>
			 </trkpt>
			 <trkpt lat="51.501065" lon="-0.12608">
				 <ele>10.9</ele>
			 </trkpt>
			 <trkpt lat="51.50109" lon="-0.12689">
				 <ele>11.5</ele>
			 </trkpt>
			 <trkpt lat="51.50117" lon="-0.127973">
				 <ele>12</ele>
			 </trkpt>
			 <trkpt lat="51.50125" lon="-0.129057">
				 <ele>12.5</ele>
			 </trkpt>
			 <trkpt lat="51.50133" lon="-0.13014">
				 <ele>12.8</ele>
			 </trkpt>
			 <trkpt lat="51.501193" lon="-0.131527">
				 <ele>13.1</ele>
			 </trkpt>
			 <trkpt lat="51.501057" lon="-0.132913">
				 <ele>13.5</ele>
			 </trkpt>
			 <trkpt lat="51.50092" lon="-0.1343">
				 <ele>13.1</ele>
			 </trkpt>
			 <trkpt lat="51.500803" lon="-0.13547">
				 <ele>12.2</ele>
			 </trkpt>
			 <trkpt lat="51.500685" lon="-0.13664">
				 <ele>11.1</ele>
			 </trkpt>
			 <trkpt lat="51.500568" lon="-0.13781">
				 <ele>9.9</ele>
			 </trkpt>
			 <trkpt lat="51.50045" lon="-0.13898">
				 <ele>9.1</ele>
			 </trkpt>
			 <trkpt lat="51.50103" lon="-0.13956">
				 <ele>8.4</ele>
			 </trkpt>
			 <trkpt lat="51.50146" lon="-0.14004">
				 <ele>7.5</ele>
			 </trkpt>
			 <trkpt lat="51.50153" lon="-0.14004">
				 <ele>6.8</ele>
			 </trkpt>
			 <trkpt lat="51.50163" lon="-0.13996">
				 <ele>6.2</ele>
			 </trkpt>
			 <trkpt lat="51.50174" lon="-0.13991">
				 <ele>5.6</ele>
			 </trkpt>
			 <trkpt lat="51.50187" lon="-0.13988">
				 <ele>5.5</ele>
			 </trkpt>
			 <trkpt lat="51.50196" lon="-0.13991">
				 <ele>6.5</ele>
			 </trkpt>
			 <trkpt lat="51.50201" lon="-0.13988">
				 <ele>6.6</ele>
			 </trkpt>
			 <trkpt lat="51.50206" lon="-0.13982">
				 <ele>6.8</ele>
			 </trkpt>
			 <trkpt lat="51.50207" lon="-0.13978">
				 <ele>7</ele>
			 </trkpt>
			 <trkpt lat="51.50238" lon="-0.13917">
				 <ele>7.3</ele>
			 </trkpt>
			 <trkpt lat="51.50265" lon="-0.1386">
				 <ele>7.7</ele>
			 </trkpt>
		 </trkseg>
	 </trk>
</gpx>