<?xml version="1.0" encoding="UTF-8"?>
<gpx xmlns="http://www.topografix.com/GPX/1/1" xmlns:gpxdata="http://www.cluetrust.com/XML/GPXDATA/1/0" xmlns:xsi="http://www.w3.org/2001/XMLSchema-instance" xsi:schemaLocation="http://www.topografix.com/GPX/1/1 https://www.topografix.com/GPX/1/1/gpx.xsd http://www.cluetrust.com/XML/GPXDATA/1/0 https://www.cluetrust.com/Schemas/gpxdata10.xsd" creator="COROS Wearables" version="1.1">
 <metadata>
  <link href="https://www.coros.com">
   <text>COROS</text>
  </link>
  <time>2026-05-10T01:51:48Z</time>
 </metadata>
 <trk>
  <name>mbn-naju-full</name>
  <type>running</type>
  <trkseg>
   <trkpt lat="35.0113700" lon="126.7194820">
    <ele>3</ele>
   </trkpt>
   <trkpt lat="35.0114490" lon="126.7193610">
    <ele>3</ele>
   </trkpt>
   <trkpt lat="35.0115960" lon="126.7192240">
    <ele>4</ele>
   </trkpt>
   <trkpt lat="35.0117640" lon="126.7191180">
    <ele>4</ele>
   </trkpt>
   <trkpt lat="35.0118930" lon="126.7190830">
    <ele>4</ele>
   </trkpt>
   <trkpt lat="35.0120030" lon="126.7190510">
    <ele>4</ele>
   </trkpt>
   <trkpt lat="35.0120660" lon="126.7190170">
    <ele>4</ele>
   </trkpt>
   <trkpt lat="35.0120990" lon="126.7189810">
    <ele>5</ele>
   </trkpt>
   <trkpt lat="35.0121360" lon="126.7189650">
    <ele>5</ele>
   </trkpt>
   <trkpt lat="35.0121680" lon="126.7189370">
    <ele>5</ele>
   </trkpt>
   <trkpt lat="35.0121910" lon="126.7188970">
    <ele>5</ele>
   </trkpt>
   <trkpt lat="35.0122039" lon="126.7188510">
    <ele>5</ele>
   </trkpt>
   <trkpt lat="35.0122039" lon="126.7188030">
    <ele>6</ele>
   </trkpt>
   <trkpt lat="35.0121920" lon="126.7187570">
    <ele>6</ele>
   </trkpt>
   <trkpt lat="35.0121700" lon="126.7187170">
    <ele>6</ele>
   </trkpt>
   <trkpt lat="35.0121380" lon="126.7186870">
    <ele>6</ele>
   </trkpt>
   <trkpt lat="35.0121010" lon="126.7186710">
    <ele>7</ele>
   </trkpt>
   <trkpt lat="35.0120610" lon="126.7186690">
    <ele>7</ele>
   </trkpt>
   <trkpt lat="35.0120600" lon="126.7178770">
    <ele>7</ele>
   </trkpt>
   <trkpt lat="35.0117330" lon="126.7178820">
    <ele>8</ele>
   </trkpt>
   <trkpt lat="35.0117440" lon="126.7185100">
    <ele>8</ele>
   </trkpt>
   <trkpt lat="35.0117180" lon="126.7186330">
    <ele>8</ele>
   </trkpt>
   <trkpt lat="35.0116860" lon="126.7187220">
    <ele>9</ele>
   </trkpt>
   <trkpt lat="35.0116480" lon="126.7187800">
    <ele>9</ele>
   </trkpt>
   <trkpt lat="35.0115679" lon="126.7188460">
    <ele>9</ele>
   </trkpt>
   <trkpt lat="35.0105740" lon="126.7195480">
    <ele>10</ele>
   </trkpt>
   <trkpt lat="35.0104789" lon="126.7193860">
    <ele>10</ele>
   </trkpt>
   <trkpt lat="35.0104360" lon="126.7192950">
    <ele>10</ele>
   </trkpt>
   <trkpt lat="35.0103340" lon="126.7190780">
    <ele>11</ele>
   </trkpt>
   <trkpt lat="35.0092020" lon="126.7166850">
    <ele>11</ele>
   </trkpt>
   <trkpt lat="35.0090340" lon="126.7163950">
    <ele>11</ele>
   </trkpt>
   <trkpt lat="35.0088200" lon="126.7161210">
    <ele>12</ele>
   </trkpt>
   <trkpt lat="35.0086920" lon="126.7160180">
    <ele>12</ele>
   </trkpt>
   <trkpt lat="35.0085440" lon="126.7158980">
    <ele>12</ele>
   </trkpt>
   <trkpt lat="35.0082620" lon="126.7156710">
    <ele>13</ele>
   </trkpt>
   <trkpt lat="35.0080140" lon="126.7154560">
    <ele>13</ele>
   </trkpt>
   <trkpt lat="35.0078510" lon="126.7152940">
    <ele>13</ele>
   </trkpt>
   <trkpt lat="35.0077740" lon="126.7151970">
    <ele>13</ele>
   </trkpt>
   <trkpt lat="35.0077560" lon="126.7151740">
    <ele>13</ele>
   </trkpt>
   <trkpt lat="35.0076490" lon="126.7150280">
    <ele>13</ele>
   </trkpt>
   <trkpt lat="35.0074830" lon="126.7147680">
    <ele>13</ele>
   </trkpt>
   <trkpt lat="35.0073810" lon="126.7146080">
    <ele>13</ele>
   </trkpt>
   <trkpt lat="35.0070910" lon="126.7141630">
    <ele>13</ele>
   </trkpt>
   <trkpt lat="35.0065830" lon="126.7134470">
    <ele>13</ele>
   </trkpt>
   <trkpt lat="35.0061050" lon="126.7128190">
    <ele>13</ele>
   </trkpt>
   <trkpt lat="35.0057370" lon="126.7123200">
    <ele>13</ele>
   </trkpt>
   <trkpt lat="35.0054970" lon="126.7119830">
    <ele>13</ele>
   </trkpt>
   <trkpt lat="35.0053870" lon="126.7118280">
    <ele>13</ele>
   </trkpt>
   <trkpt lat="35.0052690" lon="126.7116530">
    <ele>13</ele>
   </trkpt>
   <trkpt lat="35.0049490" lon="126.7111760">
    <ele>13</ele>
   </trkpt>
   <trkpt lat="35.0049180" lon="126.7111310">
    <ele>13</ele>
   </trkpt>
   <trkpt lat="35.0046920" lon="126.7107980">
    <ele>13</ele>
   </trkpt>
   <trkpt lat="35.0044720" lon="126.7104740">
    <ele>13</ele>
   </trkpt>
   <trkpt lat="35.0042929" lon="126.7102010">
    <ele>13</ele>
   </trkpt>
   <trkpt lat="35.0041550" lon="126.7099720">
    <ele>13</ele>
   </trkpt>
   <trkpt lat="35.0040229" lon="126.7097360">
    <ele>13</ele>
   </trkpt>
   <trkpt lat="35.0038460" lon="126.7093830">
    <ele>13</ele>
   </trkpt>
   <trkpt lat="35.0036260" lon="126.7089350">
    <ele>13</ele>
   </trkpt>
   <trkpt lat="35.0034970" lon="126.7086730">
    <ele>13</ele>
   </trkpt>
   <trkpt lat="35.0033520" lon="126.7083780">
    <ele>13</ele>
   </trkpt>
   <trkpt lat="35.0032920" lon="126.7082600">
    <ele>13</ele>
   </trkpt>
   <trkpt lat="35.0032510" lon="126.7081170">
    <ele>13</ele>
   </trkpt>
   <trkpt lat="35.0030550" lon="126.7074590">
    <ele>13</ele>
   </trkpt>
   <trkpt lat="35.0028910" lon="126.7069630">
    <ele>13</ele>
   </trkpt>
   <trkpt lat="35.0028500" lon="126.7068070">
    <ele>13</ele>
   </trkpt>
   <trkpt lat="35.0027660" lon="126.7064870">
    <ele>13</ele>
   </trkpt>
   <trkpt lat="35.0026250" lon="126.7059030">
    <ele>13</ele>
   </trkpt>
   <trkpt lat="35.0025390" lon="126.7054870">
    <ele>13</ele>
   </trkpt>
   <trkpt lat="35.0023890" lon="126.7048220">
    <ele>13</ele>
   </trkpt>
   <trkpt lat="35.0022790" lon="126.7043320">
    <ele>13</ele>
   </trkpt>
   <trkpt lat="35.0022600" lon="126.7042500">
    <ele>13</ele>
   </trkpt>
   <trkpt lat="35.0020140" lon="126.7032250">
    <ele>13</ele>
   </trkpt>
   <trkpt lat="35.0019590" lon="126.7030270">
    <ele>13</ele>
   </trkpt>
   <trkpt lat="35.0018680" lon="126.7027310">
    <ele>13</ele>
   </trkpt>
   <trkpt lat="35.0017080" lon="126.7022480">
    <ele>13</ele>
   </trkpt>
   <trkpt lat="35.0016230" lon="126.7019950">
    <ele>13</ele>
   </trkpt>
   <trkpt lat="35.0015940" lon="126.7019060">
    <ele>13</ele>
   </trkpt>
   <trkpt lat="35.0014860" lon="126.7015950">
    <ele>13</ele>
   </trkpt>
   <trkpt lat="35.0013650" lon="126.7012750">
    <ele>13</ele>
   </trkpt>
   <trkpt lat="35.0012880" lon="126.7011100">
    <ele>13</ele>
   </trkpt>
   <trkpt lat="35.0009550" lon="126.7003850">
    <ele>13</ele>
   </trkpt>
   <trkpt lat="35.0008780" lon="126.7002180">
    <ele>13</ele>
   </trkpt>
   <trkpt lat="35.0007919" lon="126.7000640">
    <ele>13</ele>
   </trkpt>
   <trkpt lat="35.0006190" lon="126.6997570">
    <ele>13</ele>
   </trkpt>
   <trkpt lat="35.0002140" lon="126.6991620">
    <ele>13</ele>
   </trkpt>
   <trkpt lat="35.0001270" lon="126.6990340">
    <ele>13</ele>
   </trkpt>
   <trkpt lat="35.0000010" lon="126.6988830">
    <ele>13</ele>
   </trkpt>
   <trkpt lat="34.9998450" lon="126.6986960">
    <ele>13</ele>
   </trkpt>
   <trkpt lat="34.9995040" lon="126.6982520">
    <ele>12</ele>
   </trkpt>
   <trkpt lat="34.9991980" lon="126.6978000">
    <ele>12</ele>
   </trkpt>
   <trkpt lat="34.9990100" lon="126.6974830">
    <ele>12</ele>
   </trkpt>
   <trkpt lat="34.9989920" lon="126.6974150">
    <ele>12</ele>
   </trkpt>
   <trkpt lat="34.9989030" lon="126.6970800">
    <ele>12</ele>
   </trkpt>
   <trkpt lat="34.9988979" lon="126.6970530">
    <ele>12</ele>
   </trkpt>
   <trkpt lat="34.9988510" lon="126.6968000">
    <ele>12</ele>
   </trkpt>
   <trkpt lat="34.9988590" lon="126.6965190">
    <ele>11</ele>
   </trkpt>
   <trkpt lat="34.9989100" lon="126.6962470">
    <ele>11</ele>
   </trkpt>
   <trkpt lat="34.9990049" lon="126.6960080">
    <ele>11</ele>
   </trkpt>
   <trkpt lat="34.9991720" lon="126.6956900">
    <ele>11</ele>
   </trkpt>
   <trkpt lat="34.9994330" lon="126.6951950">
    <ele>11</ele>
   </trkpt>
   <trkpt lat="34.9996540" lon="126.6946840">
    <ele>11</ele>
   </trkpt>
   <trkpt lat="34.9998000" lon="126.6942030">
    <ele>10</ele>
   </trkpt>
   <trkpt lat="34.9999390" lon="126.6937680">
    <ele>10</ele>
   </trkpt>
   <trkpt lat="35.0000880" lon="126.6933040">
    <ele>10</ele>
   </trkpt>
   <trkpt lat="35.0001190" lon="126.6932060">
    <ele>10</ele>
   </trkpt>
   <trkpt lat="35.0002430" lon="126.6929880">
    <ele>10</ele>
   </trkpt>
   <trkpt lat="35.0003880" lon="126.6927310">
    <ele>10</ele>
   </trkpt>
   <trkpt lat="35.0007570" lon="126.6921490">
    <ele>10</ele>
   </trkpt>
   <trkpt lat="35.0013390" lon="126.6913120">
    <ele>9</ele>
   </trkpt>
   <trkpt lat="35.0014630" lon="126.6911320">
    <ele>9</ele>
   </trkpt>
   <trkpt lat="35.0017880" lon="126.6906540">
    <ele>9</ele>
   </trkpt>
   <trkpt lat="35.0019790" lon="126.6903720">
    <ele>9</ele>
   </trkpt>
   <trkpt lat="35.0024560" lon="126.6896710">
    <ele>9</ele>
   </trkpt>
   <trkpt lat="35.0035850" lon="126.6880490">
    <ele>9</ele>
   </trkpt>
   <trkpt lat="35.0040140" lon="126.6874270">
    <ele>9</ele>
   </trkpt>
   <trkpt lat="35.0042140" lon="126.6871360">
    <ele>9</ele>
   </trkpt>
   <trkpt lat="35.0043080" lon="126.6869990">
    <ele>9</ele>
   </trkpt>
   <trkpt lat="35.0050389" lon="126.6859230">
    <ele>9</ele>
   </trkpt>
   <trkpt lat="35.0052420" lon="126.6855670">
    <ele>9</ele>
   </trkpt>
   <trkpt lat="35.0052470" lon="126.6855590">
    <ele>9</ele>
   </trkpt>
   <trkpt lat="35.0053500" lon="126.6853610">
    <ele>9</ele>
   </trkpt>
   <trkpt lat="35.0054400" lon="126.6851310">
    <ele>9</ele>
   </trkpt>
   <trkpt lat="35.0055070" lon="126.6848930">
    <ele>9</ele>
   </trkpt>
   <trkpt lat="35.0055600" lon="126.6846450">
    <ele>9</ele>
   </trkpt>
   <trkpt lat="35.0055670" lon="126.6845050">
    <ele>9</ele>
   </trkpt>
   <trkpt lat="35.0055770" lon="126.6843010">
    <ele>9</ele>
   </trkpt>
   <trkpt lat="35.0055850" lon="126.6841430">
    <ele>9</ele>
   </trkpt>
   <trkpt lat="35.0055880" lon="126.6840820">
    <ele>9</ele>
   </trkpt>
   <trkpt lat="35.0056180" lon="126.6832070">
    <ele>9</ele>
   </trkpt>
   <trkpt lat="35.0057410" lon="126.6826600">
    <ele>9</ele>
   </trkpt>
   <trkpt lat="35.0057430" lon="126.6824690">
    <ele>9</ele>
   </trkpt>
   <trkpt lat="35.0057479" lon="126.6820970">
    <ele>9</ele>
   </trkpt>
   <trkpt lat="35.0057620" lon="126.6809200">
    <ele>9</ele>
   </trkpt>
   <trkpt lat="35.0057670" lon="126.6805290">
    <ele>9</ele>
   </trkpt>
   <trkpt lat="35.0057720" lon="126.6802940">
    <ele>9</ele>
   </trkpt>
   <trkpt lat="35.0057550" lon="126.6801710">
    <ele>9</ele>
   </trkpt>
   <trkpt lat="35.0057479" lon="126.6801160">
    <ele>10</ele>
   </trkpt>
   <trkpt lat="35.0057270" lon="126.6799620">
    <ele>10</ele>
   </trkpt>
   <trkpt lat="35.0056970" lon="126.6798290">
    <ele>10</ele>
   </trkpt>
   <trkpt lat="35.0056840" lon="126.6797700">
    <ele>10</ele>
   </trkpt>
   <trkpt lat="35.0055360" lon="126.6793380">
    <ele>10</ele>
   </trkpt>
   <trkpt lat="35.0054640" lon="126.6791850">
    <ele>10</ele>
   </trkpt>
   <trkpt lat="35.0051870" lon="126.6786410">
    <ele>10</ele>
   </trkpt>
   <trkpt lat="35.0048320" lon="126.6780330">
    <ele>10</ele>
   </trkpt>
   <trkpt lat="35.0045530" lon="126.6776180">
    <ele>11</ele>
   </trkpt>
   <trkpt lat="35.0042920" lon="126.6773400">
    <ele>11</ele>
   </trkpt>
   <trkpt lat="35.0042180" lon="126.6772460">
    <ele>11</ele>
   </trkpt>
   <trkpt lat="35.0040830" lon="126.6770750">
    <ele>11</ele>
   </trkpt>
   <trkpt lat="35.0039350" lon="126.6768860">
    <ele>11</ele>
   </trkpt>
   <trkpt lat="35.0038030" lon="126.6767260">
    <ele>11</ele>
   </trkpt>
   <trkpt lat="35.0037510" lon="126.6765890">
    <ele>11</ele>
   </trkpt>
   <trkpt lat="35.0037260" lon="126.6765240">
    <ele>11</ele>
   </trkpt>
   <trkpt lat="35.0036950" lon="126.6763590">
    <ele>11</ele>
   </trkpt>
   <trkpt lat="35.0036160" lon="126.6759600">
    <ele>11</ele>
   </trkpt>
   <trkpt lat="35.0034840" lon="126.6756680">
    <ele>11</ele>
   </trkpt>
   <trkpt lat="35.0031930" lon="126.6751160">
    <ele>11</ele>
   </trkpt>
   <trkpt lat="35.0029710" lon="126.6747450">
    <ele>11</ele>
   </trkpt>
   <trkpt lat="35.0027100" lon="126.6743910">
    <ele>11</ele>
   </trkpt>
   <trkpt lat="35.0025770" lon="126.6742500">
    <ele>11</ele>
   </trkpt>
   <trkpt lat="35.0024420" lon="126.6741260">
    <ele>11</ele>
   </trkpt>
   <trkpt lat="35.0020700" lon="126.6737860">
    <ele>10</ele>
   </trkpt>
   <trkpt lat="35.0015080" lon="126.6733690">
    <ele>10</ele>
   </trkpt>
   <trkpt lat="35.0009740" lon="126.6729220">
    <ele>10</ele>
   </trkpt>
   <trkpt lat="35.0007370" lon="126.6726090">
    <ele>10</ele>
   </trkpt>
   <trkpt lat="35.0004780" lon="126.6722000">
    <ele>10</ele>
   </trkpt>
   <trkpt lat="35.0002590" lon="126.6718480">
    <ele>10</ele>
   </trkpt>
   <trkpt lat="35.0001010" lon="126.6716610">
    <ele>10</ele>
   </trkpt>
   <trkpt lat="34.9999170" lon="126.6714690">
    <ele>10</ele>
   </trkpt>
   <trkpt lat="34.9994510" lon="126.6711070">
    <ele>10</ele>
   </trkpt>
   <trkpt lat="34.9992570" lon="126.6709380">
    <ele>10</ele>
   </trkpt>
   <trkpt lat="34.9989909" lon="126.6707390">
    <ele>10</ele>
   </trkpt>
   <trkpt lat="34.9988040" lon="126.6705690">
    <ele>9</ele>
   </trkpt>
   <trkpt lat="34.9982970" lon="126.6699250">
    <ele>9</ele>
   </trkpt>
   <trkpt lat="34.9980369" lon="126.6696050">
    <ele>9</ele>
   </trkpt>
   <trkpt lat="34.9978679" lon="126.6694130">
    <ele>9</ele>
   </trkpt>
   <trkpt lat="34.9975700" lon="126.6690760">
    <ele>9</ele>
   </trkpt>
   <trkpt lat="34.9974550" lon="126.6689460">
    <ele>9</ele>
   </trkpt>
   <trkpt lat="34.9970630" lon="126.6685030">
    <ele>9</ele>
   </trkpt>
   <trkpt lat="34.9968660" lon="126.6682840">
    <ele>9</ele>
   </trkpt>
   <trkpt lat="34.9968750" lon="126.6682580">
    <ele>9</ele>
   </trkpt>
   <trkpt lat="34.9968810" lon="126.6682310">
    <ele>9</ele>
   </trkpt>
   <trkpt lat="34.9968800" lon="126.6681910">
    <ele>9</ele>
   </trkpt>
   <trkpt lat="34.9968710" lon="126.6681530">
    <ele>8</ele>
   </trkpt>
   <trkpt lat="34.9968530" lon="126.6681200">
    <ele>8</ele>
   </trkpt>
   <trkpt lat="34.9968280" lon="126.6680940">
    <ele>8</ele>
   </trkpt>
   <trkpt lat="34.9967990" lon="126.6680780">
    <ele>8</ele>
   </trkpt>
   <trkpt lat="34.9967670" lon="126.6680720">
    <ele>8</ele>
   </trkpt>
   <trkpt lat="34.9967339" lon="126.6680780">
    <ele>8</ele>
   </trkpt>
   <trkpt lat="34.9967050" lon="126.6680950">
    <ele>8</ele>
   </trkpt>
   <trkpt lat="34.9966870" lon="126.6681120">
    <ele>8</ele>
   </trkpt>
   <trkpt lat="34.9966719" lon="126.6681340">
    <ele>8</ele>
   </trkpt>
   <trkpt lat="34.9964970" lon="126.6679360">
    <ele>8</ele>
   </trkpt>
   <trkpt lat="34.9963470" lon="126.6677670">
    <ele>8</ele>
   </trkpt>
   <trkpt lat="34.9962220" lon="126.6675680">
    <ele>8</ele>
   </trkpt>
   <trkpt lat="34.9961840" lon="126.6675070">
    <ele>8</ele>
   </trkpt>
   <trkpt lat="34.9960460" lon="126.6672360">
    <ele>8</ele>
   </trkpt>
   <trkpt lat="34.9958070" lon="126.6667720">
    <ele>8</ele>
   </trkpt>
   <trkpt lat="34.9955320" lon="126.6662580">
    <ele>8</ele>
   </trkpt>
   <trkpt lat="34.9952640" lon="126.6658100">
    <ele>8</ele>
   </trkpt>
   <trkpt lat="34.9951360" lon="126.6656100">
    <ele>8</ele>
   </trkpt>
   <trkpt lat="34.9950930" lon="126.6655430">
    <ele>8</ele>
   </trkpt>
   <trkpt lat="34.9948550" lon="126.6652540">
    <ele>8</ele>
   </trkpt>
   <trkpt lat="34.9946190" lon="126.6649660">
    <ele>8</ele>
   </trkpt>
   <trkpt lat="34.9941510" lon="126.6643480">
    <ele>8</ele>
   </trkpt>
   <trkpt lat="34.9940410" lon="126.6641790">
    <ele>8</ele>
   </trkpt>
   <trkpt lat="34.9939180" lon="126.6639500">
    <ele>8</ele>
   </trkpt>
   <trkpt lat="34.9938870" lon="126.6638980">
    <ele>8</ele>
   </trkpt>
   <trkpt lat="34.9937870" lon="126.6637320">
    <ele>8</ele>
   </trkpt>
   <trkpt lat="34.9936770" lon="126.6635480">
    <ele>8</ele>
   </trkpt>
   <trkpt lat="34.9935180" lon="126.6632390">
    <ele>8</ele>
   </trkpt>
   <trkpt lat="34.9933580" lon="126.6629950">
    <ele>8</ele>
   </trkpt>
   <trkpt lat="34.9931430" lon="126.6626650">
    <ele>8</ele>
   </trkpt>
   <trkpt lat="34.9928100" lon="126.6621870">
    <ele>8</ele>
   </trkpt>
   <trkpt lat="34.9924910" lon="126.6617720">
    <ele>8</ele>
   </trkpt>
   <trkpt lat="34.9920680" lon="126.6613000">
    <ele>8</ele>
   </trkpt>
   <trkpt lat="34.9918640" lon="126.6611130">
    <ele>8</ele>
   </trkpt>
   <trkpt lat="34.9916520" lon="126.6608940">
    <ele>7</ele>
   </trkpt>
   <trkpt lat="34.9913200" lon="126.6606050">
    <ele>7</ele>
   </trkpt>
   <trkpt lat="34.9912500" lon="126.6605450">
    <ele>7</ele>
   </trkpt>
   <trkpt lat="34.9908330" lon="126.6601820">
    <ele>7</ele>
   </trkpt>
   <trkpt lat="34.9899050" lon="126.6594130">
    <ele>7</ele>
   </trkpt>
   <trkpt lat="34.9893450" lon="126.6589020">
    <ele>7</ele>
   </trkpt>
   <trkpt lat="34.9891910" lon="126.6587600">
    <ele>7</ele>
   </trkpt>
   <trkpt lat="34.9890180" lon="126.6585710">
    <ele>7</ele>
   </trkpt>
   <trkpt lat="34.9887540" lon="126.6582770">
    <ele>7</ele>
   </trkpt>
   <trkpt lat="34.9886320" lon="126.6581300">
    <ele>7</ele>
   </trkpt>
   <trkpt lat="34.9885590" lon="126.6580440">
    <ele>7</ele>
   </trkpt>
   <trkpt lat="34.9885240" lon="126.6580030">
    <ele>7</ele>
   </trkpt>
   <trkpt lat="34.9883669" lon="126.6578410">
    <ele>7</ele>
   </trkpt>
   <trkpt lat="34.9874830" lon="126.6569510">
    <ele>7</ele>
   </trkpt>
   <trkpt lat="34.9868540" lon="126.6562730">
    <ele>7</ele>
   </trkpt>
   <trkpt lat="34.9862080" lon="126.6555640">
    <ele>7</ele>
   </trkpt>
   <trkpt lat="34.9860690" lon="126.6554070">
    <ele>7</ele>
   </trkpt>
   <trkpt lat="34.9860290" lon="126.6553580">
    <ele>7</ele>
   </trkpt>
   <trkpt lat="34.9859700" lon="126.6552840">
    <ele>7</ele>
   </trkpt>
   <trkpt lat="34.9857870" lon="126.6550620">
    <ele>7</ele>
   </trkpt>
   <trkpt lat="34.9857280" lon="126.6549720">
    <ele>7</ele>
   </trkpt>
   <trkpt lat="34.9856130" lon="126.6547810">
    <ele>7</ele>
   </trkpt>
   <trkpt lat="34.9855630" lon="126.6546970">
    <ele>7</ele>
   </trkpt>
   <trkpt lat="34.9853480" lon="126.6543500">
    <ele>7</ele>
   </trkpt>
   <trkpt lat="34.9851770" lon="126.6540130">
    <ele>7</ele>
   </trkpt>
   <trkpt lat="34.9850230" lon="126.6536630">
    <ele>7</ele>
   </trkpt>
   <trkpt lat="34.9848950" lon="126.6532860">
    <ele>7</ele>
   </trkpt>
   <trkpt lat="34.9848190" lon="126.6530370">
    <ele>7</ele>
   </trkpt>
   <trkpt lat="34.9847600" lon="126.6528120">
    <ele>6</ele>
   </trkpt>
   <trkpt lat="34.9847010" lon="126.6525620">
    <ele>6</ele>
   </trkpt>
   <trkpt lat="34.9846519" lon="126.6523430">
    <ele>6</ele>
   </trkpt>
   <trkpt lat="34.9845929" lon="126.6519470">
    <ele>6</ele>
   </trkpt>
   <trkpt lat="34.9845730" lon="126.6517250">
    <ele>6</ele>
   </trkpt>
   <trkpt lat="34.9845560" lon="126.6515240">
    <ele>6</ele>
   </trkpt>
   <trkpt lat="34.9845430" lon="126.6510930">
    <ele>6</ele>
   </trkpt>
   <trkpt lat="34.9845420" lon="126.6507120">
    <ele>6</ele>
   </trkpt>
   <trkpt lat="34.9845510" lon="126.6504000">
    <ele>6</ele>
   </trkpt>
   <trkpt lat="34.9845670" lon="126.6500930">
    <ele>6</ele>
   </trkpt>
   <trkpt lat="34.9845780" lon="126.6498450">
    <ele>6</ele>
   </trkpt>
   <trkpt lat="34.9846700" lon="126.6488390">
    <ele>6</ele>
   </trkpt>
   <trkpt lat="34.9846890" lon="126.6486360">
    <ele>6</ele>
   </trkpt>
   <trkpt lat="34.9847240" lon="126.6481790">
    <ele>6</ele>
   </trkpt>
   <trkpt lat="34.9847320" lon="126.6480720">
    <ele>6</ele>
   </trkpt>
   <trkpt lat="34.9847580" lon="126.6477250">
    <ele>6</ele>
   </trkpt>
   <trkpt lat="34.9847820" lon="126.6473770">
    <ele>6</ele>
   </trkpt>
   <trkpt lat="34.9848030" lon="126.6471710">
    <ele>6</ele>
   </trkpt>
   <trkpt lat="34.9848750" lon="126.6464490">
    <ele>6</ele>
   </trkpt>
   <trkpt lat="34.9850850" lon="126.6458600">
    <ele>6</ele>
   </trkpt>
   <trkpt lat="34.9852050" lon="126.6455350">
    <ele>6</ele>
   </trkpt>
   <trkpt lat="34.9853390" lon="126.6450770">
    <ele>6</ele>
   </trkpt>
   <trkpt lat="34.9854860" lon="126.6445500">
    <ele>6</ele>
   </trkpt>
   <trkpt lat="34.9856080" lon="126.6438230">
    <ele>6</ele>
   </trkpt>
   <trkpt lat="34.9857050" lon="126.6428770">
    <ele>6</ele>
   </trkpt>
   <trkpt lat="34.9856830" lon="126.6425360">
    <ele>5</ele>
   </trkpt>
   <trkpt lat="34.9856600" lon="126.6421830">
    <ele>5</ele>
   </trkpt>
   <trkpt lat="34.9856240" lon="126.6418440">
    <ele>5</ele>
   </trkpt>
   <trkpt lat="34.9855890" lon="126.6415140">
    <ele>5</ele>
   </trkpt>
   <trkpt lat="34.9854830" lon="126.6408780">
    <ele>5</ele>
   </trkpt>
   <trkpt lat="34.9854080" lon="126.6404600">
    <ele>5</ele>
   </trkpt>
   <trkpt lat="34.9853510" lon="126.6401150">
    <ele>5</ele>
   </trkpt>
   <trkpt lat="34.9852330" lon="126.6390120">
    <ele>5</ele>
   </trkpt>
   <trkpt lat="34.9851760" lon="126.6385470">
    <ele>5</ele>
   </trkpt>
   <trkpt lat="34.9850220" lon="126.6379060">
    <ele>5</ele>
   </trkpt>
   <trkpt lat="34.9850130" lon="126.6378690">
    <ele>5</ele>
   </trkpt>
   <trkpt lat="34.9848410" lon="126.6373090">
    <ele>5</ele>
   </trkpt>
   <trkpt lat="34.9848190" lon="126.6372540">
    <ele>5</ele>
   </trkpt>
   <trkpt lat="34.9846580" lon="126.6368550">
    <ele>5</ele>
   </trkpt>
   <trkpt lat="34.9845080" lon="126.6365070">
    <ele>5</ele>
   </trkpt>
   <trkpt lat="34.9843120" lon="126.6361590">
    <ele>5</ele>
   </trkpt>
   <trkpt lat="34.9839290" lon="126.6355520">
    <ele>5</ele>
   </trkpt>
   <trkpt lat="34.9829590" lon="126.6342110">
    <ele>5</ele>
   </trkpt>
   <trkpt lat="34.9818000" lon="126.6325810">
    <ele>6</ele>
   </trkpt>
   <trkpt lat="34.9817110" lon="126.6324560">
    <ele>6</ele>
   </trkpt>
   <trkpt lat="34.9815460" lon="126.6321860">
    <ele>6</ele>
   </trkpt>
   <trkpt lat="34.9809849" lon="126.6312710">
    <ele>6</ele>
   </trkpt>
   <trkpt lat="34.9804249" lon="126.6302090">
    <ele>6</ele>
   </trkpt>
   <trkpt lat="34.9803730" lon="126.6301180">
    <ele>6</ele>
   </trkpt>
   <trkpt lat="34.9803410" lon="126.6300700">
    <ele>6</ele>
   </trkpt>
   <trkpt lat="34.9802930" lon="126.6299970">
    <ele>6</ele>
   </trkpt>
   <trkpt lat="34.9798950" lon="126.6293820">
    <ele>6</ele>
   </trkpt>
   <trkpt lat="34.9784850" lon="126.6272000">
    <ele>6</ele>
   </trkpt>
   <trkpt lat="34.9767450" lon="126.6243550">
    <ele>6</ele>
   </trkpt>
   <trkpt lat="34.9757750" lon="126.6226380">
    <ele>6</ele>
   </trkpt>
   <trkpt lat="34.9755460" lon="126.6222170">
    <ele>6</ele>
   </trkpt>
   <trkpt lat="34.9754689" lon="126.6219060">
    <ele>6</ele>
   </trkpt>
   <trkpt lat="34.9754260" lon="126.6217300">
    <ele>6</ele>
   </trkpt>
   <trkpt lat="34.9753660" lon="126.6210400">
    <ele>6</ele>
   </trkpt>
   <trkpt lat="34.9753540" lon="126.6209040">
    <ele>7</ele>
   </trkpt>
   <trkpt lat="34.9753600" lon="126.6202600">
    <ele>7</ele>
   </trkpt>
   <trkpt lat="34.9754760" lon="126.6195490">
    <ele>7</ele>
   </trkpt>
   <trkpt lat="34.9756069" lon="126.6190260">
    <ele>7</ele>
   </trkpt>
   <trkpt lat="34.9758250" lon="126.6185020">
    <ele>7</ele>
   </trkpt>
   <trkpt lat="34.9761340" lon="126.6179440">
    <ele>7</ele>
   </trkpt>
   <trkpt lat="34.9765020" lon="126.6175000">
    <ele>7</ele>
   </trkpt>
   <trkpt lat="34.9767530" lon="126.6171120">
    <ele>7</ele>
   </trkpt>
   <trkpt lat="34.9771720" lon="126.6164400">
    <ele>7</ele>
   </trkpt>
   <trkpt lat="34.9774260" lon="126.6160340">
    <ele>7</ele>
   </trkpt>
   <trkpt lat="34.9784790" lon="126.6143470">
    <ele>7</ele>
   </trkpt>
   <trkpt lat="34.9786260" lon="126.6140860">
    <ele>7</ele>
   </trkpt>
   <trkpt lat="34.9796180" lon="126.6127580">
    <ele>7</ele>
   </trkpt>
   <trkpt lat="34.9800180" lon="126.6122040">
    <ele>7</ele>
   </trkpt>
   <trkpt lat="34.9802890" lon="126.6118290">
    <ele>7</ele>
   </trkpt>
   <trkpt lat="34.9807550" lon="126.6111840">
    <ele>8</ele>
   </trkpt>
   <trkpt lat="34.9813580" lon="126.6103430">
    <ele>8</ele>
   </trkpt>
   <trkpt lat="34.9814810" lon="126.6100040">
    <ele>8</ele>
   </trkpt>
   <trkpt lat="34.9816040" lon="126.6097510">
    <ele>8</ele>
   </trkpt>
   <trkpt lat="34.9819699" lon="126.6090810">
    <ele>8</ele>
   </trkpt>
   <trkpt lat="34.9820470" lon="126.6089910">
    <ele>8</ele>
   </trkpt>
   <trkpt lat="34.9823630" lon="126.6086230">
    <ele>7</ele>
   </trkpt>
   <trkpt lat="34.9823820" lon="126.6086010">
    <ele>7</ele>
   </trkpt>
   <trkpt lat="34.9827080" lon="126.6081210">
    <ele>7</ele>
   </trkpt>
   <trkpt lat="34.9830050" lon="126.6075640">
    <ele>7</ele>
   </trkpt>
   <trkpt lat="34.9833780" lon="126.6070050">
    <ele>7</ele>
   </trkpt>
   <trkpt lat="34.9837580" lon="126.6063720">
    <ele>7</ele>
   </trkpt>
   <trkpt lat="34.9838740" lon="126.6061480">
    <ele>7</ele>
   </trkpt>
   <trkpt lat="34.9841089" lon="126.6056930">
    <ele>7</ele>
   </trkpt>
   <trkpt lat="34.9845640" lon="126.6048130">
    <ele>6</ele>
   </trkpt>
   <trkpt lat="34.9850580" lon="126.6038370">
    <ele>6</ele>
   </trkpt>
   <trkpt lat="34.9853610" lon="126.6033340">
    <ele>6</ele>
   </trkpt>
   <trkpt lat="34.9854930" lon="126.6031450">
    <ele>6</ele>
   </trkpt>
   <trkpt lat="34.9857150" lon="126.6028490">
    <ele>6</ele>
   </trkpt>
   <trkpt lat="34.9858950" lon="126.6026410">
    <ele>6</ele>
   </trkpt>
   <trkpt lat="34.9859050" lon="126.6026300">
    <ele>6</ele>
   </trkpt>
   <trkpt lat="34.9860230" lon="126.6024960">
    <ele>5</ele>
   </trkpt>
   <trkpt lat="34.9862160" lon="126.6023030">
    <ele>5</ele>
   </trkpt>
   <trkpt lat="34.9862380" lon="126.6022840">
    <ele>5</ele>
   </trkpt>
   <trkpt lat="34.9865090" lon="126.6020480">
    <ele>5</ele>
   </trkpt>
   <trkpt lat="34.9867500" lon="126.6018460">
    <ele>5</ele>
   </trkpt>
   <trkpt lat="34.9871160" lon="126.6015720">
    <ele>5</ele>
   </trkpt>
   <trkpt lat="34.9895939" lon="126.5998310">
    <ele>4</ele>
   </trkpt>
   <trkpt lat="34.9899760" lon="126.5995630">
    <ele>4</ele>
   </trkpt>
   <trkpt lat="34.9913870" lon="126.5985710">
    <ele>4</ele>
   </trkpt>
   <trkpt lat="34.9918110" lon="126.5982690">
    <ele>4</ele>
   </trkpt>
   <trkpt lat="34.9923420" lon="126.5978900">
    <ele>4</ele>
   </trkpt>
   <trkpt lat="34.9927170" lon="126.5976130">
    <ele>4</ele>
   </trkpt>
   <trkpt lat="34.9932950" lon="126.5971720">
    <ele>4</ele>
   </trkpt>
   <trkpt lat="34.9933380" lon="126.5971390">
    <ele>4</ele>
   </trkpt>
   <trkpt lat="34.9936409" lon="126.5968390">
    <ele>4</ele>
   </trkpt>
   <trkpt lat="34.9938390" lon="126.5966430">
    <ele>4</ele>
   </trkpt>
   <trkpt lat="34.9940920" lon="126.5963540">
    <ele>3</ele>
   </trkpt>
   <trkpt lat="34.9942860" lon="126.5960650">
    <ele>3</ele>
   </trkpt>
   <trkpt lat="34.9947120" lon="126.5952930">
    <ele>4</ele>
   </trkpt>
   <trkpt lat="34.9950260" lon="126.5943190">
    <ele>4</ele>
   </trkpt>
   <trkpt lat="34.9950840" lon="126.5938810">
    <ele>4</ele>
   </trkpt>
   <trkpt lat="34.9951470" lon="126.5934020">
    <ele>4</ele>
   </trkpt>
   <trkpt lat="34.9951540" lon="126.5933480">
    <ele>4</ele>
   </trkpt>
   <trkpt lat="34.9951590" lon="126.5927990">
    <ele>4</ele>
   </trkpt>
   <trkpt lat="34.9951320" lon="126.5923580">
    <ele>4</ele>
   </trkpt>
   <trkpt lat="34.9950450" lon="126.5917920">
    <ele>4</ele>
   </trkpt>
   <trkpt lat="34.9948810" lon="126.5912170">
    <ele>5</ele>
   </trkpt>
   <trkpt lat="34.9946580" lon="126.5906410">
    <ele>5</ele>
   </trkpt>
   <trkpt lat="34.9946380" lon="126.5905990">
    <ele>5</ele>
   </trkpt>
   <trkpt lat="34.9944739" lon="126.5902420">
    <ele>5</ele>
   </trkpt>
   <trkpt lat="34.9944380" lon="126.5901800">
    <ele>5</ele>
   </trkpt>
   <trkpt lat="34.9942750" lon="126.5898970">
    <ele>5</ele>
   </trkpt>
   <trkpt lat="34.9940990" lon="126.5895880">
    <ele>6</ele>
   </trkpt>
   <trkpt lat="34.9934579" lon="126.5889220">
    <ele>6</ele>
   </trkpt>
   <trkpt lat="34.9925980" lon="126.5880920">
    <ele>6</ele>
   </trkpt>
   <trkpt lat="34.9925000" lon="126.5879950">
    <ele>6</ele>
   </trkpt>
   <trkpt lat="34.9921910" lon="126.5876900">
    <ele>6</ele>
   </trkpt>
   <trkpt lat="34.9914790" lon="126.5869870">
    <ele>7</ele>
   </trkpt>
   <trkpt lat="34.9909600" lon="126.5864170">
    <ele>7</ele>
   </trkpt>
   <trkpt lat="34.9903440" lon="126.5858990">
    <ele>7</ele>
   </trkpt>
   <trkpt lat="34.9901270" lon="126.5857300">
    <ele>7</ele>
   </trkpt>
   <trkpt lat="34.9898000" lon="126.5854770">
    <ele>7</ele>
   </trkpt>
   <trkpt lat="34.9894750" lon="126.5852250">
    <ele>8</ele>
   </trkpt>
   <trkpt lat="34.9888600" lon="126.5847610">
    <ele>8</ele>
   </trkpt>
   <trkpt lat="34.9884380" lon="126.5847000">
    <ele>8</ele>
   </trkpt>
   <trkpt lat="34.9880120" lon="126.5847680">
    <ele>8</ele>
   </trkpt>
   <trkpt lat="34.9875870" lon="126.5847880">
    <ele>8</ele>
   </trkpt>
   <trkpt lat="34.9871530" lon="126.5846930">
    <ele>8</ele>
   </trkpt>
   <trkpt lat="34.9870580" lon="126.5846220">
    <ele>9</ele>
   </trkpt>
   <trkpt lat="34.9868040" lon="126.5844300">
    <ele>9</ele>
   </trkpt>
   <trkpt lat="34.9867650" lon="126.5843670">
    <ele>9</ele>
   </trkpt>
   <trkpt lat="34.9865060" lon="126.5839550">
    <ele>9</ele>
   </trkpt>
   <trkpt lat="34.9862840" lon="126.5833430">
    <ele>9</ele>
   </trkpt>
   <trkpt lat="34.9860810" lon="126.5827730">
    <ele>9</ele>
   </trkpt>
   <trkpt lat="34.9860690" lon="126.5827400">
    <ele>8</ele>
   </trkpt>
   <trkpt lat="34.9859840" lon="126.5825780">
    <ele>8</ele>
   </trkpt>
   <trkpt lat="34.9858950" lon="126.5824240">
    <ele>8</ele>
   </trkpt>
   <trkpt lat="34.9858680" lon="126.5823820">
    <ele>8</ele>
   </trkpt>
   <trkpt lat="34.9857180" lon="126.5821560">
    <ele>8</ele>
   </trkpt>
   <trkpt lat="34.9852230" lon="126.5815410">
    <ele>8</ele>
   </trkpt>
   <trkpt lat="34.9850240" lon="126.5812910">
    <ele>8</ele>
   </trkpt>
   <trkpt lat="34.9848030" lon="126.5810040">
    <ele>8</ele>
   </trkpt>
   <trkpt lat="34.9845339" lon="126.5806540">
    <ele>7</ele>
   </trkpt>
   <trkpt lat="34.9832630" lon="126.5790030">
    <ele>7</ele>
   </trkpt>
   <trkpt lat="34.9829920" lon="126.5786510">
    <ele>7</ele>
   </trkpt>
   <trkpt lat="34.9825700" lon="126.5781030">
    <ele>7</ele>
   </trkpt>
   <trkpt lat="34.9824350" lon="126.5779330">
    <ele>7</ele>
   </trkpt>
   <trkpt lat="34.9821079" lon="126.5775590">
    <ele>6</ele>
   </trkpt>
   <trkpt lat="34.9819249" lon="126.5773770">
    <ele>6</ele>
   </trkpt>
   <trkpt lat="34.9817950" lon="126.5772490">
    <ele>6</ele>
   </trkpt>
   <trkpt lat="34.9815970" lon="126.5770880">
    <ele>6</ele>
   </trkpt>
   <trkpt lat="34.9814110" lon="126.5769520">
    <ele>6</ele>
   </trkpt>
   <trkpt lat="34.9813400" lon="126.5769010">
    <ele>5</ele>
   </trkpt>
   <trkpt lat="34.9811229" lon="126.5767710">
    <ele>5</ele>
   </trkpt>
   <trkpt lat="34.9810190" lon="126.5767120">
    <ele>5</ele>
   </trkpt>
   <trkpt lat="34.9808090" lon="126.5765940">
    <ele>5</ele>
   </trkpt>
   <trkpt lat="34.9806010" lon="126.5764850">
    <ele>5</ele>
   </trkpt>
   <trkpt lat="34.9803980" lon="126.5764020">
    <ele>4</ele>
   </trkpt>
   <trkpt lat="34.9802110" lon="126.5763410">
    <ele>4</ele>
   </trkpt>
   <trkpt lat="34.9800230" lon="126.5762790">
    <ele>4</ele>
   </trkpt>
   <trkpt lat="34.9792860" lon="126.5761110">
    <ele>4</ele>
   </trkpt>
   <trkpt lat="34.9791970" lon="126.5760810">
    <ele>4</ele>
   </trkpt>
   <trkpt lat="34.9790470" lon="126.5760220">
    <ele>4</ele>
   </trkpt>
   <trkpt lat="34.9789220" lon="126.5759600">
    <ele>4</ele>
   </trkpt>
   <trkpt lat="34.9788510" lon="126.5759070">
    <ele>3</ele>
   </trkpt>
   <trkpt lat="34.9787869" lon="126.5758590">
    <ele>3</ele>
   </trkpt>
   <trkpt lat="34.9787000" lon="126.5757830">
    <ele>3</ele>
   </trkpt>
   <trkpt lat="34.9785690" lon="126.5756490">
    <ele>3</ele>
   </trkpt>
   <trkpt lat="34.9785400" lon="126.5756100">
    <ele>3</ele>
   </trkpt>
   <trkpt lat="34.9784330" lon="126.5754660">
    <ele>3</ele>
   </trkpt>
   <trkpt lat="34.9783649" lon="126.5753260">
    <ele>3</ele>
   </trkpt>
   <trkpt lat="34.9783190" lon="126.5751950">
    <ele>3</ele>
   </trkpt>
   <trkpt lat="34.9782640" lon="126.5750260">
    <ele>3</ele>
   </trkpt>
   <trkpt lat="34.9782340" lon="126.5748790">
    <ele>3</ele>
   </trkpt>
   <trkpt lat="34.9782180" lon="126.5747920">
    <ele>3</ele>
   </trkpt>
   <trkpt lat="34.9782120" lon="126.5747230">
    <ele>3</ele>
   </trkpt>
   <trkpt lat="34.9782050" lon="126.5746460">
    <ele>3</ele>
   </trkpt>
   <trkpt lat="34.9782050" lon="126.5745320">
    <ele>3</ele>
   </trkpt>
   <trkpt lat="34.9782150" lon="126.5744060">
    <ele>3</ele>
   </trkpt>
   <trkpt lat="34.9782439" lon="126.5742170">
    <ele>3</ele>
   </trkpt>
   <trkpt lat="34.9782730" lon="126.5740890">
    <ele>3</ele>
   </trkpt>
   <trkpt lat="34.9783250" lon="126.5739350">
    <ele>3</ele>
   </trkpt>
   <trkpt lat="34.9783500" lon="126.5738750">
    <ele>3</ele>
   </trkpt>
   <trkpt lat="34.9783970" lon="126.5737650">
    <ele>4</ele>
   </trkpt>
   <trkpt lat="34.9785020" lon="126.5735900">
    <ele>4</ele>
   </trkpt>
   <trkpt lat="34.9785710" lon="126.5734940">
    <ele>4</ele>
   </trkpt>
   <trkpt lat="34.9786840" lon="126.5733720">
    <ele>4</ele>
   </trkpt>
   <trkpt lat="34.9787530" lon="126.5733010">
    <ele>4</ele>
   </trkpt>
   <trkpt lat="34.9788740" lon="126.5732060">
    <ele>4</ele>
   </trkpt>
   <trkpt lat="34.9790020" lon="126.5731120">
    <ele>5</ele>
   </trkpt>
   <trkpt lat="34.9810130" lon="126.5717590">
    <ele>5</ele>
   </trkpt>
   <trkpt lat="34.9816430" lon="126.5713350">
    <ele>5</ele>
   </trkpt>
   <trkpt lat="34.9835120" lon="126.5700780">
    <ele>5</ele>
   </trkpt>
   <trkpt lat="34.9841460" lon="126.5696550">
    <ele>6</ele>
   </trkpt>
   <trkpt lat="34.9849090" lon="126.5691220">
    <ele>6</ele>
   </trkpt>
   <trkpt lat="34.9855329" lon="126.5686870">
    <ele>6</ele>
   </trkpt>
   <trkpt lat="34.9858590" lon="126.5684590">
    <ele>7</ele>
   </trkpt>
   <trkpt lat="34.9867260" lon="126.5678960">
    <ele>7</ele>
   </trkpt>
   <trkpt lat="34.9868270" lon="126.5678110">
    <ele>7</ele>
   </trkpt>
   <trkpt lat="34.9871260" lon="126.5675620">
    <ele>7</ele>
   </trkpt>
   <trkpt lat="34.9874129" lon="126.5672730">
    <ele>8</ele>
   </trkpt>
   <trkpt lat="34.9875160" lon="126.5671610">
    <ele>8</ele>
   </trkpt>
   <trkpt lat="34.9877810" lon="126.5668360">
    <ele>8</ele>
   </trkpt>
   <trkpt lat="34.9880780" lon="126.5663120">
    <ele>8</ele>
   </trkpt>
   <trkpt lat="34.9881810" lon="126.5661300">
    <ele>9</ele>
   </trkpt>
   <trkpt lat="34.9882530" lon="126.5659210">
    <ele>9</ele>
   </trkpt>
   <trkpt lat="34.9883430" lon="126.5656480">
    <ele>9</ele>
   </trkpt>
   <trkpt lat="34.9883630" lon="126.5655890">
    <ele>10</ele>
   </trkpt>
   <trkpt lat="34.9883790" lon="126.5655180">
    <ele>10</ele>
   </trkpt>
   <trkpt lat="34.9884470" lon="126.5652110">
    <ele>10</ele>
   </trkpt>
   <trkpt lat="34.9884950" lon="126.5648920">
    <ele>11</ele>
   </trkpt>
   <trkpt lat="34.9885150" lon="126.5646580">
    <ele>11</ele>
   </trkpt>
   <trkpt lat="34.9885230" lon="126.5645640">
    <ele>11</ele>
   </trkpt>
   <trkpt lat="34.9885499" lon="126.5642410">
    <ele>12</ele>
   </trkpt>
   <trkpt lat="34.9885690" lon="126.5640690">
    <ele>12</ele>
   </trkpt>
   <trkpt lat="34.9885980" lon="126.5639210">
    <ele>12</ele>
   </trkpt>
   <trkpt lat="34.9886520" lon="126.5637350">
    <ele>13</ele>
   </trkpt>
   <trkpt lat="34.9887020" lon="126.5635770">
    <ele>13</ele>
   </trkpt>
   <trkpt lat="34.9887670" lon="126.5633940">
    <ele>13</ele>
   </trkpt>
   <trkpt lat="34.9888760" lon="126.5631050">
    <ele>13</ele>
   </trkpt>
   <trkpt lat="34.9889889" lon="126.5628460">
    <ele>13</ele>
   </trkpt>
   <trkpt lat="34.9891250" lon="126.5625760">
    <ele>14</ele>
   </trkpt>
   <trkpt lat="34.9892420" lon="126.5623720">
    <ele>14</ele>
   </trkpt>
   <trkpt lat="34.9893530" lon="126.5622150">
    <ele>14</ele>
   </trkpt>
   <trkpt lat="34.9895420" lon="126.5619720">
    <ele>14</ele>
   </trkpt>
   <trkpt lat="34.9897540" lon="126.5616730">
    <ele>14</ele>
   </trkpt>
   <trkpt lat="34.9898790" lon="126.5615000">
    <ele>14</ele>
   </trkpt>
   <trkpt lat="34.9899790" lon="126.5613330">
    <ele>14</ele>
   </trkpt>
   <trkpt lat="34.9899930" lon="126.5613100">
    <ele>14</ele>
   </trkpt>
   <trkpt lat="34.9901590" lon="126.5609670">
    <ele>14</ele>
   </trkpt>
   <trkpt lat="34.9902290" lon="126.5607660">
    <ele>14</ele>
   </trkpt>
   <trkpt lat="34.9902780" lon="126.5605780">
    <ele>14</ele>
   </trkpt>
   <trkpt lat="34.9902840" lon="126.5605440">
    <ele>14</ele>
   </trkpt>
   <trkpt lat="34.9903070" lon="126.5604080">
    <ele>14</ele>
   </trkpt>
   <trkpt lat="34.9903210" lon="126.5602220">
    <ele>14</ele>
   </trkpt>
   <trkpt lat="34.9903180" lon="126.5600900">
    <ele>14</ele>
   </trkpt>
   <trkpt lat="34.9903070" lon="126.5599280">
    <ele>14</ele>
   </trkpt>
   <trkpt lat="34.9902820" lon="126.5597150">
    <ele>14</ele>
   </trkpt>
   <trkpt lat="34.9901920" lon="126.5590850">
    <ele>14</ele>
   </trkpt>
   <trkpt lat="34.9901040" lon="126.5583440">
    <ele>14</ele>
   </trkpt>
   <trkpt lat="34.9900920" lon="126.5581040">
    <ele>14</ele>
   </trkpt>
   <trkpt lat="34.9900910" lon="126.5574880">
    <ele>14</ele>
   </trkpt>
   <trkpt lat="34.9900770" lon="126.5572890">
    <ele>13</ele>
   </trkpt>
   <trkpt lat="34.9900370" lon="126.5567360">
    <ele>13</ele>
   </trkpt>
   <trkpt lat="34.9900189" lon="126.5564150">
    <ele>13</ele>
   </trkpt>
   <trkpt lat="34.9899930" lon="126.5559660">
    <ele>13</ele>
   </trkpt>
   <trkpt lat="34.9899720" lon="126.5555390">
    <ele>12</ele>
   </trkpt>
   <trkpt lat="34.9898790" lon="126.5542520">
    <ele>12</ele>
   </trkpt>
   <trkpt lat="34.9898740" lon="126.5542130">
    <ele>12</ele>
   </trkpt>
   <trkpt lat="34.9898420" lon="126.5539550">
    <ele>12</ele>
   </trkpt>
   <trkpt lat="34.9897440" lon="126.5534670">
    <ele>11</ele>
   </trkpt>
   <trkpt lat="34.9896200" lon="126.5530080">
    <ele>11</ele>
   </trkpt>
   <trkpt lat="34.9894660" lon="126.5524860">
    <ele>11</ele>
   </trkpt>
   <trkpt lat="34.9893750" lon="126.5522100">
    <ele>11</ele>
   </trkpt>
   <trkpt lat="34.9893200" lon="126.5520670">
    <ele>11</ele>
   </trkpt>
   <trkpt lat="34.9892560" lon="126.5519170">
    <ele>11</ele>
   </trkpt>
   <trkpt lat="34.9892070" lon="126.5518190">
    <ele>11</ele>
   </trkpt>
   <trkpt lat="34.9891420" lon="126.5516870">
    <ele>10</ele>
   </trkpt>
   <trkpt lat="34.9890670" lon="126.5515580">
    <ele>10</ele>
   </trkpt>
   <trkpt lat="34.9888320" lon="126.5511560">
    <ele>10</ele>
   </trkpt>
   <trkpt lat="34.9886410" lon="126.5508620">
    <ele>10</ele>
   </trkpt>
   <trkpt lat="34.9885410" lon="126.5507090">
    <ele>10</ele>
   </trkpt>
   <trkpt lat="34.9883440" lon="126.5504190">
    <ele>10</ele>
   </trkpt>
   <trkpt lat="34.9882690" lon="126.5503190">
    <ele>10</ele>
   </trkpt>
   <trkpt lat="34.9881920" lon="126.5502230">
    <ele>10</ele>
   </trkpt>
   <trkpt lat="34.9881120" lon="126.5501230">
    <ele>10</ele>
   </trkpt>
   <trkpt lat="34.9880380" lon="126.5500340">
    <ele>10</ele>
   </trkpt>
   <trkpt lat="34.9878880" lon="126.5498750">
    <ele>10</ele>
   </trkpt>
   <trkpt lat="34.9876470" lon="126.5496160">
    <ele>10</ele>
   </trkpt>
   <trkpt lat="34.9875450" lon="126.5494970">
    <ele>9</ele>
   </trkpt>
   <trkpt lat="34.9873850" lon="126.5493100">
    <ele>9</ele>
   </trkpt>
   <trkpt lat="34.9868219" lon="126.5486010">
    <ele>9</ele>
   </trkpt>
   <trkpt lat="34.9862420" lon="126.5478830">
    <ele>9</ele>
   </trkpt>
   <trkpt lat="34.9860150" lon="126.5475820">
    <ele>9</ele>
   </trkpt>
   <trkpt lat="34.9856190" lon="126.5470240">
    <ele>9</ele>
   </trkpt>
   <trkpt lat="34.9852050" lon="126.5464370">
    <ele>9</ele>
   </trkpt>
   <trkpt lat="34.9851290" lon="126.5463280">
    <ele>9</ele>
   </trkpt>
   <trkpt lat="34.9846689" lon="126.5456660">
    <ele>9</ele>
   </trkpt>
   <trkpt lat="34.9844360" lon="126.5453290">
    <ele>9</ele>
   </trkpt>
   <trkpt lat="34.9841989" lon="126.5449550">
    <ele>9</ele>
   </trkpt>
   <trkpt lat="34.9844269" lon="126.5453170">
    <ele>9</ele>
   </trkpt>
   <trkpt lat="34.9852050" lon="126.5464370">
    <ele>9</ele>
   </trkpt>
   <trkpt lat="34.9856190" lon="126.5470240">
    <ele>9</ele>
   </trkpt>
   <trkpt lat="34.9858730" lon="126.5473820">
    <ele>9</ele>
   </trkpt>
   <trkpt lat="34.9860150" lon="126.5475820">
    <ele>9</ele>
   </trkpt>
   <trkpt lat="34.9861560" lon="126.5477690">
    <ele>9</ele>
   </trkpt>
   <trkpt lat="34.9862420" lon="126.5478830">
    <ele>9</ele>
   </trkpt>
   <trkpt lat="34.9868219" lon="126.5486010">
    <ele>9</ele>
   </trkpt>
   <trkpt lat="34.9873850" lon="126.5493100">
    <ele>9</ele>
   </trkpt>
   <trkpt lat="34.9875450" lon="126.5494970">
    <ele>9</ele>
   </trkpt>
   <trkpt lat="34.9876470" lon="126.5496160">
    <ele>9</ele>
   </trkpt>
   <trkpt lat="34.9878880" lon="126.5498750">
    <ele>9</ele>
   </trkpt>
   <trkpt lat="34.9880380" lon="126.5500340">
    <ele>9</ele>
   </trkpt>
   <trkpt lat="34.9881120" lon="126.5501230">
    <ele>9</ele>
   </trkpt>
   <trkpt lat="34.9881920" lon="126.5502230">
    <ele>10</ele>
   </trkpt>
   <trkpt lat="34.9882690" lon="126.5503190">
    <ele>10</ele>
   </trkpt>
   <trkpt lat="34.9882790" lon="126.5503320">
    <ele>10</ele>
   </trkpt>
   <trkpt lat="34.9883440" lon="126.5504190">
    <ele>10</ele>
   </trkpt>
   <trkpt lat="34.9885460" lon="126.5507170">
    <ele>10</ele>
   </trkpt>
   <trkpt lat="34.9888320" lon="126.5511560">
    <ele>10</ele>
   </trkpt>
   <trkpt lat="34.9891420" lon="126.5516870">
    <ele>10</ele>
   </trkpt>
   <trkpt lat="34.9892070" lon="126.5518190">
    <ele>10</ele>
   </trkpt>
   <trkpt lat="34.9892560" lon="126.5519170">
    <ele>10</ele>
   </trkpt>
   <trkpt lat="34.9893200" lon="126.5520670">
    <ele>10</ele>
   </trkpt>
   <trkpt lat="34.9893750" lon="126.5522100">
    <ele>11</ele>
   </trkpt>
   <trkpt lat="34.9894660" lon="126.5524860">
    <ele>11</ele>
   </trkpt>
   <trkpt lat="34.9896200" lon="126.5530080">
    <ele>11</ele>
   </trkpt>
   <trkpt lat="34.9896850" lon="126.5532500">
    <ele>11</ele>
   </trkpt>
   <trkpt lat="34.9897440" lon="126.5534670">
    <ele>11</ele>
   </trkpt>
   <trkpt lat="34.9897970" lon="126.5537290">
    <ele>12</ele>
   </trkpt>
   <trkpt lat="34.9898420" lon="126.5539550">
    <ele>12</ele>
   </trkpt>
   <trkpt lat="34.9898740" lon="126.5542130">
    <ele>12</ele>
   </trkpt>
   <trkpt lat="34.9898790" lon="126.5542520">
    <ele>12</ele>
   </trkpt>
   <trkpt lat="34.9899720" lon="126.5555390">
    <ele>13</ele>
   </trkpt>
   <trkpt lat="34.9899930" lon="126.5559660">
    <ele>13</ele>
   </trkpt>
   <trkpt lat="34.9900329" lon="126.5566660">
    <ele>13</ele>
   </trkpt>
   <trkpt lat="34.9900370" lon="126.5567360">
    <ele>13</ele>
   </trkpt>
   <trkpt lat="34.9900680" lon="126.5571680">
    <ele>14</ele>
   </trkpt>
   <trkpt lat="34.9900910" lon="126.5574880">
    <ele>14</ele>
   </trkpt>
   <trkpt lat="34.9900920" lon="126.5581040">
    <ele>14</ele>
   </trkpt>
   <trkpt lat="34.9901040" lon="126.5583440">
    <ele>14</ele>
   </trkpt>
   <trkpt lat="34.9901920" lon="126.5590850">
    <ele>14</ele>
   </trkpt>
   <trkpt lat="34.9902550" lon="126.5595230">
    <ele>15</ele>
   </trkpt>
   <trkpt lat="34.9902820" lon="126.5597150">
    <ele>15</ele>
   </trkpt>
   <trkpt lat="34.9903070" lon="126.5599280">
    <ele>15</ele>
   </trkpt>
   <trkpt lat="34.9903130" lon="126.5600210">
    <ele>15</ele>
   </trkpt>
   <trkpt lat="34.9903180" lon="126.5600900">
    <ele>15</ele>
   </trkpt>
   <trkpt lat="34.9903210" lon="126.5602220">
    <ele>15</ele>
   </trkpt>
   <trkpt lat="34.9903070" lon="126.5604080">
    <ele>15</ele>
   </trkpt>
   <trkpt lat="34.9902780" lon="126.5605780">
    <ele>15</ele>
   </trkpt>
   <trkpt lat="34.9902290" lon="126.5607660">
    <ele>15</ele>
   </trkpt>
   <trkpt lat="34.9901590" lon="126.5609670">
    <ele>15</ele>
   </trkpt>
   <trkpt lat="34.9899930" lon="126.5613100">
    <ele>15</ele>
   </trkpt>
   <trkpt lat="34.9899119" lon="126.5614460">
    <ele>15</ele>
   </trkpt>
   <trkpt lat="34.9898790" lon="126.5615000">
    <ele>15</ele>
   </trkpt>
   <trkpt lat="34.9897540" lon="126.5616730">
    <ele>15</ele>
   </trkpt>
   <trkpt lat="34.9896480" lon="126.5618230">
    <ele>14</ele>
   </trkpt>
   <trkpt lat="34.9895420" lon="126.5619720">
    <ele>14</ele>
   </trkpt>
   <trkpt lat="34.9893530" lon="126.5622150">
    <ele>14</ele>
   </trkpt>
   <trkpt lat="34.9892420" lon="126.5623720">
    <ele>14</ele>
   </trkpt>
   <trkpt lat="34.9891250" lon="126.5625760">
    <ele>14</ele>
   </trkpt>
   <trkpt lat="34.9889889" lon="126.5628460">
    <ele>14</ele>
   </trkpt>
   <trkpt lat="34.9888760" lon="126.5631050">
    <ele>14</ele>
   </trkpt>
   <trkpt lat="34.9887670" lon="126.5633940">
    <ele>13</ele>
   </trkpt>
   <trkpt lat="34.9887020" lon="126.5635770">
    <ele>13</ele>
   </trkpt>
   <trkpt lat="34.9886520" lon="126.5637350">
    <ele>13</ele>
   </trkpt>
   <trkpt lat="34.9885980" lon="126.5639210">
    <ele>13</ele>
   </trkpt>
   <trkpt lat="34.9885690" lon="126.5640690">
    <ele>12</ele>
   </trkpt>
   <trkpt lat="34.9885499" lon="126.5642410">
    <ele>12</ele>
   </trkpt>
   <trkpt lat="34.9885480" lon="126.5642660">
    <ele>12</ele>
   </trkpt>
   <trkpt lat="34.9885230" lon="126.5645640">
    <ele>11</ele>
   </trkpt>
   <trkpt lat="34.9885040" lon="126.5647880">
    <ele>11</ele>
   </trkpt>
   <trkpt lat="34.9884950" lon="126.5648920">
    <ele>11</ele>
   </trkpt>
   <trkpt lat="34.9884470" lon="126.5652110">
    <ele>10</ele>
   </trkpt>
   <trkpt lat="34.9883630" lon="126.5655890">
    <ele>10</ele>
   </trkpt>
   <trkpt lat="34.9883430" lon="126.5656480">
    <ele>10</ele>
   </trkpt>
   <trkpt lat="34.9882530" lon="126.5659210">
    <ele>9</ele>
   </trkpt>
   <trkpt lat="34.9881810" lon="126.5661300">
    <ele>9</ele>
   </trkpt>
   <trkpt lat="34.9880780" lon="126.5663120">
    <ele>9</ele>
   </trkpt>
   <trkpt lat="34.9877810" lon="126.5668360">
    <ele>9</ele>
   </trkpt>
   <trkpt lat="34.9875160" lon="126.5671610">
    <ele>8</ele>
   </trkpt>
   <trkpt lat="34.9874129" lon="126.5672730">
    <ele>8</ele>
   </trkpt>
   <trkpt lat="34.9871260" lon="126.5675620">
    <ele>8</ele>
   </trkpt>
   <trkpt lat="34.9868270" lon="126.5678110">
    <ele>7</ele>
   </trkpt>
   <trkpt lat="34.9867260" lon="126.5678960">
    <ele>7</ele>
   </trkpt>
   <trkpt lat="34.9858590" lon="126.5684590">
    <ele>7</ele>
   </trkpt>
   <trkpt lat="34.9856610" lon="126.5685970">
    <ele>7</ele>
   </trkpt>
   <trkpt lat="34.9852870" lon="126.5688590">
    <ele>6</ele>
   </trkpt>
   <trkpt lat="34.9841460" lon="126.5696550">
    <ele>6</ele>
   </trkpt>
   <trkpt lat="34.9835120" lon="126.5700780">
    <ele>6</ele>
   </trkpt>
   <trkpt lat="34.9822710" lon="126.5709130">
    <ele>5</ele>
   </trkpt>
   <trkpt lat="34.9818900" lon="126.5711690">
    <ele>5</ele>
   </trkpt>
   <trkpt lat="34.9790020" lon="126.5731120">
    <ele>5</ele>
   </trkpt>
   <trkpt lat="34.9788740" lon="126.5732060">
    <ele>5</ele>
   </trkpt>
   <trkpt lat="34.9787530" lon="126.5733010">
    <ele>4</ele>
   </trkpt>
   <trkpt lat="34.9786840" lon="126.5733720">
    <ele>4</ele>
   </trkpt>
   <trkpt lat="34.9785710" lon="126.5734940">
    <ele>4</ele>
   </trkpt>
   <trkpt lat="34.9785300" lon="126.5735520">
    <ele>4</ele>
   </trkpt>
   <trkpt lat="34.9785020" lon="126.5735900">
    <ele>4</ele>
   </trkpt>
   <trkpt lat="34.9783970" lon="126.5737650">
    <ele>4</ele>
   </trkpt>
   <trkpt lat="34.9783250" lon="126.5739350">
    <ele>4</ele>
   </trkpt>
   <trkpt lat="34.9783029" lon="126.5740010">
    <ele>4</ele>
   </trkpt>
   <trkpt lat="34.9782730" lon="126.5740890">
    <ele>3</ele>
   </trkpt>
   <trkpt lat="34.9782439" lon="126.5742170">
    <ele>3</ele>
   </trkpt>
   <trkpt lat="34.9782150" lon="126.5744060">
    <ele>3</ele>
   </trkpt>
   <trkpt lat="34.9782050" lon="126.5745320">
    <ele>3</ele>
   </trkpt>
   <trkpt lat="34.9782050" lon="126.5746460">
    <ele>3</ele>
   </trkpt>
   <trkpt lat="34.9782180" lon="126.5747920">
    <ele>3</ele>
   </trkpt>
   <trkpt lat="34.9782340" lon="126.5748790">
    <ele>3</ele>
   </trkpt>
   <trkpt lat="34.9782640" lon="126.5750260">
    <ele>3</ele>
   </trkpt>
   <trkpt lat="34.9783190" lon="126.5751950">
    <ele>3</ele>
   </trkpt>
   <trkpt lat="34.9783649" lon="126.5753260">
    <ele>3</ele>
   </trkpt>
   <trkpt lat="34.9784330" lon="126.5754660">
    <ele>3</ele>
   </trkpt>
   <trkpt lat="34.9785690" lon="126.5756490">
    <ele>3</ele>
   </trkpt>
   <trkpt lat="34.9787000" lon="126.5757830">
    <ele>3</ele>
   </trkpt>
   <trkpt lat="34.9787869" lon="126.5758590">
    <ele>4</ele>
   </trkpt>
   <trkpt lat="34.9789220" lon="126.5759600">
    <ele>4</ele>
   </trkpt>
   <trkpt lat="34.9790470" lon="126.5760220">
    <ele>4</ele>
   </trkpt>
   <trkpt lat="34.9791970" lon="126.5760810">
    <ele>4</ele>
   </trkpt>
   <trkpt lat="34.9792860" lon="126.5761110">
    <ele>4</ele>
   </trkpt>
   <trkpt lat="34.9796790" lon="126.5762010">
    <ele>4</ele>
   </trkpt>
   <trkpt lat="34.9800230" lon="126.5762790">
    <ele>4</ele>
   </trkpt>
   <trkpt lat="34.9801020" lon="126.5763050">
    <ele>5</ele>
   </trkpt>
   <trkpt lat="34.9802110" lon="126.5763410">
    <ele>5</ele>
   </trkpt>
   <trkpt lat="34.9803980" lon="126.5764020">
    <ele>5</ele>
   </trkpt>
   <trkpt lat="34.9806010" lon="126.5764850">
    <ele>5</ele>
   </trkpt>
   <trkpt lat="34.9808090" lon="126.5765940">
    <ele>5</ele>
   </trkpt>
   <trkpt lat="34.9811229" lon="126.5767710">
    <ele>5</ele>
   </trkpt>
   <trkpt lat="34.9813400" lon="126.5769010">
    <ele>6</ele>
   </trkpt>
   <trkpt lat="34.9815970" lon="126.5770880">
    <ele>6</ele>
   </trkpt>
   <trkpt lat="34.9817950" lon="126.5772490">
    <ele>6</ele>
   </trkpt>
   <trkpt lat="34.9819249" lon="126.5773770">
    <ele>6</ele>
   </trkpt>
   <trkpt lat="34.9821079" lon="126.5775590">
    <ele>6</ele>
   </trkpt>
   <trkpt lat="34.9824350" lon="126.5779330">
    <ele>6</ele>
   </trkpt>
   <trkpt lat="34.9825700" lon="126.5781030">
    <ele>7</ele>
   </trkpt>
   <trkpt lat="34.9828250" lon="126.5784340">
    <ele>7</ele>
   </trkpt>
   <trkpt lat="34.9830970" lon="126.5787880">
    <ele>7</ele>
   </trkpt>
   <trkpt lat="34.9850240" lon="126.5812910">
    <ele>7</ele>
   </trkpt>
   <trkpt lat="34.9852230" lon="126.5815410">
    <ele>7</ele>
   </trkpt>
   <trkpt lat="34.9857180" lon="126.5821560">
    <ele>7</ele>
   </trkpt>
   <trkpt lat="34.9858950" lon="126.5824240">
    <ele>7</ele>
   </trkpt>
   <trkpt lat="34.9859840" lon="126.5825780">
    <ele>7</ele>
   </trkpt>
   <trkpt lat="34.9860690" lon="126.5827400">
    <ele>8</ele>
   </trkpt>
   <trkpt lat="34.9861340" lon="126.5829230">
    <ele>8</ele>
   </trkpt>
   <trkpt lat="34.9862840" lon="126.5833430">
    <ele>8</ele>
   </trkpt>
   <trkpt lat="34.9863080" lon="126.5834100">
    <ele>8</ele>
   </trkpt>
   <trkpt lat="34.9865060" lon="126.5839550">
    <ele>8</ele>
   </trkpt>
   <trkpt lat="34.9868040" lon="126.5844300">
    <ele>8</ele>
   </trkpt>
   <trkpt lat="34.9871530" lon="126.5846930">
    <ele>8</ele>
   </trkpt>
   <trkpt lat="34.9875870" lon="126.5847880">
    <ele>7</ele>
   </trkpt>
   <trkpt lat="34.9880120" lon="126.5847680">
    <ele>7</ele>
   </trkpt>
   <trkpt lat="34.9884380" lon="126.5847000">
    <ele>7</ele>
   </trkpt>
   <trkpt lat="34.9888600" lon="126.5847610">
    <ele>7</ele>
   </trkpt>
   <trkpt lat="34.9894750" lon="126.5852250">
    <ele>7</ele>
   </trkpt>
   <trkpt lat="34.9900270" lon="126.5856530">
    <ele>7</ele>
   </trkpt>
   <trkpt lat="34.9903440" lon="126.5858990">
    <ele>7</ele>
   </trkpt>
   <trkpt lat="34.9903930" lon="126.5859400">
    <ele>6</ele>
   </trkpt>
   <trkpt lat="34.9909600" lon="126.5864170">
    <ele>6</ele>
   </trkpt>
   <trkpt lat="34.9914790" lon="126.5869870">
    <ele>6</ele>
   </trkpt>
   <trkpt lat="34.9925980" lon="126.5880920">
    <ele>6</ele>
   </trkpt>
   <trkpt lat="34.9934579" lon="126.5889220">
    <ele>6</ele>
   </trkpt>
   <trkpt lat="34.9940990" lon="126.5895880">
    <ele>6</ele>
   </trkpt>
   <trkpt lat="34.9942750" lon="126.5898970">
    <ele>5</ele>
   </trkpt>
   <trkpt lat="34.9944739" lon="126.5902420">
    <ele>5</ele>
   </trkpt>
   <trkpt lat="34.9945880" lon="126.5904890">
    <ele>5</ele>
   </trkpt>
   <trkpt lat="34.9946580" lon="126.5906410">
    <ele>5</ele>
   </trkpt>
   <trkpt lat="34.9947830" lon="126.5909630">
    <ele>5</ele>
   </trkpt>
   <trkpt lat="34.9948810" lon="126.5912170">
    <ele>5</ele>
   </trkpt>
   <trkpt lat="34.9950450" lon="126.5917920">
    <ele>4</ele>
   </trkpt>
   <trkpt lat="34.9951320" lon="126.5923580">
    <ele>4</ele>
   </trkpt>
   <trkpt lat="34.9951590" lon="126.5927990">
    <ele>4</ele>
   </trkpt>
   <trkpt lat="34.9951540" lon="126.5933480">
    <ele>4</ele>
   </trkpt>
   <trkpt lat="34.9950260" lon="126.5943190">
    <ele>4</ele>
   </trkpt>
   <trkpt lat="34.9947120" lon="126.5952930">
    <ele>4</ele>
   </trkpt>
   <trkpt lat="34.9943780" lon="126.5958980">
    <ele>4</ele>
   </trkpt>
   <trkpt lat="34.9942860" lon="126.5960650">
    <ele>4</ele>
   </trkpt>
   <trkpt lat="34.9941150" lon="126.5963200">
    <ele>4</ele>
   </trkpt>
   <trkpt lat="34.9940920" lon="126.5963540">
    <ele>4</ele>
   </trkpt>
   <trkpt lat="34.9938390" lon="126.5966430">
    <ele>4</ele>
   </trkpt>
   <trkpt lat="34.9933380" lon="126.5971390">
    <ele>4</ele>
   </trkpt>
   <trkpt lat="34.9927170" lon="126.5976130">
    <ele>4</ele>
   </trkpt>
   <trkpt lat="34.9923420" lon="126.5978900">
    <ele>4</ele>
   </trkpt>
   <trkpt lat="34.9918110" lon="126.5982690">
    <ele>4</ele>
   </trkpt>
   <trkpt lat="34.9913870" lon="126.5985710">
    <ele>4</ele>
   </trkpt>
   <trkpt lat="34.9896350" lon="126.5998020">
    <ele>4</ele>
   </trkpt>
   <trkpt lat="34.9892610" lon="126.6000650">
    <ele>5</ele>
   </trkpt>
   <trkpt lat="34.9871160" lon="126.6015720">
    <ele>5</ele>
   </trkpt>
   <trkpt lat="34.9867500" lon="126.6018460">
    <ele>5</ele>
   </trkpt>
   <trkpt lat="34.9865090" lon="126.6020480">
    <ele>5</ele>
   </trkpt>
   <trkpt lat="34.9862160" lon="126.6023030">
    <ele>5</ele>
   </trkpt>
   <trkpt lat="34.9860230" lon="126.6024960">
    <ele>5</ele>
   </trkpt>
   <trkpt lat="34.9858950" lon="126.6026410">
    <ele>5</ele>
   </trkpt>
   <trkpt lat="34.9857150" lon="126.6028490">
    <ele>5</ele>
   </trkpt>
   <trkpt lat="34.9854930" lon="126.6031450">
    <ele>6</ele>
   </trkpt>
   <trkpt lat="34.9853610" lon="126.6033340">
    <ele>6</ele>
   </trkpt>
   <trkpt lat="34.9850580" lon="126.6038370">
    <ele>6</ele>
   </trkpt>
   <trkpt lat="34.9845640" lon="126.6048130">
    <ele>6</ele>
   </trkpt>
   <trkpt lat="34.9845090" lon="126.6049190">
    <ele>6</ele>
   </trkpt>
   <trkpt lat="34.9842889" lon="126.6053450">
    <ele>6</ele>
   </trkpt>
   <trkpt lat="34.9837580" lon="126.6063720">
    <ele>6</ele>
   </trkpt>
   <trkpt lat="34.9833780" lon="126.6070050">
    <ele>7</ele>
   </trkpt>
   <trkpt lat="34.9830050" lon="126.6075640">
    <ele>7</ele>
   </trkpt>
   <trkpt lat="34.9827080" lon="126.6081210">
    <ele>7</ele>
   </trkpt>
   <trkpt lat="34.9823820" lon="126.6086010">
    <ele>7</ele>
   </trkpt>
   <trkpt lat="34.9819699" lon="126.6090810">
    <ele>7</ele>
   </trkpt>
   <trkpt lat="34.9816040" lon="126.6097510">
    <ele>7</ele>
   </trkpt>
   <trkpt lat="34.9814810" lon="126.6100040">
    <ele>7</ele>
   </trkpt>
   <trkpt lat="34.9813580" lon="126.6103430">
    <ele>7</ele>
   </trkpt>
   <trkpt lat="34.9807550" lon="126.6111840">
    <ele>7</ele>
   </trkpt>
   <trkpt lat="34.9807520" lon="126.6111880">
    <ele>7</ele>
   </trkpt>
   <trkpt lat="34.9804710" lon="126.6115770">
    <ele>7</ele>
   </trkpt>
   <trkpt lat="34.9796180" lon="126.6127580">
    <ele>7</ele>
   </trkpt>
   <trkpt lat="34.9786260" lon="126.6140860">
    <ele>7</ele>
   </trkpt>
   <trkpt lat="34.9784790" lon="126.6143470">
    <ele>7</ele>
   </trkpt>
   <trkpt lat="34.9767530" lon="126.6171120">
    <ele>7</ele>
   </trkpt>
   <trkpt lat="34.9765020" lon="126.6175000">
    <ele>7</ele>
   </trkpt>
   <trkpt lat="34.9761340" lon="126.6179440">
    <ele>7</ele>
   </trkpt>
   <trkpt lat="34.9758250" lon="126.6185020">
    <ele>7</ele>
   </trkpt>
   <trkpt lat="34.9757400" lon="126.6187060">
    <ele>7</ele>
   </trkpt>
   <trkpt lat="34.9756069" lon="126.6190260">
    <ele>7</ele>
   </trkpt>
   <trkpt lat="34.9755660" lon="126.6191900">
    <ele>7</ele>
   </trkpt>
   <trkpt lat="34.9754760" lon="126.6195490">
    <ele>7</ele>
   </trkpt>
   <trkpt lat="34.9753600" lon="126.6202600">
    <ele>6</ele>
   </trkpt>
   <trkpt lat="34.9753540" lon="126.6209040">
    <ele>6</ele>
   </trkpt>
   <trkpt lat="34.9754260" lon="126.6217300">
    <ele>6</ele>
   </trkpt>
   <trkpt lat="34.9755460" lon="126.6222170">
    <ele>6</ele>
   </trkpt>
   <trkpt lat="34.9757750" lon="126.6226380">
    <ele>6</ele>
   </trkpt>
   <trkpt lat="34.9766500" lon="126.6241870">
    <ele>6</ele>
   </trkpt>
   <trkpt lat="34.9767450" lon="126.6243550">
    <ele>6</ele>
   </trkpt>
   <trkpt lat="34.9769050" lon="126.6246170">
    <ele>6</ele>
   </trkpt>
   <trkpt lat="34.9784850" lon="126.6272000">
    <ele>6</ele>
   </trkpt>
   <trkpt lat="34.9802930" lon="126.6299970">
    <ele>6</ele>
   </trkpt>
   <trkpt lat="34.9803070" lon="126.6300180">
    <ele>6</ele>
   </trkpt>
   <trkpt lat="34.9803730" lon="126.6301180">
    <ele>6</ele>
   </trkpt>
   <trkpt lat="34.9804249" lon="126.6302090">
    <ele>6</ele>
   </trkpt>
   <trkpt lat="34.9805540" lon="126.6304530">
    <ele>6</ele>
   </trkpt>
   <trkpt lat="34.9809849" lon="126.6312710">
    <ele>6</ele>
   </trkpt>
   <trkpt lat="34.9817110" lon="126.6324560">
    <ele>6</ele>
   </trkpt>
   <trkpt lat="34.9829590" lon="126.6342110">
    <ele>6</ele>
   </trkpt>
   <trkpt lat="34.9839290" lon="126.6355520">
    <ele>6</ele>
   </trkpt>
   <trkpt lat="34.9841420" lon="126.6358900">
    <ele>6</ele>
   </trkpt>
   <trkpt lat="34.9843120" lon="126.6361590">
    <ele>6</ele>
   </trkpt>
   <trkpt lat="34.9844000" lon="126.6363160">
    <ele>6</ele>
   </trkpt>
   <trkpt lat="34.9845080" lon="126.6365070">
    <ele>6</ele>
   </trkpt>
   <trkpt lat="34.9846580" lon="126.6368550">
    <ele>6</ele>
   </trkpt>
   <trkpt lat="34.9848410" lon="126.6373090">
    <ele>6</ele>
   </trkpt>
   <trkpt lat="34.9850130" lon="126.6378690">
    <ele>6</ele>
   </trkpt>
   <trkpt lat="34.9851760" lon="126.6385470">
    <ele>6</ele>
   </trkpt>
   <trkpt lat="34.9852330" lon="126.6390120">
    <ele>6</ele>
   </trkpt>
   <trkpt lat="34.9853510" lon="126.6401150">
    <ele>6</ele>
   </trkpt>
   <trkpt lat="34.9854080" lon="126.6404600">
    <ele>6</ele>
   </trkpt>
   <trkpt lat="34.9854830" lon="126.6408780">
    <ele>6</ele>
   </trkpt>
   <trkpt lat="34.9855890" lon="126.6415140">
    <ele>6</ele>
   </trkpt>
   <trkpt lat="34.9856600" lon="126.6421830">
    <ele>6</ele>
   </trkpt>
   <trkpt lat="34.9856730" lon="126.6423880">
    <ele>6</ele>
   </trkpt>
   <trkpt lat="34.9857050" lon="126.6428770">
    <ele>6</ele>
   </trkpt>
   <trkpt lat="34.9857010" lon="126.6429130">
    <ele>6</ele>
   </trkpt>
   <trkpt lat="34.9856080" lon="126.6438230">
    <ele>6</ele>
   </trkpt>
   <trkpt lat="34.9854860" lon="126.6445500">
    <ele>6</ele>
   </trkpt>
   <trkpt lat="34.9853390" lon="126.6450770">
    <ele>6</ele>
   </trkpt>
   <trkpt lat="34.9852050" lon="126.6455350">
    <ele>6</ele>
   </trkpt>
   <trkpt lat="34.9850850" lon="126.6458600">
    <ele>6</ele>
   </trkpt>
   <trkpt lat="34.9848750" lon="126.6464490">
    <ele>6</ele>
   </trkpt>
   <trkpt lat="34.9848030" lon="126.6471710">
    <ele>6</ele>
   </trkpt>
   <trkpt lat="34.9847820" lon="126.6473770">
    <ele>6</ele>
   </trkpt>
   <trkpt lat="34.9847580" lon="126.6477250">
    <ele>6</ele>
   </trkpt>
   <trkpt lat="34.9847240" lon="126.6481790">
    <ele>6</ele>
   </trkpt>
   <trkpt lat="34.9846890" lon="126.6486360">
    <ele>6</ele>
   </trkpt>
   <trkpt lat="34.9845780" lon="126.6498450">
    <ele>6</ele>
   </trkpt>
   <trkpt lat="34.9845759" lon="126.6498970">
    <ele>6</ele>
   </trkpt>
   <trkpt lat="34.9845670" lon="126.6500930">
    <ele>6</ele>
   </trkpt>
   <trkpt lat="34.9845510" lon="126.6504000">
    <ele>6</ele>
   </trkpt>
   <trkpt lat="34.9845500" lon="126.6504230">
    <ele>6</ele>
   </trkpt>
   <trkpt lat="34.9845420" lon="126.6507120">
    <ele>6</ele>
   </trkpt>
   <trkpt lat="34.9845430" lon="126.6510930">
    <ele>6</ele>
   </trkpt>
   <trkpt lat="34.9845560" lon="126.6515240">
    <ele>6</ele>
   </trkpt>
   <trkpt lat="34.9845730" lon="126.6517250">
    <ele>6</ele>
   </trkpt>
   <trkpt lat="34.9845929" lon="126.6519470">
    <ele>6</ele>
   </trkpt>
   <trkpt lat="34.9846519" lon="126.6523430">
    <ele>6</ele>
   </trkpt>
   <trkpt lat="34.9847010" lon="126.6525620">
    <ele>6</ele>
   </trkpt>
   <trkpt lat="34.9847600" lon="126.6528120">
    <ele>7</ele>
   </trkpt>
   <trkpt lat="34.9848190" lon="126.6530370">
    <ele>7</ele>
   </trkpt>
   <trkpt lat="34.9848950" lon="126.6532860">
    <ele>7</ele>
   </trkpt>
   <trkpt lat="34.9850230" lon="126.6536630">
    <ele>7</ele>
   </trkpt>
   <trkpt lat="34.9851770" lon="126.6540130">
    <ele>7</ele>
   </trkpt>
   <trkpt lat="34.9853480" lon="126.6543500">
    <ele>7</ele>
   </trkpt>
   <trkpt lat="34.9855630" lon="126.6546970">
    <ele>7</ele>
   </trkpt>
   <trkpt lat="34.9857280" lon="126.6549720">
    <ele>7</ele>
   </trkpt>
   <trkpt lat="34.9857870" lon="126.6550620">
    <ele>7</ele>
   </trkpt>
   <trkpt lat="34.9859700" lon="126.6552840">
    <ele>7</ele>
   </trkpt>
   <trkpt lat="34.9860690" lon="126.6554070">
    <ele>7</ele>
   </trkpt>
   <trkpt lat="34.9861470" lon="126.6554950">
    <ele>7</ele>
   </trkpt>
   <trkpt lat="34.9862080" lon="126.6555640">
    <ele>7</ele>
   </trkpt>
   <trkpt lat="34.9864650" lon="126.6558460">
    <ele>7</ele>
   </trkpt>
   <trkpt lat="34.9868540" lon="126.6562730">
    <ele>7</ele>
   </trkpt>
   <trkpt lat="34.9874830" lon="126.6569510">
    <ele>7</ele>
   </trkpt>
   <trkpt lat="34.9883669" lon="126.6578410">
    <ele>7</ele>
   </trkpt>
   <trkpt lat="34.9885240" lon="126.6580030">
    <ele>7</ele>
   </trkpt>
   <trkpt lat="34.9886320" lon="126.6581300">
    <ele>7</ele>
   </trkpt>
   <trkpt lat="34.9887540" lon="126.6582770">
    <ele>7</ele>
   </trkpt>
   <trkpt lat="34.9890110" lon="126.6585640">
    <ele>7</ele>
   </trkpt>
   <trkpt lat="34.9892060" lon="126.6587760">
    <ele>7</ele>
   </trkpt>
   <trkpt lat="34.9899050" lon="126.6594130">
    <ele>7</ele>
   </trkpt>
   <trkpt lat="34.9900690" lon="126.6595490">
    <ele>7</ele>
   </trkpt>
   <trkpt lat="34.9904220" lon="126.6598410">
    <ele>7</ele>
   </trkpt>
   <trkpt lat="34.9908330" lon="126.6601820">
    <ele>7</ele>
   </trkpt>
   <trkpt lat="34.9916520" lon="126.6608940">
    <ele>7</ele>
   </trkpt>
   <trkpt lat="34.9918640" lon="126.6611130">
    <ele>7</ele>
   </trkpt>
   <trkpt lat="34.9920680" lon="126.6613000">
    <ele>7</ele>
   </trkpt>
   <trkpt lat="34.9924910" lon="126.6617720">
    <ele>8</ele>
   </trkpt>
   <trkpt lat="34.9928100" lon="126.6621870">
    <ele>8</ele>
   </trkpt>
   <trkpt lat="34.9931430" lon="126.6626650">
    <ele>8</ele>
   </trkpt>
   <trkpt lat="34.9933580" lon="126.6629950">
    <ele>8</ele>
   </trkpt>
   <trkpt lat="34.9935180" lon="126.6632390">
    <ele>8</ele>
   </trkpt>
   <trkpt lat="34.9936770" lon="126.6635480">
    <ele>8</ele>
   </trkpt>
   <trkpt lat="34.9939180" lon="126.6639500">
    <ele>8</ele>
   </trkpt>
   <trkpt lat="34.9940410" lon="126.6641790">
    <ele>8</ele>
   </trkpt>
   <trkpt lat="34.9941510" lon="126.6643480">
    <ele>8</ele>
   </trkpt>
   <trkpt lat="34.9946190" lon="126.6649660">
    <ele>8</ele>
   </trkpt>
   <trkpt lat="34.9950930" lon="126.6655430">
    <ele>8</ele>
   </trkpt>
   <trkpt lat="34.9952029" lon="126.6657140">
    <ele>8</ele>
   </trkpt>
   <trkpt lat="34.9952640" lon="126.6658100">
    <ele>8</ele>
   </trkpt>
   <trkpt lat="34.9954520" lon="126.6661240">
    <ele>8</ele>
   </trkpt>
   <trkpt lat="34.9955320" lon="126.6662580">
    <ele>8</ele>
   </trkpt>
   <trkpt lat="34.9958070" lon="126.6667720">
    <ele>8</ele>
   </trkpt>
   <trkpt lat="34.9960460" lon="126.6672360">
    <ele>8</ele>
   </trkpt>
   <trkpt lat="34.9961840" lon="126.6675070">
    <ele>8</ele>
   </trkpt>
   <trkpt lat="34.9963470" lon="126.6677670">
    <ele>8</ele>
   </trkpt>
   <trkpt lat="34.9966719" lon="126.6681340">
    <ele>8</ele>
   </trkpt>
   <trkpt lat="34.9966870" lon="126.6681120">
    <ele>8</ele>
   </trkpt>
   <trkpt lat="34.9967050" lon="126.6680950">
    <ele>8</ele>
   </trkpt>
   <trkpt lat="34.9967339" lon="126.6680780">
    <ele>8</ele>
   </trkpt>
   <trkpt lat="34.9967670" lon="126.6680720">
    <ele>8</ele>
   </trkpt>
   <trkpt lat="34.9967990" lon="126.6680780">
    <ele>8</ele>
   </trkpt>
   <trkpt lat="34.9968280" lon="126.6680940">
    <ele>8</ele>
   </trkpt>
   <trkpt lat="34.9968530" lon="126.6681200">
    <ele>9</ele>
   </trkpt>
   <trkpt lat="34.9968710" lon="126.6681530">
    <ele>9</ele>
   </trkpt>
   <trkpt lat="34.9968800" lon="126.6681910">
    <ele>9</ele>
   </trkpt>
   <trkpt lat="34.9968810" lon="126.6682310">
    <ele>9</ele>
   </trkpt>
   <trkpt lat="34.9968750" lon="126.6682580">
    <ele>9</ele>
   </trkpt>
   <trkpt lat="34.9968660" lon="126.6682840">
    <ele>9</ele>
   </trkpt>
   <trkpt lat="34.9970630" lon="126.6685030">
    <ele>9</ele>
   </trkpt>
   <trkpt lat="34.9974550" lon="126.6689460">
    <ele>9</ele>
   </trkpt>
   <trkpt lat="34.9980369" lon="126.6696050">
    <ele>9</ele>
   </trkpt>
   <trkpt lat="34.9982970" lon="126.6699250">
    <ele>9</ele>
   </trkpt>
   <trkpt lat="34.9987540" lon="126.6705050">
    <ele>9</ele>
   </trkpt>
   <trkpt lat="34.9988040" lon="126.6705690">
    <ele>9</ele>
   </trkpt>
   <trkpt lat="34.9989909" lon="126.6707390">
    <ele>9</ele>
   </trkpt>
   <trkpt lat="34.9990730" lon="126.6708010">
    <ele>10</ele>
   </trkpt>
   <trkpt lat="34.9992570" lon="126.6709380">
    <ele>10</ele>
   </trkpt>
   <trkpt lat="34.9994510" lon="126.6711070">
    <ele>10</ele>
   </trkpt>
   <trkpt lat="34.9999170" lon="126.6714690">
    <ele>10</ele>
   </trkpt>
   <trkpt lat="35.0001010" lon="126.6716610">
    <ele>10</ele>
   </trkpt>
   <trkpt lat="35.0002590" lon="126.6718480">
    <ele>10</ele>
   </trkpt>
   <trkpt lat="35.0004780" lon="126.6722000">
    <ele>10</ele>
   </trkpt>
   <trkpt lat="35.0007370" lon="126.6726090">
    <ele>10</ele>
   </trkpt>
   <trkpt lat="35.0009740" lon="126.6729220">
    <ele>10</ele>
   </trkpt>
   <trkpt lat="35.0015080" lon="126.6733690">
    <ele>10</ele>
   </trkpt>
   <trkpt lat="35.0020700" lon="126.6737860">
    <ele>10</ele>
   </trkpt>
   <trkpt lat="35.0024420" lon="126.6741260">
    <ele>10</ele>
   </trkpt>
   <trkpt lat="35.0025770" lon="126.6742500">
    <ele>10</ele>
   </trkpt>
   <trkpt lat="35.0027100" lon="126.6743910">
    <ele>10</ele>
   </trkpt>
   <trkpt lat="35.0029710" lon="126.6747450">
    <ele>10</ele>
   </trkpt>
   <trkpt lat="35.0031080" lon="126.6749740">
    <ele>10</ele>
   </trkpt>
   <trkpt lat="35.0031930" lon="126.6751160">
    <ele>10</ele>
   </trkpt>
   <trkpt lat="35.0033380" lon="126.6753900">
    <ele>10</ele>
   </trkpt>
   <trkpt lat="35.0034840" lon="126.6756680">
    <ele>10</ele>
   </trkpt>
   <trkpt lat="35.0036160" lon="126.6759600">
    <ele>10</ele>
   </trkpt>
   <trkpt lat="35.0036950" lon="126.6763590">
    <ele>10</ele>
   </trkpt>
   <trkpt lat="35.0037260" lon="126.6765240">
    <ele>10</ele>
   </trkpt>
   <trkpt lat="35.0038030" lon="126.6767260">
    <ele>10</ele>
   </trkpt>
   <trkpt lat="35.0039350" lon="126.6768860">
    <ele>10</ele>
   </trkpt>
   <trkpt lat="35.0040830" lon="126.6770750">
    <ele>10</ele>
   </trkpt>
   <trkpt lat="35.0042920" lon="126.6773400">
    <ele>10</ele>
   </trkpt>
   <trkpt lat="35.0045530" lon="126.6776180">
    <ele>10</ele>
   </trkpt>
   <trkpt lat="35.0048320" lon="126.6780330">
    <ele>10</ele>
   </trkpt>
   <trkpt lat="35.0051870" lon="126.6786410">
    <ele>10</ele>
   </trkpt>
   <trkpt lat="35.0054640" lon="126.6791850">
    <ele>10</ele>
   </trkpt>
   <trkpt lat="35.0055360" lon="126.6793380">
    <ele>10</ele>
   </trkpt>
   <trkpt lat="35.0056840" lon="126.6797700">
    <ele>10</ele>
   </trkpt>
   <trkpt lat="35.0057270" lon="126.6799620">
    <ele>10</ele>
   </trkpt>
   <trkpt lat="35.0057479" lon="126.6801160">
    <ele>10</ele>
   </trkpt>
   <trkpt lat="35.0057720" lon="126.6802940">
    <ele>10</ele>
   </trkpt>
   <trkpt lat="35.0057670" lon="126.6805290">
    <ele>10</ele>
   </trkpt>
   <trkpt lat="35.0057620" lon="126.6809200">
    <ele>9</ele>
   </trkpt>
   <trkpt lat="35.0057450" lon="126.6823090">
    <ele>9</ele>
   </trkpt>
   <trkpt lat="35.0057410" lon="126.6826600">
    <ele>9</ele>
   </trkpt>
   <trkpt lat="35.0057100" lon="126.6827980">
    <ele>9</ele>
   </trkpt>
   <trkpt lat="35.0056180" lon="126.6832070">
    <ele>9</ele>
   </trkpt>
   <trkpt lat="35.0055880" lon="126.6840820">
    <ele>9</ele>
   </trkpt>
   <trkpt lat="35.0055770" lon="126.6843010">
    <ele>9</ele>
   </trkpt>
   <trkpt lat="35.0055600" lon="126.6846450">
    <ele>9</ele>
   </trkpt>
   <trkpt lat="35.0055070" lon="126.6848930">
    <ele>9</ele>
   </trkpt>
   <trkpt lat="35.0054400" lon="126.6851310">
    <ele>9</ele>
   </trkpt>
   <trkpt lat="35.0053500" lon="126.6853610">
    <ele>9</ele>
   </trkpt>
   <trkpt lat="35.0052470" lon="126.6855590">
    <ele>9</ele>
   </trkpt>
   <trkpt lat="35.0052420" lon="126.6855670">
    <ele>9</ele>
   </trkpt>
   <trkpt lat="35.0050389" lon="126.6859230">
    <ele>9</ele>
   </trkpt>
   <trkpt lat="35.0043080" lon="126.6869990">
    <ele>9</ele>
   </trkpt>
   <trkpt lat="35.0037250" lon="126.6878450">
    <ele>9</ele>
   </trkpt>
   <trkpt lat="35.0035850" lon="126.6880490">
    <ele>9</ele>
   </trkpt>
   <trkpt lat="35.0034570" lon="126.6882320">
    <ele>9</ele>
   </trkpt>
   <trkpt lat="35.0024560" lon="126.6896710">
    <ele>9</ele>
   </trkpt>
   <trkpt lat="35.0014630" lon="126.6911320">
    <ele>9</ele>
   </trkpt>
   <trkpt lat="35.0013390" lon="126.6913120">
    <ele>9</ele>
   </trkpt>
   <trkpt lat="35.0011750" lon="126.6915470">
    <ele>9</ele>
   </trkpt>
   <trkpt lat="35.0009020" lon="126.6919400">
    <ele>10</ele>
   </trkpt>
   <trkpt lat="35.0007570" lon="126.6921490">
    <ele>10</ele>
   </trkpt>
   <trkpt lat="35.0003880" lon="126.6927310">
    <ele>10</ele>
   </trkpt>
   <trkpt lat="35.0001190" lon="126.6932060">
    <ele>10</ele>
   </trkpt>
   <trkpt lat="34.9999390" lon="126.6937680">
    <ele>10</ele>
   </trkpt>
   <trkpt lat="34.9998000" lon="126.6942030">
    <ele>10</ele>
   </trkpt>
   <trkpt lat="34.9996540" lon="126.6946840">
    <ele>10</ele>
   </trkpt>
   <trkpt lat="34.9994330" lon="126.6951950">
    <ele>10</ele>
   </trkpt>
   <trkpt lat="34.9991720" lon="126.6956900">
    <ele>11</ele>
   </trkpt>
   <trkpt lat="34.9990049" lon="126.6960080">
    <ele>11</ele>
   </trkpt>
   <trkpt lat="34.9989640" lon="126.6961110">
    <ele>11</ele>
   </trkpt>
   <trkpt lat="34.9989100" lon="126.6962470">
    <ele>11</ele>
   </trkpt>
   <trkpt lat="34.9988590" lon="126.6965190">
    <ele>11</ele>
   </trkpt>
   <trkpt lat="34.9988560" lon="126.6966130">
    <ele>11</ele>
   </trkpt>
   <trkpt lat="34.9988510" lon="126.6968000">
    <ele>11</ele>
   </trkpt>
   <trkpt lat="34.9989030" lon="126.6970800">
    <ele>11</ele>
   </trkpt>
   <trkpt lat="34.9990100" lon="126.6974830">
    <ele>12</ele>
   </trkpt>
   <trkpt lat="34.9991980" lon="126.6978000">
    <ele>12</ele>
   </trkpt>
   <trkpt lat="34.9995040" lon="126.6982520">
    <ele>12</ele>
   </trkpt>
   <trkpt lat="34.9998450" lon="126.6986960">
    <ele>12</ele>
   </trkpt>
   <trkpt lat="35.0001270" lon="126.6990340">
    <ele>12</ele>
   </trkpt>
   <trkpt lat="35.0006190" lon="126.6997570">
    <ele>12</ele>
   </trkpt>
   <trkpt lat="35.0008780" lon="126.7002180">
    <ele>12</ele>
   </trkpt>
   <trkpt lat="35.0012880" lon="126.7011100">
    <ele>12</ele>
   </trkpt>
   <trkpt lat="35.0013650" lon="126.7012750">
    <ele>13</ele>
   </trkpt>
   <trkpt lat="35.0014400" lon="126.7014720">
    <ele>13</ele>
   </trkpt>
   <trkpt lat="35.0014860" lon="126.7015950">
    <ele>13</ele>
   </trkpt>
   <trkpt lat="35.0015940" lon="126.7019060">
    <ele>13</ele>
   </trkpt>
   <trkpt lat="35.0016090" lon="126.7019510">
    <ele>13</ele>
   </trkpt>
   <trkpt lat="35.0018680" lon="126.7027310">
    <ele>13</ele>
   </trkpt>
   <trkpt lat="35.0019590" lon="126.7030270">
    <ele>13</ele>
   </trkpt>
   <trkpt lat="35.0020140" lon="126.7032250">
    <ele>13</ele>
   </trkpt>
   <trkpt lat="35.0022600" lon="126.7042500">
    <ele>13</ele>
   </trkpt>
   <trkpt lat="35.0025390" lon="126.7054870">
    <ele>13</ele>
   </trkpt>
   <trkpt lat="35.0026250" lon="126.7059030">
    <ele>13</ele>
   </trkpt>
   <trkpt lat="35.0027700" lon="126.7065030">
    <ele>13</ele>
   </trkpt>
   <trkpt lat="35.0028910" lon="126.7069630">
    <ele>13</ele>
   </trkpt>
   <trkpt lat="35.0029410" lon="126.7071130">
    <ele>13</ele>
   </trkpt>
   <trkpt lat="35.0030550" lon="126.7074590">
    <ele>13</ele>
   </trkpt>
   <trkpt lat="35.0030960" lon="126.7075980">
    <ele>13</ele>
   </trkpt>
   <trkpt lat="35.0032510" lon="126.7081170">
    <ele>13</ele>
   </trkpt>
   <trkpt lat="35.0032920" lon="126.7082600">
    <ele>13</ele>
   </trkpt>
   <trkpt lat="35.0033520" lon="126.7083780">
    <ele>13</ele>
   </trkpt>
   <trkpt lat="35.0038460" lon="126.7093830">
    <ele>13</ele>
   </trkpt>
   <trkpt lat="35.0040229" lon="126.7097360">
    <ele>13</ele>
   </trkpt>
   <trkpt lat="35.0041550" lon="126.7099720">
    <ele>13</ele>
   </trkpt>
   <trkpt lat="35.0042929" lon="126.7102010">
    <ele>13</ele>
   </trkpt>
   <trkpt lat="35.0044720" lon="126.7104740">
    <ele>13</ele>
   </trkpt>
   <trkpt lat="35.0049490" lon="126.7111760">
    <ele>13</ele>
   </trkpt>
   <trkpt lat="35.0053560" lon="126.7117820">
    <ele>13</ele>
   </trkpt>
   <trkpt lat="35.0053870" lon="126.7118280">
    <ele>13</ele>
   </trkpt>
   <trkpt lat="35.0056480" lon="126.7121940">
    <ele>13</ele>
   </trkpt>
   <trkpt lat="35.0057370" lon="126.7123200">
    <ele>12</ele>
   </trkpt>
   <trkpt lat="35.0061050" lon="126.7128190">
    <ele>12</ele>
   </trkpt>
   <trkpt lat="35.0065830" lon="126.7134470">
    <ele>12</ele>
   </trkpt>
   <trkpt lat="35.0070910" lon="126.7141630">
    <ele>12</ele>
   </trkpt>
   <trkpt lat="35.0073810" lon="126.7146080">
    <ele>12</ele>
   </trkpt>
   <trkpt lat="35.0076490" lon="126.7150280">
    <ele>12</ele>
   </trkpt>
   <trkpt lat="35.0077560" lon="126.7151740">
    <ele>12</ele>
   </trkpt>
   <trkpt lat="35.0078510" lon="126.7152940">
    <ele>12</ele>
   </trkpt>
   <trkpt lat="35.0080140" lon="126.7154560">
    <ele>11</ele>
   </trkpt>
   <trkpt lat="35.0082620" lon="126.7156710">
    <ele>11</ele>
   </trkpt>
   <trkpt lat="35.0088200" lon="126.7161210">
    <ele>11</ele>
   </trkpt>
   <trkpt lat="35.0088540" lon="126.7161640">
    <ele>11</ele>
   </trkpt>
   <trkpt lat="35.0090340" lon="126.7163950">
    <ele>10</ele>
   </trkpt>
   <trkpt lat="35.0091320" lon="126.7165640">
    <ele>10</ele>
   </trkpt>
   <trkpt lat="35.0092020" lon="126.7166850">
    <ele>10</ele>
   </trkpt>
   <trkpt lat="35.0104789" lon="126.7193860">
    <ele>10</ele>
   </trkpt>
   <trkpt lat="35.0105740" lon="126.7195480">
    <ele>9</ele>
   </trkpt>
   <trkpt lat="35.0109380" lon="126.7192910">
    <ele>9</ele>
   </trkpt>
   <trkpt lat="35.0115679" lon="126.7188460">
    <ele>9</ele>
   </trkpt>
   <trkpt lat="35.0116480" lon="126.7187800">
    <ele>8</ele>
   </trkpt>
   <trkpt lat="35.0116860" lon="126.7187220">
    <ele>8</ele>
   </trkpt>
   <trkpt lat="35.0117180" lon="126.7186330">
    <ele>8</ele>
   </trkpt>
   <trkpt lat="35.0117440" lon="126.7185100">
    <ele>7</ele>
   </trkpt>
   <trkpt lat="35.0117330" lon="126.7178820">
    <ele>7</ele>
   </trkpt>
   <trkpt lat="35.0120600" lon="126.7178770">
    <ele>7</ele>
   </trkpt>
   <trkpt lat="35.0120610" lon="126.7186690">
    <ele>6</ele>
   </trkpt>
   <trkpt lat="35.0121010" lon="126.7186710">
    <ele>6</ele>
   </trkpt>
   <trkpt lat="35.0121380" lon="126.7186870">
    <ele>6</ele>
   </trkpt>
   <trkpt lat="35.0121700" lon="126.7187170">
    <ele>6</ele>
   </trkpt>
   <trkpt lat="35.0121920" lon="126.7187570">
    <ele>6</ele>
   </trkpt>
   <trkpt lat="35.0122039" lon="126.7188030">
    <ele>5</ele>
   </trkpt>
   <trkpt lat="35.0122039" lon="126.7188510">
    <ele>5</ele>
   </trkpt>
   <trkpt lat="35.0121910" lon="126.7188970">
    <ele>5</ele>
   </trkpt>
   <trkpt lat="35.0121680" lon="126.7189370">
    <ele>5</ele>
   </trkpt>
   <trkpt lat="35.0121360" lon="126.7189650">
    <ele>5</ele>
   </trkpt>
   <trkpt lat="35.0120990" lon="126.7189810">
    <ele>4</ele>
   </trkpt>
   <trkpt lat="35.0120660" lon="126.7190170">
    <ele>4</ele>
   </trkpt>
   <trkpt lat="35.0120030" lon="126.7190510">
    <ele>4</ele>
   </trkpt>
   <trkpt lat="35.0118930" lon="126.7190830">
    <ele>4</ele>
   </trkpt>
   <trkpt lat="35.0117640" lon="126.7191180">
    <ele>4</ele>
   </trkpt>
   <trkpt lat="35.0115960" lon="126.7192240">
    <ele>3</ele>
   </trkpt>
   <trkpt lat="35.0115229" lon="126.7192920">
    <ele>3</ele>
   </trkpt>
  </trkseg>
 </trk>
</gpx>
