<?xml version="1.0" encoding="UTF-8"?>
<gpx version="1.1" creator="HTML GPX Creator" xmlns="http://www.topografix.com/GPX/1/1">
  <trk>
    <name>nawon_chunhyang_full</name>
    <trkseg>
      <trkpt lat="35.43029693699681" lon="127.40555047988893">
        <ele>110.7</ele>
      </trkpt>
      <trkpt lat="35.4298161208929" lon="127.40549683570863">
        <ele>111.2</ele>
      </trkpt>
      <trkpt lat="35.42900309804094" lon="127.40437030792238">
        <ele>111.9</ele>
      </trkpt>
      <trkpt lat="35.429018" lon="127.404388">
        <ele>112.5</ele>
      </trkpt>
      <trkpt lat="35.428982" lon="127.404437">
        <ele>113.2</ele>
      </trkpt>
      <trkpt lat="35.428763" lon="127.404728">
        <ele>113.8</ele>
      </trkpt>
      <trkpt lat="35.428647" lon="127.404883">
        <ele>114.4</ele>
      </trkpt>
      <trkpt lat="35.428361" lon="127.40515">
        <ele>114.9</ele>
      </trkpt>
      <trkpt lat="35.428363" lon="127.405154">
        <ele>115.4</ele>
      </trkpt>
      <trkpt lat="35.42832120157838" lon="127.4051856994629">
        <ele>115.9</ele>
      </trkpt>
      <trkpt lat="35.428363" lon="127.405154">
        <ele>116.3</ele>
      </trkpt>
      <trkpt lat="35.428634" lon="127.405709">
        <ele>116.7</ele>
      </trkpt>
      <trkpt lat="35.428942" lon="127.40619">
        <ele>117.1</ele>
      </trkpt>
      <trkpt lat="35.429163" lon="127.406462">
        <ele>117.4</ele>
      </trkpt>
      <trkpt lat="35.429441" lon="127.406758">
        <ele>117.7</ele>
      </trkpt>
      <trkpt lat="35.429562" lon="127.406877">
        <ele>118.0</ele>
      </trkpt>
      <trkpt lat="35.429553856353586" lon="127.40689158439638">
        <ele>118.7</ele>
      </trkpt>
      <trkpt lat="35.429562" lon="127.406877">
        <ele>119.4</ele>
      </trkpt>
      <trkpt lat="35.429688" lon="127.407">
        <ele>120.0</ele>
      </trkpt>
      <trkpt lat="35.429722" lon="127.406963">
        <ele>120.7</ele>
      </trkpt>
      <trkpt lat="35.429764" lon="127.406941">
        <ele>121.2</ele>
      </trkpt>
      <trkpt lat="35.42981" lon="127.406936">
        <ele>121.8</ele>
      </trkpt>
      <trkpt lat="35.429854" lon="127.406949">
        <ele>122.3</ele>
      </trkpt>
      <trkpt lat="35.429893" lon="127.406978">
        <ele>122.8</ele>
      </trkpt>
      <trkpt lat="35.429922" lon="127.40702">
        <ele>123.3</ele>
      </trkpt>
      <trkpt lat="35.42994" lon="127.407072">
        <ele>123.7</ele>
      </trkpt>
      <trkpt lat="35.429943" lon="127.407127">
        <ele>124.1</ele>
      </trkpt>
      <trkpt lat="35.429937" lon="127.407158">
        <ele>124.5</ele>
      </trkpt>
      <trkpt lat="35.429932" lon="127.407182">
        <ele>124.9</ele>
      </trkpt>
      <trkpt lat="35.429908" lon="127.407229">
        <ele>125.3</ele>
      </trkpt>
      <trkpt lat="35.429869" lon="127.407267">
        <ele>125.7</ele>
      </trkpt>
      <trkpt lat="35.429823" lon="127.407287">
        <ele>126.0</ele>
      </trkpt>
      <trkpt lat="35.429933" lon="127.407365">
        <ele>126.2</ele>
      </trkpt>
      <trkpt lat="35.430033" lon="127.40745">
        <ele>126.3</ele>
      </trkpt>
      <trkpt lat="35.430209" lon="127.407545">
        <ele>126.3</ele>
      </trkpt>
      <trkpt lat="35.430452" lon="127.407789">
        <ele>126.3</ele>
      </trkpt>
      <trkpt lat="35.43043681023346" lon="127.4078142642975">
        <ele>126.2</ele>
      </trkpt>
      <trkpt lat="35.430452" lon="127.407789">
        <ele>126.1</ele>
      </trkpt>
      <trkpt lat="35.430735" lon="127.408074">
        <ele>126.0</ele>
      </trkpt>
      <trkpt lat="35.430851" lon="127.408219">
        <ele>125.9</ele>
      </trkpt>
      <trkpt lat="35.430946" lon="127.408356">
        <ele>125.8</ele>
      </trkpt>
      <trkpt lat="35.431012" lon="127.408475">
        <ele>125.6</ele>
      </trkpt>
      <trkpt lat="35.431075" lon="127.408609">
        <ele>125.4</ele>
      </trkpt>
      <trkpt lat="35.431231" lon="127.408945">
        <ele>125.3</ele>
      </trkpt>
      <trkpt lat="35.431284" lon="127.409103">
        <ele>125.1</ele>
      </trkpt>
      <trkpt lat="35.43141" lon="127.409432">
        <ele>124.9</ele>
      </trkpt>
      <trkpt lat="35.431477" lon="127.409629">
        <ele>124.7</ele>
      </trkpt>
      <trkpt lat="35.431619" lon="127.410115">
        <ele>124.4</ele>
      </trkpt>
      <trkpt lat="35.431968" lon="127.41114">
        <ele>124.2</ele>
      </trkpt>
      <trkpt lat="35.431949174090285" lon="127.41115093231203">
        <ele>124.0</ele>
      </trkpt>
      <trkpt lat="35.431968" lon="127.41114">
        <ele>123.7</ele>
      </trkpt>
      <trkpt lat="35.432223" lon="127.411884">
        <ele>123.4</ele>
      </trkpt>
      <trkpt lat="35.432313" lon="127.412153">
        <ele>123.2</ele>
      </trkpt>
      <trkpt lat="35.432403" lon="127.412392">
        <ele>122.9</ele>
      </trkpt>
      <trkpt lat="35.43227" lon="127.412422">
        <ele>122.6</ele>
      </trkpt>
      <trkpt lat="35.432194" lon="127.412427">
        <ele>122.3</ele>
      </trkpt>
      <trkpt lat="35.432005" lon="127.412418">
        <ele>122.0</ele>
      </trkpt>
      <trkpt lat="35.431781" lon="127.412394">
        <ele>121.7</ele>
      </trkpt>
      <trkpt lat="35.431783077714066" lon="127.41238474845888">
        <ele>121.4</ele>
      </trkpt>
      <trkpt lat="35.431781" lon="127.412394">
        <ele>121.1</ele>
      </trkpt>
      <trkpt lat="35.431696" lon="127.412385">
        <ele>120.8</ele>
      </trkpt>
      <trkpt lat="35.429974" lon="127.412203">
        <ele>120.4</ele>
      </trkpt>
      <trkpt lat="35.428297" lon="127.412039">
        <ele>120.1</ele>
      </trkpt>
      <trkpt lat="35.42812" lon="127.412012">
        <ele>119.8</ele>
      </trkpt>
      <trkpt lat="35.42807" lon="127.412004">
        <ele>119.5</ele>
      </trkpt>
      <trkpt lat="35.427843" lon="127.411935">
        <ele>119.2</ele>
      </trkpt>
      <trkpt lat="35.427607" lon="127.411819">
        <ele>118.9</ele>
      </trkpt>
      <trkpt lat="35.427336" lon="127.411644">
        <ele>118.6</ele>
      </trkpt>
      <trkpt lat="35.425997" lon="127.410663">
        <ele>118.3</ele>
      </trkpt>
      <trkpt lat="35.42599571637936" lon="127.41066813468935">
        <ele>118.0</ele>
      </trkpt>
      <trkpt lat="35.425997" lon="127.410663">
        <ele>117.7</ele>
      </trkpt>
      <trkpt lat="35.425795" lon="127.410516">
        <ele>117.4</ele>
      </trkpt>
      <trkpt lat="35.42539" lon="127.410228">
        <ele>117.2</ele>
      </trkpt>
      <trkpt lat="35.424266" lon="127.409417">
        <ele>116.9</ele>
      </trkpt>
      <trkpt lat="35.424186" lon="127.409359">
        <ele>116.7</ele>
      </trkpt>
      <trkpt lat="35.42411" lon="127.409304">
        <ele>116.4</ele>
      </trkpt>
      <trkpt lat="35.42411604581696" lon="127.40929484367372">
        <ele>116.2</ele>
      </trkpt>
      <trkpt lat="35.42411" lon="127.409304">
        <ele>116.0</ele>
      </trkpt>
      <trkpt lat="35.424067" lon="127.409273">
        <ele>115.8</ele>
      </trkpt>
      <trkpt lat="35.424078" lon="127.409251">
        <ele>115.6</ele>
      </trkpt>
      <trkpt lat="35.424087" lon="127.409205">
        <ele>115.4</ele>
      </trkpt>
      <trkpt lat="35.424084" lon="127.409157">
        <ele>115.3</ele>
      </trkpt>
      <trkpt lat="35.424068" lon="127.409113">
        <ele>115.1</ele>
      </trkpt>
      <trkpt lat="35.424041" lon="127.409078">
        <ele>114.9</ele>
      </trkpt>
      <trkpt lat="35.424007" lon="127.409055">
        <ele>114.8</ele>
      </trkpt>
      <trkpt lat="35.423968" lon="127.409047">
        <ele>114.6</ele>
      </trkpt>
      <trkpt lat="35.42393" lon="127.409054">
        <ele>114.5</ele>
      </trkpt>
      <trkpt lat="35.423895" lon="127.409076">
        <ele>114.3</ele>
      </trkpt>
      <trkpt lat="35.423868" lon="127.40911">
        <ele>114.2</ele>
      </trkpt>
      <trkpt lat="35.423851" lon="127.409155">
        <ele>114.1</ele>
      </trkpt>
      <trkpt lat="35.423847" lon="127.409204">
        <ele>114.0</ele>
      </trkpt>
      <trkpt lat="35.423856" lon="127.409252">
        <ele>113.9</ele>
      </trkpt>
      <trkpt lat="35.423878" lon="127.409294">
        <ele>113.9</ele>
      </trkpt>
      <trkpt lat="35.423909" lon="127.409324">
        <ele>113.8</ele>
      </trkpt>
      <trkpt lat="35.423849" lon="127.409489">
        <ele>113.8</ele>
      </trkpt>
      <trkpt lat="35.423787" lon="127.409657">
        <ele>113.7</ele>
      </trkpt>
      <trkpt lat="35.423717" lon="127.409848">
        <ele>113.7</ele>
      </trkpt>
      <trkpt lat="35.423624" lon="127.410104">
        <ele>113.7</ele>
      </trkpt>
      <trkpt lat="35.423493" lon="127.410463">
        <ele>113.7</ele>
      </trkpt>
      <trkpt lat="35.42349530776435" lon="127.41046428680421">
        <ele>113.7</ele>
      </trkpt>
      <trkpt lat="35.423493" lon="127.410463">
        <ele>113.7</ele>
      </trkpt>
      <trkpt lat="35.423312" lon="127.410965">
        <ele>113.8</ele>
      </trkpt>
      <trkpt lat="35.423081" lon="127.411604">
        <ele>113.9</ele>
      </trkpt>
      <trkpt lat="35.42304" lon="127.411719">
        <ele>114.0</ele>
      </trkpt>
      <trkpt lat="35.422554" lon="127.413062">
        <ele>114.1</ele>
      </trkpt>
      <trkpt lat="35.422485" lon="127.413266">
        <ele>114.2</ele>
      </trkpt>
      <trkpt lat="35.422464" lon="127.413401">
        <ele>114.3</ele>
      </trkpt>
      <trkpt lat="35.422452" lon="127.413621">
        <ele>114.5</ele>
      </trkpt>
      <trkpt lat="35.422469" lon="127.413806">
        <ele>114.7</ele>
      </trkpt>
      <trkpt lat="35.42243741921563" lon="127.4138116836548">
        <ele>114.9</ele>
      </trkpt>
      <trkpt lat="35.422469" lon="127.413806">
        <ele>115.1</ele>
      </trkpt>
      <trkpt lat="35.422481" lon="127.413922">
        <ele>115.3</ele>
      </trkpt>
      <trkpt lat="35.422538" lon="127.414172">
        <ele>115.5</ele>
      </trkpt>
      <trkpt lat="35.422604" lon="127.41437">
        <ele>115.8</ele>
      </trkpt>
      <trkpt lat="35.423197" lon="127.415768">
        <ele>116.0</ele>
      </trkpt>
      <trkpt lat="35.423629" lon="127.416905">
        <ele>116.3</ele>
      </trkpt>
      <trkpt lat="35.424042" lon="127.417967">
        <ele>116.6</ele>
      </trkpt>
      <trkpt lat="35.425072" lon="127.420373">
        <ele>116.9</ele>
      </trkpt>
      <trkpt lat="35.425415" lon="127.421274">
        <ele>117.2</ele>
      </trkpt>
      <trkpt lat="35.425425" lon="127.421301">
        <ele>117.5</ele>
      </trkpt>
      <trkpt lat="35.425409963280934" lon="127.42131114006044">
        <ele>117.8</ele>
      </trkpt>
      <trkpt lat="35.425425" lon="127.421301">
        <ele>118.0</ele>
      </trkpt>
      <trkpt lat="35.425415" lon="127.421274">
        <ele>118.4</ele>
      </trkpt>
      <trkpt lat="35.425854" lon="127.421061">
        <ele>118.7</ele>
      </trkpt>
      <trkpt lat="35.425981" lon="127.420981">
        <ele>119.0</ele>
      </trkpt>
      <trkpt lat="35.426145" lon="127.420846">
        <ele>119.3</ele>
      </trkpt>
      <trkpt lat="35.426547" lon="127.420453">
        <ele>119.7</ele>
      </trkpt>
      <trkpt lat="35.42684" lon="127.420344">
        <ele>120.0</ele>
      </trkpt>
      <trkpt lat="35.427687" lon="127.420268">
        <ele>120.3</ele>
      </trkpt>
      <trkpt lat="35.427757" lon="127.420288">
        <ele>120.6</ele>
      </trkpt>
      <trkpt lat="35.42776169247654" lon="127.42027044296266">
        <ele>121.0</ele>
      </trkpt>
      <trkpt lat="35.427757" lon="127.420288">
        <ele>121.3</ele>
      </trkpt>
      <trkpt lat="35.427911" lon="127.420334">
        <ele>121.6</ele>
      </trkpt>
      <trkpt lat="35.428258" lon="127.420537">
        <ele>122.0</ele>
      </trkpt>
      <trkpt lat="35.428743" lon="127.420908">
        <ele>122.3</ele>
      </trkpt>
      <trkpt lat="35.428881" lon="127.420995">
        <ele>122.6</ele>
      </trkpt>
      <trkpt lat="35.429067" lon="127.421075">
        <ele>123.0</ele>
      </trkpt>
      <trkpt lat="35.429623" lon="127.421099">
        <ele>123.3</ele>
      </trkpt>
      <trkpt lat="35.42978" lon="127.421187">
        <ele>123.6</ele>
      </trkpt>
      <trkpt lat="35.429964" lon="127.421338">
        <ele>124.0</ele>
      </trkpt>
      <trkpt lat="35.430076" lon="127.421461">
        <ele>124.3</ele>
      </trkpt>
      <trkpt lat="35.430060900359074" lon="127.42148280143739">
        <ele>124.7</ele>
      </trkpt>
      <trkpt lat="35.430076" lon="127.421461">
        <ele>125.0</ele>
      </trkpt>
      <trkpt lat="35.432116" lon="127.423681">
        <ele>125.4</ele>
      </trkpt>
      <trkpt lat="35.432281" lon="127.423818">
        <ele>125.7</ele>
      </trkpt>
      <trkpt lat="35.432468" lon="127.423914">
        <ele>126.1</ele>
      </trkpt>
      <trkpt lat="35.432652" lon="127.42399">
        <ele>126.5</ele>
      </trkpt>
      <trkpt lat="35.43413" lon="127.424304">
        <ele>126.8</ele>
      </trkpt>
      <trkpt lat="35.434248" lon="127.424337">
        <ele>127.2</ele>
      </trkpt>
      <trkpt lat="35.435984" lon="127.425354">
        <ele>127.6</ele>
      </trkpt>
      <trkpt lat="35.436318" lon="127.425596">
        <ele>128.0</ele>
      </trkpt>
      <trkpt lat="35.436934" lon="127.426187">
        <ele>128.4</ele>
      </trkpt>
      <trkpt lat="35.43728" lon="127.426617">
        <ele>128.8</ele>
      </trkpt>
      <trkpt lat="35.437311" lon="127.426688">
        <ele>129.2</ele>
      </trkpt>
      <trkpt lat="35.437281559894636" lon="127.4267077445984">
        <ele>129.6</ele>
      </trkpt>
      <trkpt lat="35.437311" lon="127.426688">
        <ele>130.1</ele>
      </trkpt>
      <trkpt lat="35.437381" lon="127.426851">
        <ele>130.5</ele>
      </trkpt>
      <trkpt lat="35.437442" lon="127.427216">
        <ele>130.9</ele>
      </trkpt>
      <trkpt lat="35.437599" lon="127.427762">
        <ele>131.4</ele>
      </trkpt>
      <trkpt lat="35.437686" lon="127.428018">
        <ele>131.9</ele>
      </trkpt>
      <trkpt lat="35.437757" lon="127.42815">
        <ele>132.3</ele>
      </trkpt>
      <trkpt lat="35.437863" lon="127.428326">
        <ele>132.8</ele>
      </trkpt>
      <trkpt lat="35.439563" lon="127.430087">
        <ele>133.3</ele>
      </trkpt>
      <trkpt lat="35.440536" lon="127.43116">
        <ele>133.8</ele>
      </trkpt>
      <trkpt lat="35.442016" lon="127.43295">
        <ele>134.3</ele>
      </trkpt>
      <trkpt lat="35.442644" lon="127.433753">
        <ele>134.8</ele>
      </trkpt>
      <trkpt lat="35.442803" lon="127.433976">
        <ele>135.3</ele>
      </trkpt>
      <trkpt lat="35.44384" lon="127.436514">
        <ele>135.8</ele>
      </trkpt>
      <trkpt lat="35.444041" lon="127.436946">
        <ele>136.4</ele>
      </trkpt>
      <trkpt lat="35.444312" lon="127.43741">
        <ele>136.9</ele>
      </trkpt>
      <trkpt lat="35.444537" lon="127.437748">
        <ele>137.4</ele>
      </trkpt>
      <trkpt lat="35.444772" lon="127.438166">
        <ele>138.0</ele>
      </trkpt>
      <trkpt lat="35.445222" lon="127.438552">
        <ele>138.5</ele>
      </trkpt>
      <trkpt lat="35.44549" lon="127.438746">
        <ele>139.1</ele>
      </trkpt>
      <trkpt lat="35.44571" lon="127.43887">
        <ele>139.7</ele>
      </trkpt>
      <trkpt lat="35.446057" lon="127.43921">
        <ele>140.3</ele>
      </trkpt>
      <trkpt lat="35.446101" lon="127.439237">
        <ele>140.9</ele>
      </trkpt>
      <trkpt lat="35.44609233495238" lon="127.4392604827881">
        <ele>141.6</ele>
      </trkpt>
      <trkpt lat="35.446101" lon="127.439237">
        <ele>142.2</ele>
      </trkpt>
      <trkpt lat="35.447781" lon="127.440305">
        <ele>142.9</ele>
      </trkpt>
      <trkpt lat="35.448536" lon="127.440776">
        <ele>143.6</ele>
      </trkpt>
      <trkpt lat="35.448801" lon="127.440963">
        <ele>144.4</ele>
      </trkpt>
      <trkpt lat="35.448874" lon="127.441199">
        <ele>145.1</ele>
      </trkpt>
      <trkpt lat="35.449227" lon="127.442949">
        <ele>145.9</ele>
      </trkpt>
      <trkpt lat="35.449771" lon="127.444424">
        <ele>146.8</ele>
      </trkpt>
      <trkpt lat="35.450231" lon="127.445637">
        <ele>147.6</ele>
      </trkpt>
      <trkpt lat="35.450328" lon="127.446002">
        <ele>148.4</ele>
      </trkpt>
      <trkpt lat="35.450287603164256" lon="127.44601964950563">
        <ele>149.3</ele>
      </trkpt>
      <trkpt lat="35.450328" lon="127.446002">
        <ele>150.1</ele>
      </trkpt>
      <trkpt lat="35.451439" lon="127.450186">
        <ele>151.0</ele>
      </trkpt>
      <trkpt lat="35.451974" lon="127.452151">
        <ele>151.8</ele>
      </trkpt>
      <trkpt lat="35.452146" lon="127.452697">
        <ele>152.7</ele>
      </trkpt>
      <trkpt lat="35.452646" lon="127.454286">
        <ele>153.6</ele>
      </trkpt>
      <trkpt lat="35.452718" lon="127.454706">
        <ele>154.4</ele>
      </trkpt>
      <trkpt lat="35.452749" lon="127.454994">
        <ele>155.3</ele>
      </trkpt>
      <trkpt lat="35.452843" lon="127.456692">
        <ele>156.2</ele>
      </trkpt>
      <trkpt lat="35.452937" lon="127.457111">
        <ele>157.0</ele>
      </trkpt>
      <trkpt lat="35.453187" lon="127.457985">
        <ele>157.9</ele>
      </trkpt>
      <trkpt lat="35.45317172319867" lon="127.45799303054811">
        <ele>158.8</ele>
      </trkpt>
      <trkpt lat="35.453187" lon="127.457985">
        <ele>159.6</ele>
      </trkpt>
      <trkpt lat="35.45326" lon="127.458241">
        <ele>160.5</ele>
      </trkpt>
      <trkpt lat="35.453335" lon="127.458267">
        <ele>161.3</ele>
      </trkpt>
      <trkpt lat="35.453555" lon="127.458388">
        <ele>162.2</ele>
      </trkpt>
      <trkpt lat="35.45361" lon="127.458425">
        <ele>163.1</ele>
      </trkpt>
      <trkpt lat="35.454061" lon="127.45899">
        <ele>163.9</ele>
      </trkpt>
      <trkpt lat="35.454207" lon="127.459112">
        <ele>164.8</ele>
      </trkpt>
      <trkpt lat="35.454346" lon="127.459189">
        <ele>165.6</ele>
      </trkpt>
      <trkpt lat="35.454944" lon="127.459203">
        <ele>166.5</ele>
      </trkpt>
      <trkpt lat="35.455206" lon="127.459348">
        <ele>167.3</ele>
      </trkpt>
      <trkpt lat="35.455329" lon="127.45937">
        <ele>168.1</ele>
      </trkpt>
      <trkpt lat="35.455489" lon="127.459364">
        <ele>168.9</ele>
      </trkpt>
      <trkpt lat="35.455932" lon="127.459301">
        <ele>169.7</ele>
      </trkpt>
      <trkpt lat="35.455935" lon="127.459292">
        <ele>170.5</ele>
      </trkpt>
      <trkpt lat="35.4559508683385" lon="127.45930194854738">
        <ele>171.3</ele>
      </trkpt>
      <trkpt lat="35.455935" lon="127.459292">
        <ele>172.0</ele>
      </trkpt>
      <trkpt lat="35.455932" lon="127.459301">
        <ele>172.7</ele>
      </trkpt>
      <trkpt lat="35.455701" lon="127.460112">
        <ele>173.4</ele>
      </trkpt>
      <trkpt lat="35.455631" lon="127.460527">
        <ele>174.2</ele>
      </trkpt>
      <trkpt lat="35.45562314395132" lon="127.46052503585817">
        <ele>174.9</ele>
      </trkpt>
      <trkpt lat="35.455631" lon="127.460527">
        <ele>175.6</ele>
      </trkpt>
      <trkpt lat="35.455615" lon="127.460626">
        <ele>176.3</ele>
      </trkpt>
      <trkpt lat="35.455605" lon="127.460831">
        <ele>177.1</ele>
      </trkpt>
      <trkpt lat="35.45561" lon="127.46116">
        <ele>177.8</ele>
      </trkpt>
      <trkpt lat="35.455651" lon="127.46197">
        <ele>178.6</ele>
      </trkpt>
      <trkpt lat="35.455658" lon="127.462327">
        <ele>179.3</ele>
      </trkpt>
      <trkpt lat="35.455653" lon="127.462576">
        <ele>180.1</ele>
      </trkpt>
      <trkpt lat="35.455614" lon="127.4629">
        <ele>180.9</ele>
      </trkpt>
      <trkpt lat="35.455486" lon="127.463555">
        <ele>181.7</ele>
      </trkpt>
      <trkpt lat="35.455452" lon="127.463696">
        <ele>182.5</ele>
      </trkpt>
      <trkpt lat="35.455382" lon="127.463981">
        <ele>183.4</ele>
      </trkpt>
      <trkpt lat="35.455404660284934" lon="127.46399044990541">
        <ele>184.3</ele>
      </trkpt>
      <trkpt lat="35.455382" lon="127.463981">
        <ele>185.2</ele>
      </trkpt>
      <trkpt lat="35.455329" lon="127.464199">
        <ele>186.1</ele>
      </trkpt>
      <trkpt lat="35.45519" lon="127.46485">
        <ele>187.1</ele>
      </trkpt>
      <trkpt lat="35.455053" lon="127.465454">
        <ele>188.1</ele>
      </trkpt>
      <trkpt lat="35.454893" lon="127.466506">
        <ele>189.1</ele>
      </trkpt>
      <trkpt lat="35.454845" lon="127.466755">
        <ele>190.1</ele>
      </trkpt>
      <trkpt lat="35.454728" lon="127.467153">
        <ele>191.1</ele>
      </trkpt>
      <trkpt lat="35.454731726864665" lon="127.46715545654298">
        <ele>192.1</ele>
      </trkpt>
      <trkpt lat="35.454728" lon="127.467153">
        <ele>193.1</ele>
      </trkpt>
      <trkpt lat="35.454726" lon="127.467162">
        <ele>194.1</ele>
      </trkpt>
      <trkpt lat="35.454512" lon="127.467478">
        <ele>195.2</ele>
      </trkpt>
      <trkpt lat="35.45441" lon="127.46761">
        <ele>196.2</ele>
      </trkpt>
      <trkpt lat="35.454299" lon="127.467748">
        <ele>197.3</ele>
      </trkpt>
      <trkpt lat="35.454153" lon="127.4679">
        <ele>198.3</ele>
      </trkpt>
      <trkpt lat="35.454059" lon="127.467977">
        <ele>199.4</ele>
      </trkpt>
      <trkpt lat="35.453941" lon="127.468055">
        <ele>200.4</ele>
      </trkpt>
      <trkpt lat="35.453782" lon="127.468134">
        <ele>201.4</ele>
      </trkpt>
      <trkpt lat="35.453731" lon="127.468159">
        <ele>202.4</ele>
      </trkpt>
      <trkpt lat="35.453465" lon="127.468257">
        <ele>203.4</ele>
      </trkpt>
      <trkpt lat="35.45311" lon="127.46837">
        <ele>204.3</ele>
      </trkpt>
      <trkpt lat="35.452998" lon="127.468415">
        <ele>205.2</ele>
      </trkpt>
      <trkpt lat="35.452889" lon="127.468478">
        <ele>206.1</ele>
      </trkpt>
      <trkpt lat="35.45279" lon="127.46857">
        <ele>206.9</ele>
      </trkpt>
      <trkpt lat="35.452706" lon="127.468678">
        <ele>207.7</ele>
      </trkpt>
      <trkpt lat="35.452644" lon="127.468795">
        <ele>208.4</ele>
      </trkpt>
      <trkpt lat="35.452491" lon="127.469142">
        <ele>209.1</ele>
      </trkpt>
      <trkpt lat="35.452404" lon="127.469266">
        <ele>209.8</ele>
      </trkpt>
      <trkpt lat="35.452304" lon="127.469388">
        <ele>210.3</ele>
      </trkpt>
      <trkpt lat="35.452185" lon="127.469474">
        <ele>210.8</ele>
      </trkpt>
      <trkpt lat="35.452084" lon="127.469524">
        <ele>211.3</ele>
      </trkpt>
      <trkpt lat="35.452063" lon="127.469528">
        <ele>211.6</ele>
      </trkpt>
      <trkpt lat="35.45206178620932" lon="127.46951580047609">
        <ele>211.9</ele>
      </trkpt>
      <trkpt lat="35.452063" lon="127.469528">
        <ele>212.1</ele>
      </trkpt>
      <trkpt lat="35.451937" lon="127.469557">
        <ele>212.2</ele>
      </trkpt>
      <trkpt lat="35.451806" lon="127.469557">
        <ele>212.2</ele>
      </trkpt>
      <trkpt lat="35.451687" lon="127.469528">
        <ele>212.2</ele>
      </trkpt>
      <trkpt lat="35.451489" lon="127.469429">
        <ele>212.1</ele>
      </trkpt>
      <trkpt lat="35.451304" lon="127.469304">
        <ele>211.9</ele>
      </trkpt>
      <trkpt lat="35.451219" lon="127.469164">
        <ele>211.6</ele>
      </trkpt>
      <trkpt lat="35.451082" lon="127.46899">
        <ele>211.2</ele>
      </trkpt>
      <trkpt lat="35.450951" lon="127.468901">
        <ele>210.7</ele>
      </trkpt>
      <trkpt lat="35.450812" lon="127.468857">
        <ele>210.2</ele>
      </trkpt>
      <trkpt lat="35.450042" lon="127.468855">
        <ele>209.5</ele>
      </trkpt>
      <trkpt lat="35.449483" lon="127.468568">
        <ele>208.8</ele>
      </trkpt>
      <trkpt lat="35.44918" lon="127.468459">
        <ele>208.1</ele>
      </trkpt>
      <trkpt lat="35.44917762639311" lon="127.46847510337831">
        <ele>207.3</ele>
      </trkpt>
      <trkpt lat="35.44918" lon="127.468459">
        <ele>206.4</ele>
      </trkpt>
      <trkpt lat="35.448829" lon="127.468332">
        <ele>205.5</ele>
      </trkpt>
      <trkpt lat="35.448333" lon="127.468189">
        <ele>204.6</ele>
      </trkpt>
      <trkpt lat="35.448198" lon="127.46815">
        <ele>203.7</ele>
      </trkpt>
      <trkpt lat="35.44809" lon="127.468111">
        <ele>202.7</ele>
      </trkpt>
      <trkpt lat="35.448035" lon="127.468094">
        <ele>201.8</ele>
      </trkpt>
      <trkpt lat="35.447773" lon="127.468013">
        <ele>200.7</ele>
      </trkpt>
      <trkpt lat="35.447393" lon="127.467821">
        <ele>199.7</ele>
      </trkpt>
      <trkpt lat="35.447174" lon="127.467665">
        <ele>198.6</ele>
      </trkpt>
      <trkpt lat="35.446601" lon="127.467361">
        <ele>197.5</ele>
      </trkpt>
      <trkpt lat="35.446298" lon="127.467264">
        <ele>196.3</ele>
      </trkpt>
      <trkpt lat="35.445612" lon="127.4672">
        <ele>195.2</ele>
      </trkpt>
      <trkpt lat="35.445405" lon="127.467135">
        <ele>194.0</ele>
      </trkpt>
      <trkpt lat="35.444748" lon="127.466851">
        <ele>192.8</ele>
      </trkpt>
      <trkpt lat="35.444476" lon="127.466797">
        <ele>191.7</ele>
      </trkpt>
      <trkpt lat="35.44416" lon="127.466736">
        <ele>190.5</ele>
      </trkpt>
      <trkpt lat="35.443922" lon="127.466574">
        <ele>189.4</ele>
      </trkpt>
      <trkpt lat="35.443051" lon="127.465884">
        <ele>188.3</ele>
      </trkpt>
      <trkpt lat="35.442356" lon="127.465607">
        <ele>187.2</ele>
      </trkpt>
      <trkpt lat="35.44236011047184" lon="127.46559977531435">
        <ele>186.1</ele>
      </trkpt>
      <trkpt lat="35.442356" lon="127.465607">
        <ele>185.0</ele>
      </trkpt>
      <trkpt lat="35.442276" lon="127.465575">
        <ele>183.9</ele>
      </trkpt>
      <trkpt lat="35.441328" lon="127.465189">
        <ele>182.8</ele>
      </trkpt>
      <trkpt lat="35.440533" lon="127.46484">
        <ele>181.8</ele>
      </trkpt>
      <trkpt lat="35.440221" lon="127.464692">
        <ele>180.8</ele>
      </trkpt>
      <trkpt lat="35.439789" lon="127.464559">
        <ele>179.8</ele>
      </trkpt>
      <trkpt lat="35.439542" lon="127.464428">
        <ele>178.9</ele>
      </trkpt>
      <trkpt lat="35.439282" lon="127.464166">
        <ele>178.0</ele>
      </trkpt>
      <trkpt lat="35.438966" lon="127.463565">
        <ele>177.1</ele>
      </trkpt>
      <trkpt lat="35.43834" lon="127.462884">
        <ele>176.2</ele>
      </trkpt>
      <trkpt lat="35.438327" lon="127.462894">
        <ele>175.4</ele>
      </trkpt>
      <trkpt lat="35.438321771041984" lon="127.46288537979127">
        <ele>174.5</ele>
      </trkpt>
      <trkpt lat="35.438327" lon="127.462894">
        <ele>173.7</ele>
      </trkpt>
      <trkpt lat="35.43834" lon="127.462884">
        <ele>172.9</ele>
      </trkpt>
      <trkpt lat="35.437944" lon="127.462469">
        <ele>172.1</ele>
      </trkpt>
      <trkpt lat="35.437596" lon="127.462035">
        <ele>171.3</ele>
      </trkpt>
      <trkpt lat="35.437472" lon="127.46194">
        <ele>170.5</ele>
      </trkpt>
      <trkpt lat="35.436979" lon="127.461668">
        <ele>169.8</ele>
      </trkpt>
      <trkpt lat="35.436476" lon="127.46143">
        <ele>169.0</ele>
      </trkpt>
      <trkpt lat="35.436327" lon="127.46136">
        <ele>168.3</ele>
      </trkpt>
      <trkpt lat="35.436104" lon="127.46128">
        <ele>167.6</ele>
      </trkpt>
      <trkpt lat="35.435436" lon="127.461112">
        <ele>167.0</ele>
      </trkpt>
      <trkpt lat="35.435402" lon="127.461102">
        <ele>166.4</ele>
      </trkpt>
      <trkpt lat="35.43517" lon="127.46102">
        <ele>165.8</ele>
      </trkpt>
      <trkpt lat="35.435093" lon="127.460985">
        <ele>165.2</ele>
      </trkpt>
      <trkpt lat="35.43501" lon="127.460934">
        <ele>164.6</ele>
      </trkpt>
      <trkpt lat="35.434803" lon="127.460666">
        <ele>164.1</ele>
      </trkpt>
      <trkpt lat="35.434117" lon="127.459841">
        <ele>163.6</ele>
      </trkpt>
      <trkpt lat="35.433723" lon="127.459387">
        <ele>163.1</ele>
      </trkpt>
      <trkpt lat="35.433497" lon="127.459173">
        <ele>162.6</ele>
      </trkpt>
      <trkpt lat="35.433012" lon="127.458792">
        <ele>162.2</ele>
      </trkpt>
      <trkpt lat="35.432734" lon="127.458602">
        <ele>161.7</ele>
      </trkpt>
      <trkpt lat="35.43256" lon="127.458517">
        <ele>161.3</ele>
      </trkpt>
      <trkpt lat="35.432518" lon="127.4585">
        <ele>160.9</ele>
      </trkpt>
      <trkpt lat="35.432517395944565" lon="127.45850801467897">
        <ele>160.5</ele>
      </trkpt>
      <trkpt lat="35.432518" lon="127.4585">
        <ele>160.1</ele>
      </trkpt>
      <trkpt lat="35.432435" lon="127.458466">
        <ele>159.7</ele>
      </trkpt>
      <trkpt lat="35.430651" lon="127.457925">
        <ele>159.3</ele>
      </trkpt>
      <trkpt lat="35.428924" lon="127.457524">
        <ele>159.0</ele>
      </trkpt>
      <trkpt lat="35.428735" lon="127.457428">
        <ele>158.6</ele>
      </trkpt>
      <trkpt lat="35.428617" lon="127.457354">
        <ele>158.3</ele>
      </trkpt>
      <trkpt lat="35.428176" lon="127.45696">
        <ele>157.9</ele>
      </trkpt>
      <trkpt lat="35.42787" lon="127.456696">
        <ele>157.6</ele>
      </trkpt>
      <trkpt lat="35.427743" lon="127.456563">
        <ele>157.3</ele>
      </trkpt>
      <trkpt lat="35.427452" lon="127.456187">
        <ele>156.9</ele>
      </trkpt>
      <trkpt lat="35.427405" lon="127.456101">
        <ele>156.6</ele>
      </trkpt>
      <trkpt lat="35.427403254915525" lon="127.45610475540161">
        <ele>156.3</ele>
      </trkpt>
      <trkpt lat="35.427405" lon="127.456101">
        <ele>156.0</ele>
      </trkpt>
      <trkpt lat="35.427266" lon="127.45585">
        <ele>155.6</ele>
      </trkpt>
      <trkpt lat="35.426915" lon="127.455122">
        <ele>155.3</ele>
      </trkpt>
      <trkpt lat="35.426788" lon="127.454925">
        <ele>155.0</ele>
      </trkpt>
      <trkpt lat="35.42662" lon="127.454714">
        <ele>154.7</ele>
      </trkpt>
      <trkpt lat="35.426437" lon="127.454533">
        <ele>154.4</ele>
      </trkpt>
      <trkpt lat="35.42597" lon="127.454164">
        <ele>154.1</ele>
      </trkpt>
      <trkpt lat="35.42569" lon="127.453958">
        <ele>153.8</ele>
      </trkpt>
      <trkpt lat="35.425333" lon="127.45362">
        <ele>153.6</ele>
      </trkpt>
      <trkpt lat="35.425153" lon="127.453392">
        <ele>153.3</ele>
      </trkpt>
      <trkpt lat="35.425011" lon="127.453158">
        <ele>153.0</ele>
      </trkpt>
      <trkpt lat="35.424875" lon="127.452907">
        <ele>152.7</ele>
      </trkpt>
      <trkpt lat="35.424756" lon="127.452537">
        <ele>152.4</ele>
      </trkpt>
      <trkpt lat="35.424441" lon="127.451096">
        <ele>152.1</ele>
      </trkpt>
      <trkpt lat="35.424436" lon="127.451077">
        <ele>151.9</ele>
      </trkpt>
      <trkpt lat="35.42442204168831" lon="127.45108366012575">
        <ele>151.6</ele>
      </trkpt>
      <trkpt lat="35.424436" lon="127.451077">
        <ele>151.4</ele>
      </trkpt>
      <trkpt lat="35.424441" lon="127.451096">
        <ele>151.3</ele>
      </trkpt>
      <trkpt lat="35.42434" lon="127.451149">
        <ele>151.1</ele>
      </trkpt>
      <trkpt lat="35.424114" lon="127.451258">
        <ele>150.9</ele>
      </trkpt>
      <trkpt lat="35.424074" lon="127.451282">
        <ele>150.8</ele>
      </trkpt>
      <trkpt lat="35.422841" lon="127.452042">
        <ele>150.8</ele>
      </trkpt>
      <trkpt lat="35.422809" lon="127.452062">
        <ele>150.8</ele>
      </trkpt>
      <trkpt lat="35.421821" lon="127.452645">
        <ele>150.8</ele>
      </trkpt>
      <trkpt lat="35.421403" lon="127.452874">
        <ele>150.9</ele>
      </trkpt>
      <trkpt lat="35.421184" lon="127.452982">
        <ele>151.0</ele>
      </trkpt>
      <trkpt lat="35.421073" lon="127.453029">
        <ele>151.2</ele>
      </trkpt>
      <trkpt lat="35.42049" lon="127.45326">
        <ele>151.4</ele>
      </trkpt>
      <trkpt lat="35.419716" lon="127.453517">
        <ele>151.7</ele>
      </trkpt>
      <trkpt lat="35.419709576383255" lon="127.45348691940309">
        <ele>152.1</ele>
      </trkpt>
      <trkpt lat="35.419716" lon="127.453517">
        <ele>152.4</ele>
      </trkpt>
      <trkpt lat="35.419607" lon="127.453554">
        <ele>152.9</ele>
      </trkpt>
      <trkpt lat="35.419149" lon="127.453698">
        <ele>153.4</ele>
      </trkpt>
      <trkpt lat="35.418474" lon="127.453869">
        <ele>153.9</ele>
      </trkpt>
      <trkpt lat="35.418171" lon="127.453965">
        <ele>154.5</ele>
      </trkpt>
      <trkpt lat="35.417881" lon="127.454069">
        <ele>155.1</ele>
      </trkpt>
      <trkpt lat="35.417654" lon="127.454186">
        <ele>155.8</ele>
      </trkpt>
      <trkpt lat="35.417509" lon="127.45429">
        <ele>156.6</ele>
      </trkpt>
      <trkpt lat="35.417313" lon="127.454456">
        <ele>157.4</ele>
      </trkpt>
      <trkpt lat="35.416766" lon="127.454925">
        <ele>158.3</ele>
      </trkpt>
      <trkpt lat="35.416539" lon="127.455081">
        <ele>159.2</ele>
      </trkpt>
      <trkpt lat="35.416239" lon="127.45523">
        <ele>160.1</ele>
      </trkpt>
      <trkpt lat="35.415934" lon="127.455318">
        <ele>161.1</ele>
      </trkpt>
      <trkpt lat="35.415707" lon="127.455399">
        <ele>162.2</ele>
      </trkpt>
      <trkpt lat="35.415465" lon="127.455447">
        <ele>163.2</ele>
      </trkpt>
      <trkpt lat="35.415015" lon="127.455431">
        <ele>164.3</ele>
      </trkpt>
      <trkpt lat="35.414626" lon="127.45539">
        <ele>165.4</ele>
      </trkpt>
      <trkpt lat="35.414375" lon="127.45531">
        <ele>166.5</ele>
      </trkpt>
      <trkpt lat="35.414265" lon="127.455268">
        <ele>167.7</ele>
      </trkpt>
      <trkpt lat="35.41399" lon="127.455141">
        <ele>168.8</ele>
      </trkpt>
      <trkpt lat="35.413201" lon="127.454821">
        <ele>169.9</ele>
      </trkpt>
      <trkpt lat="35.41320434766191" lon="127.45481729507448">
        <ele>171.1</ele>
      </trkpt>
      <trkpt lat="35.413201" lon="127.454821">
        <ele>172.1</ele>
      </trkpt>
      <trkpt lat="35.410602" lon="127.453766">
        <ele>173.2</ele>
      </trkpt>
      <trkpt lat="35.41016" lon="127.4536">
        <ele>174.2</ele>
      </trkpt>
      <trkpt lat="35.409437" lon="127.453429">
        <ele>175.2</ele>
      </trkpt>
      <trkpt lat="35.409286" lon="127.45341">
        <ele>176.1</ele>
      </trkpt>
      <trkpt lat="35.409068" lon="127.453408">
        <ele>177.0</ele>
      </trkpt>
      <trkpt lat="35.408924" lon="127.453406">
        <ele>177.8</ele>
      </trkpt>
      <trkpt lat="35.408684" lon="127.453422">
        <ele>178.6</ele>
      </trkpt>
      <trkpt lat="35.408329" lon="127.453497">
        <ele>179.3</ele>
      </trkpt>
      <trkpt lat="35.408029" lon="127.453534">
        <ele>180.0</ele>
      </trkpt>
      <trkpt lat="35.407721" lon="127.453549">
        <ele>180.6</ele>
      </trkpt>
      <trkpt lat="35.407551" lon="127.453537">
        <ele>181.1</ele>
      </trkpt>
      <trkpt lat="35.407151" lon="127.453469">
        <ele>181.5</ele>
      </trkpt>
      <trkpt lat="35.406217" lon="127.453216">
        <ele>181.9</ele>
      </trkpt>
      <trkpt lat="35.405926" lon="127.453107">
        <ele>182.2</ele>
      </trkpt>
      <trkpt lat="35.405724" lon="127.453018">
        <ele>182.4</ele>
      </trkpt>
      <trkpt lat="35.405546" lon="127.452921">
        <ele>182.5</ele>
      </trkpt>
      <trkpt lat="35.405141" lon="127.452608">
        <ele>182.4</ele>
      </trkpt>
      <trkpt lat="35.404783" lon="127.452345">
        <ele>182.4</ele>
      </trkpt>
      <trkpt lat="35.404606" lon="127.452229">
        <ele>182.2</ele>
      </trkpt>
      <trkpt lat="35.404173" lon="127.452018">
        <ele>181.9</ele>
      </trkpt>
      <trkpt lat="35.404171351495656" lon="127.45202779769899">
        <ele>181.7</ele>
      </trkpt>
      <trkpt lat="35.404173" lon="127.452018">
        <ele>181.3</ele>
      </trkpt>
      <trkpt lat="35.402608" lon="127.451259">
        <ele>180.9</ele>
      </trkpt>
      <trkpt lat="35.401038" lon="127.450533">
        <ele>180.4</ele>
      </trkpt>
      <trkpt lat="35.40091" lon="127.450485">
        <ele>179.9</ele>
      </trkpt>
      <trkpt lat="35.400746" lon="127.45044">
        <ele>179.3</ele>
      </trkpt>
      <trkpt lat="35.400084" lon="127.450347">
        <ele>178.7</ele>
      </trkpt>
      <trkpt lat="35.399718" lon="127.450375">
        <ele>178.0</ele>
      </trkpt>
      <trkpt lat="35.399425" lon="127.450388">
        <ele>177.3</ele>
      </trkpt>
      <trkpt lat="35.399238" lon="127.450366">
        <ele>176.6</ele>
      </trkpt>
      <trkpt lat="35.39884" lon="127.450278">
        <ele>175.8</ele>
      </trkpt>
      <trkpt lat="35.398208" lon="127.450152">
        <ele>175.0</ele>
      </trkpt>
      <trkpt lat="35.398202" lon="127.450142">
        <ele>174.2</ele>
      </trkpt>
      <trkpt lat="35.39820709544216" lon="127.4501395225525">
        <ele>173.4</ele>
      </trkpt>
      <trkpt lat="35.398202" lon="127.450142">
        <ele>172.7</ele>
      </trkpt>
      <trkpt lat="35.397406" lon="127.448907">
        <ele>171.9</ele>
      </trkpt>
      <trkpt lat="35.397188" lon="127.448653">
        <ele>171.1</ele>
      </trkpt>
      <trkpt lat="35.397109" lon="127.448582">
        <ele>170.3</ele>
      </trkpt>
      <trkpt lat="35.396784" lon="127.448382">
        <ele>169.4</ele>
      </trkpt>
      <trkpt lat="35.396773" lon="127.448362">
        <ele>168.7</ele>
      </trkpt>
      <trkpt lat="35.396785928285894" lon="127.44835317134859">
        <ele>167.9</ele>
      </trkpt>
      <trkpt lat="35.396773" lon="127.448362">
        <ele>167.1</ele>
      </trkpt>
      <trkpt lat="35.396731" lon="127.448289">
        <ele>166.3</ele>
      </trkpt>
      <trkpt lat="35.39671" lon="127.448222">
        <ele>165.6</ele>
      </trkpt>
      <trkpt lat="35.39668" lon="127.447986">
        <ele>164.9</ele>
      </trkpt>
      <trkpt lat="35.396652" lon="127.447538">
        <ele>164.2</ele>
      </trkpt>
      <trkpt lat="35.396659" lon="127.447305">
        <ele>163.6</ele>
      </trkpt>
      <trkpt lat="35.396755" lon="127.446746">
        <ele>163.0</ele>
      </trkpt>
      <trkpt lat="35.396731" lon="127.446624">
        <ele>162.4</ele>
      </trkpt>
      <trkpt lat="35.396662" lon="127.446473">
        <ele>161.8</ele>
      </trkpt>
      <trkpt lat="35.396595" lon="127.446388">
        <ele>161.2</ele>
      </trkpt>
      <trkpt lat="35.39659789506273" lon="127.44638711214067">
        <ele>160.7</ele>
      </trkpt>
      <trkpt lat="35.396595" lon="127.446388">
        <ele>160.1</ele>
      </trkpt>
      <trkpt lat="35.396592" lon="127.446383">
        <ele>159.6</ele>
      </trkpt>
      <trkpt lat="35.396492" lon="127.446332">
        <ele>159.0</ele>
      </trkpt>
      <trkpt lat="35.396339" lon="127.446293">
        <ele>158.5</ele>
      </trkpt>
      <trkpt lat="35.396225" lon="127.446228">
        <ele>158.0</ele>
      </trkpt>
      <trkpt lat="35.396187" lon="127.446173">
        <ele>157.4</ele>
      </trkpt>
      <trkpt lat="35.396129" lon="127.446023">
        <ele>156.9</ele>
      </trkpt>
      <trkpt lat="35.396115" lon="127.445952">
        <ele>156.4</ele>
      </trkpt>
      <trkpt lat="35.396107" lon="127.445911">
        <ele>155.9</ele>
      </trkpt>
      <trkpt lat="35.396208" lon="127.445353">
        <ele>155.4</ele>
      </trkpt>
      <trkpt lat="35.39621089507232" lon="127.44535446166994">
        <ele>154.9</ele>
      </trkpt>
      <trkpt lat="35.396208" lon="127.445353">
        <ele>154.4</ele>
      </trkpt>
      <trkpt lat="35.396209" lon="127.445349">
        <ele>153.9</ele>
      </trkpt>
      <trkpt lat="35.396387" lon="127.444904">
        <ele>153.4</ele>
      </trkpt>
      <trkpt lat="35.396559" lon="127.444182">
        <ele>152.9</ele>
      </trkpt>
      <trkpt lat="35.396567" lon="127.444178">
        <ele>152.4</ele>
      </trkpt>
      <trkpt lat="35.39656728496164" lon="127.4441769719124">
        <ele>151.9</ele>
      </trkpt>
      <trkpt lat="35.396567" lon="127.444178">
        <ele>151.4</ele>
      </trkpt>
      <trkpt lat="35.396685" lon="127.444127">
        <ele>151.0</ele>
      </trkpt>
      <trkpt lat="35.396767" lon="127.4436">
        <ele>150.6</ele>
      </trkpt>
      <trkpt lat="35.396959" lon="127.443013">
        <ele>150.1</ele>
      </trkpt>
      <trkpt lat="35.396958656092856" lon="127.44301289319993">
        <ele>149.7</ele>
      </trkpt>
      <trkpt lat="35.396959" lon="127.443013">
        <ele>149.3</ele>
      </trkpt>
      <trkpt lat="35.397086" lon="127.442627">
        <ele>148.9</ele>
      </trkpt>
      <trkpt lat="35.397507" lon="127.441404">
        <ele>148.5</ele>
      </trkpt>
      <trkpt lat="35.397702" lon="127.44079">
        <ele>148.1</ele>
      </trkpt>
      <trkpt lat="35.39769985096267" lon="127.44078934192659">
        <ele>147.8</ele>
      </trkpt>
      <trkpt lat="35.397702" lon="127.44079">
        <ele>147.4</ele>
      </trkpt>
      <trkpt lat="35.397774" lon="127.440564">
        <ele>147.1</ele>
      </trkpt>
      <trkpt lat="35.39815" lon="127.439161">
        <ele>146.8</ele>
      </trkpt>
      <trkpt lat="35.398372" lon="127.438284">
        <ele>146.5</ele>
      </trkpt>
      <trkpt lat="35.398374" lon="127.438277">
        <ele>146.2</ele>
      </trkpt>
      <trkpt lat="35.398371074656" lon="127.43827611207963">
        <ele>145.9</ele>
      </trkpt>
      <trkpt lat="35.398374" lon="127.438277">
        <ele>145.7</ele>
      </trkpt>
      <trkpt lat="35.398831" lon="127.436914">
        <ele>145.4</ele>
      </trkpt>
      <trkpt lat="35.398922" lon="127.436568">
        <ele>145.2</ele>
      </trkpt>
      <trkpt lat="35.398963" lon="127.436265">
        <ele>144.9</ele>
      </trkpt>
      <trkpt lat="35.398996" lon="127.435878">
        <ele>144.7</ele>
      </trkpt>
      <trkpt lat="35.398994192627065" lon="127.43587821722033">
        <ele>144.4</ele>
      </trkpt>
      <trkpt lat="35.398996" lon="127.435878">
        <ele>144.2</ele>
      </trkpt>
      <trkpt lat="35.399021" lon="127.435586">
        <ele>144.0</ele>
      </trkpt>
      <trkpt lat="35.39922" lon="127.434658">
        <ele>143.8</ele>
      </trkpt>
      <trkpt lat="35.39934" lon="127.434353">
        <ele>143.6</ele>
      </trkpt>
      <trkpt lat="35.399303" lon="127.434313">
        <ele>143.4</ele>
      </trkpt>
      <trkpt lat="35.398921" lon="127.434079">
        <ele>143.2</ele>
      </trkpt>
      <trkpt lat="35.398897" lon="127.434054">
        <ele>143.0</ele>
      </trkpt>
      <trkpt lat="35.398861" lon="127.433991">
        <ele>142.8</ele>
      </trkpt>
      <trkpt lat="35.398739" lon="127.433659">
        <ele>142.6</ele>
      </trkpt>
      <trkpt lat="35.398740573262096" lon="127.433660030365">
        <ele>142.4</ele>
      </trkpt>
      <trkpt lat="35.398739" lon="127.433659">
        <ele>142.1</ele>
      </trkpt>
      <trkpt lat="35.398737" lon="127.433653">
        <ele>141.8</ele>
      </trkpt>
      <trkpt lat="35.398834" lon="127.433527">
        <ele>141.5</ele>
      </trkpt>
      <trkpt lat="35.398956" lon="127.433347">
        <ele>141.2</ele>
      </trkpt>
      <trkpt lat="35.399054" lon="127.433183">
        <ele>140.8</ele>
      </trkpt>
      <trkpt lat="35.399165" lon="127.43296">
        <ele>140.5</ele>
      </trkpt>
      <trkpt lat="35.399284" lon="127.432624">
        <ele>140.1</ele>
      </trkpt>
      <trkpt lat="35.399664" lon="127.431224">
        <ele>139.7</ele>
      </trkpt>
      <trkpt lat="35.399755" lon="127.430939">
        <ele>139.2</ele>
      </trkpt>
      <trkpt lat="35.399883" lon="127.430642">
        <ele>138.7</ele>
      </trkpt>
      <trkpt lat="35.400038" lon="127.43033">
        <ele>138.2</ele>
      </trkpt>
      <trkpt lat="35.400401" lon="127.429733">
        <ele>137.7</ele>
      </trkpt>
      <trkpt lat="35.401231" lon="127.42825">
        <ele>137.1</ele>
      </trkpt>
      <trkpt lat="35.401554" lon="127.427646">
        <ele>136.6</ele>
      </trkpt>
      <trkpt lat="35.40154783280906" lon="127.42764115333559">
        <ele>136.0</ele>
      </trkpt>
      <trkpt lat="35.401554" lon="127.427646">
        <ele>135.5</ele>
      </trkpt>
      <trkpt lat="35.401575" lon="127.427609">
        <ele>134.9</ele>
      </trkpt>
      <trkpt lat="35.402238" lon="127.426375">
        <ele>134.4</ele>
      </trkpt>
      <trkpt lat="35.403709" lon="127.423567">
        <ele>133.8</ele>
      </trkpt>
      <trkpt lat="35.403952" lon="127.423177">
        <ele>133.3</ele>
      </trkpt>
      <trkpt lat="35.404164" lon="127.422884">
        <ele>132.7</ele>
      </trkpt>
      <trkpt lat="35.404413" lon="127.422584">
        <ele>132.2</ele>
      </trkpt>
      <trkpt lat="35.40440746398953" lon="127.42257714271547">
        <ele>131.6</ele>
      </trkpt>
      <trkpt lat="35.404413" lon="127.422584">
        <ele>131.0</ele>
      </trkpt>
      <trkpt lat="35.404416" lon="127.422581">
        <ele>130.4</ele>
      </trkpt>
      <trkpt lat="35.404637" lon="127.422287">
        <ele>129.8</ele>
      </trkpt>
      <trkpt lat="35.405065" lon="127.42168">
        <ele>129.3</ele>
      </trkpt>
      <trkpt lat="35.405256" lon="127.421459">
        <ele>128.7</ele>
      </trkpt>
      <trkpt lat="35.405425" lon="127.421189">
        <ele>128.1</ele>
      </trkpt>
      <trkpt lat="35.405662" lon="127.420753">
        <ele>127.5</ele>
      </trkpt>
      <trkpt lat="35.405895" lon="127.420159">
        <ele>126.9</ele>
      </trkpt>
      <trkpt lat="35.406344" lon="127.418674">
        <ele>126.4</ele>
      </trkpt>
      <trkpt lat="35.406514" lon="127.417806">
        <ele>125.8</ele>
      </trkpt>
      <trkpt lat="35.406728" lon="127.416301">
        <ele>125.3</ele>
      </trkpt>
      <trkpt lat="35.40672482768766" lon="127.41630077362062">
        <ele>124.7</ele>
      </trkpt>
      <trkpt lat="35.406728" lon="127.416301">
        <ele>124.2</ele>
      </trkpt>
      <trkpt lat="35.406807" lon="127.415754">
        <ele>123.7</ele>
      </trkpt>
      <trkpt lat="35.40689" lon="127.415286">
        <ele>123.1</ele>
      </trkpt>
      <trkpt lat="35.407101" lon="127.414017">
        <ele>122.6</ele>
      </trkpt>
      <trkpt lat="35.407231" lon="127.413545">
        <ele>122.2</ele>
      </trkpt>
      <trkpt lat="35.407369" lon="127.413196">
        <ele>121.7</ele>
      </trkpt>
      <trkpt lat="35.407539" lon="127.412875">
        <ele>121.2</ele>
      </trkpt>
      <trkpt lat="35.407725" lon="127.412589">
        <ele>120.8</ele>
      </trkpt>
      <trkpt lat="35.408512" lon="127.411527">
        <ele>120.4</ele>
      </trkpt>
      <trkpt lat="35.40872" lon="127.411205">
        <ele>119.9</ele>
      </trkpt>
      <trkpt lat="35.40881" lon="127.411015">
        <ele>119.5</ele>
      </trkpt>
      <trkpt lat="35.408899" lon="127.410799">
        <ele>119.0</ele>
      </trkpt>
      <trkpt lat="35.408983" lon="127.41042">
        <ele>118.6</ele>
      </trkpt>
      <trkpt lat="35.409015" lon="127.41009">
        <ele>118.1</ele>
      </trkpt>
      <trkpt lat="35.409019" lon="127.409808">
        <ele>117.7</ele>
      </trkpt>
      <trkpt lat="35.408986" lon="127.409551">
        <ele>117.3</ele>
      </trkpt>
      <trkpt lat="35.40898965839622" lon="127.40955233573915">
        <ele>116.9</ele>
      </trkpt>
      <trkpt lat="35.408986" lon="127.409551">
        <ele>116.5</ele>
      </trkpt>
      <trkpt lat="35.408976" lon="127.409469">
        <ele>116.1</ele>
      </trkpt>
      <trkpt lat="35.408904" lon="127.409115">
        <ele>115.8</ele>
      </trkpt>
      <trkpt lat="35.408794" lon="127.408743">
        <ele>115.4</ele>
      </trkpt>
      <trkpt lat="35.408739" lon="127.408428">
        <ele>115.1</ele>
      </trkpt>
      <trkpt lat="35.408728" lon="127.408197">
        <ele>114.8</ele>
      </trkpt>
      <trkpt lat="35.408732" lon="127.407825">
        <ele>114.5</ele>
      </trkpt>
      <trkpt lat="35.408789" lon="127.407493">
        <ele>114.2</ele>
      </trkpt>
      <trkpt lat="35.408937" lon="127.406948">
        <ele>114.0</ele>
      </trkpt>
      <trkpt lat="35.409067" lon="127.406321">
        <ele>113.7</ele>
      </trkpt>
      <trkpt lat="35.40911" lon="127.406005">
        <ele>113.5</ele>
      </trkpt>
      <trkpt lat="35.409143" lon="127.405645">
        <ele>113.3</ele>
      </trkpt>
      <trkpt lat="35.409164" lon="127.405243">
        <ele>113.2</ele>
      </trkpt>
      <trkpt lat="35.40916" lon="127.403747">
        <ele>113.0</ele>
      </trkpt>
      <trkpt lat="35.40916" lon="127.401859">
        <ele>112.9</ele>
      </trkpt>
      <trkpt lat="35.409190779282014" lon="127.40185976028444">
        <ele>112.8</ele>
      </trkpt>
      <trkpt lat="35.40916" lon="127.401859">
        <ele>112.7</ele>
      </trkpt>
      <trkpt lat="35.409161" lon="127.401791">
        <ele>112.6</ele>
      </trkpt>
      <trkpt lat="35.409125" lon="127.401436">
        <ele>112.5</ele>
      </trkpt>
      <trkpt lat="35.409121" lon="127.400621">
        <ele>112.5</ele>
      </trkpt>
      <trkpt lat="35.409133" lon="127.399845">
        <ele>112.4</ele>
      </trkpt>
      <trkpt lat="35.409152" lon="127.399507">
        <ele>112.4</ele>
      </trkpt>
      <trkpt lat="35.409153" lon="127.398952">
        <ele>112.3</ele>
      </trkpt>
      <trkpt lat="35.409155" lon="127.398705">
        <ele>112.3</ele>
      </trkpt>
      <trkpt lat="35.409188" lon="127.398271">
        <ele>112.3</ele>
      </trkpt>
      <trkpt lat="35.409193" lon="127.397567">
        <ele>112.3</ele>
      </trkpt>
      <trkpt lat="35.40923" lon="127.397067">
        <ele>112.2</ele>
      </trkpt>
      <trkpt lat="35.409327" lon="127.39628">
        <ele>112.2</ele>
      </trkpt>
      <trkpt lat="35.409355" lon="127.396113">
        <ele>112.1</ele>
      </trkpt>
      <trkpt lat="35.409446" lon="127.395557">
        <ele>112.0</ele>
      </trkpt>
      <trkpt lat="35.409497" lon="127.395245">
        <ele>111.9</ele>
      </trkpt>
      <trkpt lat="35.409506" lon="127.395049">
        <ele>111.8</ele>
      </trkpt>
      <trkpt lat="35.409498" lon="127.395016">
        <ele>111.7</ele>
      </trkpt>
      <trkpt lat="35.40950557618271" lon="127.39501476287843">
        <ele>111.5</ele>
      </trkpt>
      <trkpt lat="35.409498" lon="127.395016">
        <ele>111.4</ele>
      </trkpt>
      <trkpt lat="35.409469" lon="127.394893">
        <ele>111.2</ele>
      </trkpt>
      <trkpt lat="35.409407" lon="127.394722">
        <ele>111.0</ele>
      </trkpt>
      <trkpt lat="35.409191" lon="127.394351">
        <ele>110.8</ele>
      </trkpt>
      <trkpt lat="35.408607" lon="127.393417">
        <ele>110.6</ele>
      </trkpt>
      <trkpt lat="35.408195" lon="127.392687">
        <ele>110.3</ele>
      </trkpt>
      <trkpt lat="35.408066" lon="127.392395">
        <ele>110.1</ele>
      </trkpt>
      <trkpt lat="35.407962" lon="127.39204">
        <ele>109.8</ele>
      </trkpt>
      <trkpt lat="35.407915" lon="127.391874">
        <ele>109.5</ele>
      </trkpt>
      <trkpt lat="35.407838" lon="127.391686">
        <ele>109.1</ele>
      </trkpt>
      <trkpt lat="35.407737" lon="127.391459">
        <ele>108.8</ele>
      </trkpt>
      <trkpt lat="35.40758" lon="127.391152">
        <ele>108.4</ele>
      </trkpt>
      <trkpt lat="35.407282" lon="127.390675">
        <ele>108.0</ele>
      </trkpt>
      <trkpt lat="35.40730197205733" lon="127.39065885543825">
        <ele>107.6</ele>
      </trkpt>
      <trkpt lat="35.407282" lon="127.390675">
        <ele>107.2</ele>
      </trkpt>
      <trkpt lat="35.40716" lon="127.39048">
        <ele>106.8</ele>
      </trkpt>
      <trkpt lat="35.406348" lon="127.389302">
        <ele>106.3</ele>
      </trkpt>
      <trkpt lat="35.406024" lon="127.38891">
        <ele>105.9</ele>
      </trkpt>
      <trkpt lat="35.405442" lon="127.388253">
        <ele>105.5</ele>
      </trkpt>
      <trkpt lat="35.404843" lon="127.38763">
        <ele>105.0</ele>
      </trkpt>
      <trkpt lat="35.404483" lon="127.38725">
        <ele>104.6</ele>
      </trkpt>
      <trkpt lat="35.40449491288583" lon="127.38723635673524">
        <ele>104.2</ele>
      </trkpt>
      <trkpt lat="35.404483" lon="127.38725">
        <ele>103.8</ele>
      </trkpt>
      <trkpt lat="35.40427" lon="127.387024">
        <ele>103.4</ele>
      </trkpt>
      <trkpt lat="35.403939" lon="127.386646">
        <ele>103.0</ele>
      </trkpt>
      <trkpt lat="35.403929" lon="127.386601">
        <ele>102.6</ele>
      </trkpt>
      <trkpt lat="35.403856" lon="127.386522">
        <ele>102.3</ele>
      </trkpt>
      <trkpt lat="35.403823" lon="127.386447">
        <ele>102.0</ele>
      </trkpt>
      <trkpt lat="35.403819" lon="127.386408">
        <ele>101.7</ele>
      </trkpt>
      <trkpt lat="35.403804" lon="127.386372">
        <ele>101.4</ele>
      </trkpt>
      <trkpt lat="35.40378" lon="127.386344">
        <ele>101.2</ele>
      </trkpt>
      <trkpt lat="35.403751" lon="127.386328">
        <ele>100.9</ele>
      </trkpt>
      <trkpt lat="35.403653" lon="127.38628">
        <ele>100.7</ele>
      </trkpt>
      <trkpt lat="35.40361" lon="127.386218">
        <ele>100.5</ele>
      </trkpt>
      <trkpt lat="35.403558" lon="127.386203">
        <ele>100.3</ele>
      </trkpt>
      <trkpt lat="35.403202" lon="127.385585">
        <ele>100.1</ele>
      </trkpt>
      <trkpt lat="35.402895" lon="127.385004">
        <ele>99.9</ele>
      </trkpt>
      <trkpt lat="35.402563" lon="127.384367">
        <ele>99.8</ele>
      </trkpt>
      <trkpt lat="35.402514" lon="127.384276">
        <ele>99.7</ele>
      </trkpt>
      <trkpt lat="35.402531662321955" lon="127.38426446914674">
        <ele>99.6</ele>
      </trkpt>
      <trkpt lat="35.402514" lon="127.384276">
        <ele>99.5</ele>
      </trkpt>
      <trkpt lat="35.402362" lon="127.383995">
        <ele>99.5</ele>
      </trkpt>
      <trkpt lat="35.402207" lon="127.383724">
        <ele>99.5</ele>
      </trkpt>
      <trkpt lat="35.40220372048504" lon="127.38372802734376">
        <ele>99.5</ele>
      </trkpt>
      <trkpt lat="35.402207" lon="127.383724">
        <ele>99.5</ele>
      </trkpt>
      <trkpt lat="35.402362" lon="127.383995">
        <ele>99.6</ele>
      </trkpt>
      <trkpt lat="35.402563" lon="127.384367">
        <ele>99.7</ele>
      </trkpt>
      <trkpt lat="35.402895" lon="127.385004">
        <ele>99.8</ele>
      </trkpt>
      <trkpt lat="35.403202" lon="127.385585">
        <ele>100.0</ele>
      </trkpt>
      <trkpt lat="35.403558" lon="127.386203">
        <ele>100.1</ele>
      </trkpt>
      <trkpt lat="35.403568" lon="127.386274">
        <ele>100.3</ele>
      </trkpt>
      <trkpt lat="35.40359" lon="127.386305">
        <ele>100.5</ele>
      </trkpt>
      <trkpt lat="35.403608" lon="127.386346">
        <ele>100.7</ele>
      </trkpt>
      <trkpt lat="35.403628" lon="127.386422">
        <ele>101.0</ele>
      </trkpt>
      <trkpt lat="35.403628" lon="127.386462">
        <ele>101.2</ele>
      </trkpt>
      <trkpt lat="35.403638" lon="127.386499">
        <ele>101.5</ele>
      </trkpt>
      <trkpt lat="35.403657" lon="127.386531">
        <ele>101.7</ele>
      </trkpt>
      <trkpt lat="35.403684" lon="127.386554">
        <ele>102.0</ele>
      </trkpt>
      <trkpt lat="35.403715" lon="127.386564">
        <ele>102.3</ele>
      </trkpt>
      <trkpt lat="35.403821" lon="127.386585">
        <ele>102.6</ele>
      </trkpt>
      <trkpt lat="35.403903" lon="127.386648">
        <ele>102.9</ele>
      </trkpt>
      <trkpt lat="35.403939" lon="127.386646">
        <ele>103.3</ele>
      </trkpt>
      <trkpt lat="35.40427" lon="127.387024">
        <ele>103.6</ele>
      </trkpt>
      <trkpt lat="35.404315" lon="127.387071">
        <ele>104.0</ele>
      </trkpt>
      <trkpt lat="35.404328759901766" lon="127.38705396652223">
        <ele>104.4</ele>
      </trkpt>
      <trkpt lat="35.404315" lon="127.387071">
        <ele>104.8</ele>
      </trkpt>
      <trkpt lat="35.404843" lon="127.38763">
        <ele>105.2</ele>
      </trkpt>
      <trkpt lat="35.405442" lon="127.388253">
        <ele>105.7</ele>
      </trkpt>
      <trkpt lat="35.406024" lon="127.38891">
        <ele>106.1</ele>
      </trkpt>
      <trkpt lat="35.406348" lon="127.389302">
        <ele>106.5</ele>
      </trkpt>
      <trkpt lat="35.407022" lon="127.390281">
        <ele>106.9</ele>
      </trkpt>
      <trkpt lat="35.407022145000255" lon="127.39028334617616">
        <ele>107.3</ele>
      </trkpt>
      <trkpt lat="35.407022" lon="127.390281">
        <ele>107.7</ele>
      </trkpt>
      <trkpt lat="35.40716" lon="127.39048">
        <ele>108.1</ele>
      </trkpt>
      <trkpt lat="35.40758" lon="127.391152">
        <ele>108.5</ele>
      </trkpt>
      <trkpt lat="35.407737" lon="127.391459">
        <ele>108.8</ele>
      </trkpt>
      <trkpt lat="35.407838" lon="127.391686">
        <ele>109.2</ele>
      </trkpt>
      <trkpt lat="35.407915" lon="127.391874">
        <ele>109.5</ele>
      </trkpt>
      <trkpt lat="35.407962" lon="127.39204">
        <ele>109.8</ele>
      </trkpt>
      <trkpt lat="35.408066" lon="127.392395">
        <ele>110.1</ele>
      </trkpt>
      <trkpt lat="35.408195" lon="127.392687">
        <ele>110.3</ele>
      </trkpt>
      <trkpt lat="35.408607" lon="127.393417">
        <ele>110.5</ele>
      </trkpt>
      <trkpt lat="35.408789" lon="127.393708">
        <ele>110.7</ele>
      </trkpt>
      <trkpt lat="35.40877104816847" lon="127.39372730255128">
        <ele>110.9</ele>
      </trkpt>
      <trkpt lat="35.408789" lon="127.393708">
        <ele>111.1</ele>
      </trkpt>
      <trkpt lat="35.409191" lon="127.394351">
        <ele>111.3</ele>
      </trkpt>
      <trkpt lat="35.409407" lon="127.394722">
        <ele>111.4</ele>
      </trkpt>
      <trkpt lat="35.409469" lon="127.394893">
        <ele>111.6</ele>
      </trkpt>
      <trkpt lat="35.409506" lon="127.395049">
        <ele>111.7</ele>
      </trkpt>
      <trkpt lat="35.409497" lon="127.395245">
        <ele>111.8</ele>
      </trkpt>
      <trkpt lat="35.409446" lon="127.395557">
        <ele>111.9</ele>
      </trkpt>
      <trkpt lat="35.409355" lon="127.396113">
        <ele>112.0</ele>
      </trkpt>
      <trkpt lat="35.409327" lon="127.39628">
        <ele>112.0</ele>
      </trkpt>
      <trkpt lat="35.40923" lon="127.397067">
        <ele>112.1</ele>
      </trkpt>
      <trkpt lat="35.409198" lon="127.397496">
        <ele>112.1</ele>
      </trkpt>
      <trkpt lat="35.40916454615148" lon="127.3974931240082">
        <ele>112.1</ele>
      </trkpt>
      <trkpt lat="35.409198" lon="127.397496">
        <ele>112.1</ele>
      </trkpt>
      <trkpt lat="35.409193" lon="127.397567">
        <ele>112.0</ele>
      </trkpt>
      <trkpt lat="35.409188" lon="127.398271">
        <ele>112.0</ele>
      </trkpt>
      <trkpt lat="35.409155" lon="127.398705">
        <ele>112.0</ele>
      </trkpt>
      <trkpt lat="35.409153" lon="127.398952">
        <ele>111.9</ele>
      </trkpt>
      <trkpt lat="35.409152" lon="127.399507">
        <ele>111.9</ele>
      </trkpt>
      <trkpt lat="35.409133" lon="127.399845">
        <ele>111.9</ele>
      </trkpt>
      <trkpt lat="35.409121" lon="127.400621">
        <ele>111.9</ele>
      </trkpt>
      <trkpt lat="35.409125" lon="127.401436">
        <ele>111.9</ele>
      </trkpt>
      <trkpt lat="35.409077" lon="127.401809">
        <ele>111.9</ele>
      </trkpt>
      <trkpt lat="35.409082" lon="127.40277">
        <ele>112.0</ele>
      </trkpt>
      <trkpt lat="35.4090333803706" lon="127.4027717113495">
        <ele>112.0</ele>
      </trkpt>
      <trkpt lat="35.409082" lon="127.40277">
        <ele>112.1</ele>
      </trkpt>
      <trkpt lat="35.409087" lon="127.403731">
        <ele>112.3</ele>
      </trkpt>
      <trkpt lat="35.409089" lon="127.405092">
        <ele>112.4</ele>
      </trkpt>
      <trkpt lat="35.409075" lon="127.405646">
        <ele>112.5</ele>
      </trkpt>
      <trkpt lat="35.409044" lon="127.405925">
        <ele>112.7</ele>
      </trkpt>
      <trkpt lat="35.408994" lon="127.406278">
        <ele>112.9</ele>
      </trkpt>
      <trkpt lat="35.408939" lon="127.406576">
        <ele>113.1</ele>
      </trkpt>
      <trkpt lat="35.408876" lon="127.406903">
        <ele>113.4</ele>
      </trkpt>
      <trkpt lat="35.408768" lon="127.40729">
        <ele>113.6</ele>
      </trkpt>
      <trkpt lat="35.40869" lon="127.407597">
        <ele>113.8</ele>
      </trkpt>
      <trkpt lat="35.408656" lon="127.407905">
        <ele>114.1</ele>
      </trkpt>
      <trkpt lat="35.408658" lon="127.408048">
        <ele>114.4</ele>
      </trkpt>
      <trkpt lat="35.408639881747206" lon="127.40805029869081">
        <ele>114.7</ele>
      </trkpt>
      <trkpt lat="35.408658" lon="127.408048">
        <ele>115.0</ele>
      </trkpt>
      <trkpt lat="35.40866" lon="127.408183">
        <ele>115.4</ele>
      </trkpt>
      <trkpt lat="35.408666" lon="127.408397">
        <ele>115.7</ele>
      </trkpt>
      <trkpt lat="35.408723" lon="127.408734">
        <ele>116.1</ele>
      </trkpt>
      <trkpt lat="35.408789" lon="127.408993">
        <ele>116.5</ele>
      </trkpt>
      <trkpt lat="35.408894" lon="127.409362">
        <ele>116.9</ele>
      </trkpt>
      <trkpt lat="35.408946" lon="127.409651">
        <ele>117.3</ele>
      </trkpt>
      <trkpt lat="35.40896" lon="127.409932">
        <ele>117.8</ele>
      </trkpt>
      <trkpt lat="35.40894" lon="127.41017">
        <ele>118.2</ele>
      </trkpt>
      <trkpt lat="35.408912" lon="127.410396">
        <ele>118.7</ele>
      </trkpt>
      <trkpt lat="35.408885" lon="127.410586">
        <ele>119.1</ele>
      </trkpt>
      <trkpt lat="35.408833" lon="127.410773">
        <ele>119.6</ele>
      </trkpt>
      <trkpt lat="35.408744" lon="127.410998">
        <ele>120.0</ele>
      </trkpt>
      <trkpt lat="35.408648" lon="127.411181">
        <ele>120.4</ele>
      </trkpt>
      <trkpt lat="35.408452" lon="127.411489">
        <ele>120.9</ele>
      </trkpt>
      <trkpt lat="35.408037" lon="127.412019">
        <ele>121.3</ele>
      </trkpt>
      <trkpt lat="35.407478" lon="127.41282">
        <ele>121.7</ele>
      </trkpt>
      <trkpt lat="35.407313" lon="127.413148">
        <ele>122.1</ele>
      </trkpt>
      <trkpt lat="35.407097" lon="127.413673">
        <ele>122.6</ele>
      </trkpt>
      <trkpt lat="35.40706" lon="127.413806">
        <ele>123.0</ele>
      </trkpt>
      <trkpt lat="35.4070483788281" lon="127.41380095481874">
        <ele>123.5</ele>
      </trkpt>
      <trkpt lat="35.40706" lon="127.413806">
        <ele>124.0</ele>
      </trkpt>
      <trkpt lat="35.406988" lon="127.414071">
        <ele>124.4</ele>
      </trkpt>
      <trkpt lat="35.406906" lon="127.414499">
        <ele>124.9</ele>
      </trkpt>
      <trkpt lat="35.406777" lon="127.415327">
        <ele>125.4</ele>
      </trkpt>
      <trkpt lat="35.406641" lon="127.416182">
        <ele>126.0</ele>
      </trkpt>
      <trkpt lat="35.406075" lon="127.418694">
        <ele>126.5</ele>
      </trkpt>
      <trkpt lat="35.40604274265009" lon="127.41868257522584">
        <ele>127.0</ele>
      </trkpt>
      <trkpt lat="35.406056" lon="127.418783">
        <ele>127.5</ele>
      </trkpt>
      <trkpt lat="35.406002" lon="127.419054">
        <ele>128.1</ele>
      </trkpt>
      <trkpt lat="35.405846" lon="127.419829">
        <ele>128.6</ele>
      </trkpt>
      <trkpt lat="35.405654" lon="127.420419">
        <ele>129.2</ele>
      </trkpt>
      <trkpt lat="35.405378" lon="127.421022">
        <ele>129.7</ele>
      </trkpt>
      <trkpt lat="35.405065" lon="127.42168">
        <ele>130.3</ele>
      </trkpt>
      <trkpt lat="35.404637" lon="127.422287">
        <ele>130.8</ele>
      </trkpt>
      <trkpt lat="35.404416" lon="127.422581">
        <ele>131.3</ele>
      </trkpt>
      <trkpt lat="35.404164" lon="127.422884">
        <ele>131.9</ele>
      </trkpt>
      <trkpt lat="35.403969" lon="127.423152">
        <ele>132.4</ele>
      </trkpt>
      <trkpt lat="35.403952728199485" lon="127.42313504219057">
        <ele>133.0</ele>
      </trkpt>
      <trkpt lat="35.403969" lon="127.423152">
        <ele>133.5</ele>
      </trkpt>
      <trkpt lat="35.403952" lon="127.423177">
        <ele>134.0</ele>
      </trkpt>
      <trkpt lat="35.403709" lon="127.423567">
        <ele>134.6</ele>
      </trkpt>
      <trkpt lat="35.402238" lon="127.426375">
        <ele>135.1</ele>
      </trkpt>
      <trkpt lat="35.401575" lon="127.427609">
        <ele>135.6</ele>
      </trkpt>
      <trkpt lat="35.401359" lon="127.428009">
        <ele>136.2</ele>
      </trkpt>
      <trkpt lat="35.40135543807856" lon="127.42800593376161">
        <ele>136.7</ele>
      </trkpt>
      <trkpt lat="35.401359" lon="127.428009">
        <ele>137.3</ele>
      </trkpt>
      <trkpt lat="35.401231" lon="127.42825">
        <ele>137.8</ele>
      </trkpt>
      <trkpt lat="35.400401" lon="127.429733">
        <ele>138.3</ele>
      </trkpt>
      <trkpt lat="35.400038" lon="127.43033">
        <ele>138.8</ele>
      </trkpt>
      <trkpt lat="35.399883" lon="127.430642">
        <ele>139.3</ele>
      </trkpt>
      <trkpt lat="35.399755" lon="127.430939">
        <ele>139.8</ele>
      </trkpt>
      <trkpt lat="35.399664" lon="127.431224">
        <ele>140.2</ele>
      </trkpt>
      <trkpt lat="35.399284" lon="127.432624">
        <ele>140.6</ele>
      </trkpt>
      <trkpt lat="35.399165" lon="127.43296">
        <ele>140.9</ele>
      </trkpt>
      <trkpt lat="35.399054" lon="127.433183">
        <ele>141.3</ele>
      </trkpt>
      <trkpt lat="35.398956" lon="127.433347">
        <ele>141.7</ele>
      </trkpt>
      <trkpt lat="35.398912" lon="127.433411">
        <ele>142.0</ele>
      </trkpt>
      <trkpt lat="35.39892422874402" lon="127.43342399597168">
        <ele>142.3</ele>
      </trkpt>
      <trkpt lat="35.398912" lon="127.433411">
        <ele>142.6</ele>
      </trkpt>
      <trkpt lat="35.398834" lon="127.433527">
        <ele>142.9</ele>
      </trkpt>
      <trkpt lat="35.398737" lon="127.433653">
        <ele>143.2</ele>
      </trkpt>
      <trkpt lat="35.398861" lon="127.433991">
        <ele>143.5</ele>
      </trkpt>
      <trkpt lat="35.398897" lon="127.434054">
        <ele>143.7</ele>
      </trkpt>
      <trkpt lat="35.398921" lon="127.434079">
        <ele>144.0</ele>
      </trkpt>
      <trkpt lat="35.399303" lon="127.434313">
        <ele>144.3</ele>
      </trkpt>
      <trkpt lat="35.39934" lon="127.434353">
        <ele>144.6</ele>
      </trkpt>
      <trkpt lat="35.39922" lon="127.434658">
        <ele>144.8</ele>
      </trkpt>
      <trkpt lat="35.399171" lon="127.434883">
        <ele>145.2</ele>
      </trkpt>
      <trkpt lat="35.39916910206912" lon="127.4348831176758">
        <ele>145.5</ele>
      </trkpt>
      <trkpt lat="35.399171" lon="127.434883">
        <ele>145.8</ele>
      </trkpt>
      <trkpt lat="35.399021" lon="127.435586">
        <ele>146.1</ele>
      </trkpt>
      <trkpt lat="35.398963" lon="127.436265">
        <ele>146.5</ele>
      </trkpt>
      <trkpt lat="35.398922" lon="127.436568">
        <ele>146.9</ele>
      </trkpt>
      <trkpt lat="35.398831" lon="127.436914">
        <ele>147.2</ele>
      </trkpt>
      <trkpt lat="35.398372" lon="127.438284">
        <ele>147.6</ele>
      </trkpt>
      <trkpt lat="35.39815" lon="127.439161">
        <ele>148.0</ele>
      </trkpt>
      <trkpt lat="35.397774" lon="127.440564">
        <ele>148.4</ele>
      </trkpt>
      <trkpt lat="35.397598" lon="127.441116">
        <ele>148.8</ele>
      </trkpt>
      <trkpt lat="35.3976211403264" lon="127.44112730026247">
        <ele>149.3</ele>
      </trkpt>
      <trkpt lat="35.397598" lon="127.441116">
        <ele>149.7</ele>
      </trkpt>
      <trkpt lat="35.397507" lon="127.441404">
        <ele>150.2</ele>
      </trkpt>
      <trkpt lat="35.397086" lon="127.442627">
        <ele>150.7</ele>
      </trkpt>
      <trkpt lat="35.396767" lon="127.4436">
        <ele>151.2</ele>
      </trkpt>
      <trkpt lat="35.396685" lon="127.444127">
        <ele>151.7</ele>
      </trkpt>
      <trkpt lat="35.396559" lon="127.444182">
        <ele>152.3</ele>
      </trkpt>
      <trkpt lat="35.396387" lon="127.444904">
        <ele>152.8</ele>
      </trkpt>
      <trkpt lat="35.396209" lon="127.445349">
        <ele>153.4</ele>
      </trkpt>
      <trkpt lat="35.396107" lon="127.445911">
        <ele>154.0</ele>
      </trkpt>
      <trkpt lat="35.396112" lon="127.445939">
        <ele>154.7</ele>
      </trkpt>
      <trkpt lat="35.396134369430555" lon="127.44593381881715">
        <ele>155.3</ele>
      </trkpt>
      <trkpt lat="35.396112" lon="127.445939">
        <ele>156.0</ele>
      </trkpt>
      <trkpt lat="35.396115" lon="127.445952">
        <ele>156.6</ele>
      </trkpt>
      <trkpt lat="35.396129" lon="127.446023">
        <ele>157.3</ele>
      </trkpt>
      <trkpt lat="35.396187" lon="127.446173">
        <ele>158.1</ele>
      </trkpt>
      <trkpt lat="35.396225" lon="127.446228">
        <ele>158.8</ele>
      </trkpt>
      <trkpt lat="35.396339" lon="127.446293">
        <ele>159.6</ele>
      </trkpt>
      <trkpt lat="35.396492" lon="127.446332">
        <ele>160.4</ele>
      </trkpt>
      <trkpt lat="35.396592" lon="127.446383">
        <ele>161.2</ele>
      </trkpt>
      <trkpt lat="35.396662" lon="127.446473">
        <ele>162.0</ele>
      </trkpt>
      <trkpt lat="35.396731" lon="127.446624">
        <ele>162.8</ele>
      </trkpt>
      <trkpt lat="35.396755" lon="127.446746">
        <ele>163.6</ele>
      </trkpt>
      <trkpt lat="35.396659" lon="127.447305">
        <ele>164.5</ele>
      </trkpt>
      <trkpt lat="35.396652" lon="127.447538">
        <ele>165.3</ele>
      </trkpt>
      <trkpt lat="35.39668" lon="127.447986">
        <ele>166.2</ele>
      </trkpt>
      <trkpt lat="35.39671" lon="127.448222">
        <ele>167.1</ele>
      </trkpt>
      <trkpt lat="35.396731" lon="127.448289">
        <ele>168.0</ele>
      </trkpt>
      <trkpt lat="35.396784" lon="127.448382">
        <ele>168.9</ele>
      </trkpt>
      <trkpt lat="35.397109" lon="127.448582">
        <ele>169.8</ele>
      </trkpt>
      <trkpt lat="35.397188" lon="127.448653">
        <ele>170.8</ele>
      </trkpt>
      <trkpt lat="35.397406" lon="127.448907">
        <ele>171.7</ele>
      </trkpt>
      <trkpt lat="35.397977" lon="127.449793">
        <ele>172.6</ele>
      </trkpt>
      <trkpt lat="35.397988455971614" lon="127.44978547096254">
        <ele>173.4</ele>
      </trkpt>
      <trkpt lat="35.397977" lon="127.449793">
        <ele>174.3</ele>
      </trkpt>
      <trkpt lat="35.398208" lon="127.450152">
        <ele>175.2</ele>
      </trkpt>
      <trkpt lat="35.39884" lon="127.450278">
        <ele>176.0</ele>
      </trkpt>
      <trkpt lat="35.399238" lon="127.450366">
        <ele>176.8</ele>
      </trkpt>
      <trkpt lat="35.399425" lon="127.450388">
        <ele>177.6</ele>
      </trkpt>
      <trkpt lat="35.399718" lon="127.450375">
        <ele>178.4</ele>
      </trkpt>
      <trkpt lat="35.400084" lon="127.450347">
        <ele>179.2</ele>
      </trkpt>
      <trkpt lat="35.400746" lon="127.45044">
        <ele>179.8</ele>
      </trkpt>
      <trkpt lat="35.40091" lon="127.450485">
        <ele>180.5</ele>
      </trkpt>
      <trkpt lat="35.401038" lon="127.450533">
        <ele>181.1</ele>
      </trkpt>
      <trkpt lat="35.402608" lon="127.451259">
        <ele>181.6</ele>
      </trkpt>
      <trkpt lat="35.402893" lon="127.451397">
        <ele>182.0</ele>
      </trkpt>
      <trkpt lat="35.40289458306641" lon="127.45139479637147">
        <ele>182.4</ele>
      </trkpt>
      <trkpt lat="35.402893" lon="127.451397">
        <ele>182.7</ele>
      </trkpt>
      <trkpt lat="35.404606" lon="127.452229">
        <ele>183.0</ele>
      </trkpt>
      <trkpt lat="35.404783" lon="127.452345">
        <ele>183.1</ele>
      </trkpt>
      <trkpt lat="35.405141" lon="127.452608">
        <ele>183.2</ele>
      </trkpt>
      <trkpt lat="35.405546" lon="127.452921">
        <ele>183.3</ele>
      </trkpt>
      <trkpt lat="35.405724" lon="127.453018">
        <ele>183.2</ele>
      </trkpt>
      <trkpt lat="35.405926" lon="127.453107">
        <ele>183.0</ele>
      </trkpt>
      <trkpt lat="35.406217" lon="127.453216">
        <ele>182.7</ele>
      </trkpt>
      <trkpt lat="35.407151" lon="127.453469">
        <ele>182.4</ele>
      </trkpt>
      <trkpt lat="35.407551" lon="127.453537">
        <ele>181.9</ele>
      </trkpt>
      <trkpt lat="35.407721" lon="127.453549">
        <ele>181.4</ele>
      </trkpt>
      <trkpt lat="35.408029" lon="127.453534">
        <ele>180.9</ele>
      </trkpt>
      <trkpt lat="35.408329" lon="127.453497">
        <ele>180.2</ele>
      </trkpt>
      <trkpt lat="35.408684" lon="127.453422">
        <ele>179.5</ele>
      </trkpt>
      <trkpt lat="35.408924" lon="127.453406">
        <ele>178.8</ele>
      </trkpt>
      <trkpt lat="35.409068" lon="127.453408">
        <ele>178.0</ele>
      </trkpt>
      <trkpt lat="35.409181" lon="127.453409">
        <ele>177.1</ele>
      </trkpt>
      <trkpt lat="35.40918203490611" lon="127.45341181755067">
        <ele>176.2</ele>
      </trkpt>
      <trkpt lat="35.409181" lon="127.453409">
        <ele>175.3</ele>
      </trkpt>
      <trkpt lat="35.409286" lon="127.45341">
        <ele>174.3</ele>
      </trkpt>
      <trkpt lat="35.409437" lon="127.453429">
        <ele>173.2</ele>
      </trkpt>
      <trkpt lat="35.41016" lon="127.4536">
        <ele>172.1</ele>
      </trkpt>
      <trkpt lat="35.410602" lon="127.453766">
        <ele>171.0</ele>
      </trkpt>
      <trkpt lat="35.41399" lon="127.455141">
        <ele>169.8</ele>
      </trkpt>
      <trkpt lat="35.414265" lon="127.455268">
        <ele>168.7</ele>
      </trkpt>
      <trkpt lat="35.414375" lon="127.45531">
        <ele>167.5</ele>
      </trkpt>
      <trkpt lat="35.414626" lon="127.45539">
        <ele>166.4</ele>
      </trkpt>
      <trkpt lat="35.415015" lon="127.455431">
        <ele>165.3</ele>
      </trkpt>
      <trkpt lat="35.415406" lon="127.455444">
        <ele>164.2</ele>
      </trkpt>
      <trkpt lat="35.41540779040277" lon="127.45543956756593">
        <ele>163.1</ele>
      </trkpt>
      <trkpt lat="35.415406" lon="127.455444">
        <ele>162.0</ele>
      </trkpt>
      <trkpt lat="35.415465" lon="127.455447">
        <ele>161.0</ele>
      </trkpt>
      <trkpt lat="35.415707" lon="127.455399">
        <ele>160.0</ele>
      </trkpt>
      <trkpt lat="35.415934" lon="127.455318">
        <ele>159.0</ele>
      </trkpt>
      <trkpt lat="35.416239" lon="127.45523">
        <ele>158.0</ele>
      </trkpt>
      <trkpt lat="35.416539" lon="127.455081">
        <ele>157.1</ele>
      </trkpt>
      <trkpt lat="35.416766" lon="127.454925">
        <ele>156.2</ele>
      </trkpt>
      <trkpt lat="35.417313" lon="127.454456">
        <ele>155.3</ele>
      </trkpt>
      <trkpt lat="35.417509" lon="127.45429">
        <ele>154.5</ele>
      </trkpt>
      <trkpt lat="35.417654" lon="127.454186">
        <ele>153.8</ele>
      </trkpt>
      <trkpt lat="35.417881" lon="127.454069">
        <ele>153.0</ele>
      </trkpt>
      <trkpt lat="35.418171" lon="127.453965">
        <ele>152.3</ele>
      </trkpt>
      <trkpt lat="35.418474" lon="127.453869">
        <ele>151.6</ele>
      </trkpt>
      <trkpt lat="35.419149" lon="127.453698">
        <ele>150.9</ele>
      </trkpt>
      <trkpt lat="35.419607" lon="127.453554">
        <ele>150.3</ele>
      </trkpt>
      <trkpt lat="35.42049" lon="127.45326">
        <ele>149.6</ele>
      </trkpt>
      <trkpt lat="35.421073" lon="127.453029">
        <ele>149.0</ele>
      </trkpt>
      <trkpt lat="35.421184" lon="127.452982">
        <ele>148.4</ele>
      </trkpt>
      <trkpt lat="35.421379" lon="127.452885">
        <ele>147.9</ele>
      </trkpt>
      <trkpt lat="35.42137951677423" lon="127.45288610458375">
        <ele>147.3</ele>
      </trkpt>
      <trkpt lat="35.421379" lon="127.452885">
        <ele>146.8</ele>
      </trkpt>
      <trkpt lat="35.421403" lon="127.452874">
        <ele>146.3</ele>
      </trkpt>
      <trkpt lat="35.421821" lon="127.452645">
        <ele>145.8</ele>
      </trkpt>
      <trkpt lat="35.422809" lon="127.452062">
        <ele>145.4</ele>
      </trkpt>
      <trkpt lat="35.422841" lon="127.452042">
        <ele>144.9</ele>
      </trkpt>
      <trkpt lat="35.423865" lon="127.45141">
        <ele>144.5</ele>
      </trkpt>
      <trkpt lat="35.42385376271633" lon="127.45138406753541">
        <ele>144.0</ele>
      </trkpt>
      <trkpt lat="35.423865" lon="127.45141">
        <ele>143.5</ele>
      </trkpt>
      <trkpt lat="35.424074" lon="127.451282">
        <ele>143.1</ele>
      </trkpt>
      <trkpt lat="35.424114" lon="127.451258">
        <ele>142.6</ele>
      </trkpt>
      <trkpt lat="35.42434" lon="127.451149">
        <ele>142.1</ele>
      </trkpt>
      <trkpt lat="35.424441" lon="127.451096">
        <ele>141.6</ele>
      </trkpt>
      <trkpt lat="35.423993" lon="127.449202">
        <ele>141.1</ele>
      </trkpt>
      <trkpt lat="35.423958" lon="127.449055">
        <ele>140.5</ele>
      </trkpt>
      <trkpt lat="35.42395867605907" lon="127.44905591011049">
        <ele>140.0</ele>
      </trkpt>
      <trkpt lat="35.423958" lon="127.449055">
        <ele>139.4</ele>
      </trkpt>
      <trkpt lat="35.423954" lon="127.449037">
        <ele>138.9</ele>
      </trkpt>
      <trkpt lat="35.423543" lon="127.447352">
        <ele>138.3</ele>
      </trkpt>
      <trkpt lat="35.423501" lon="127.447121">
        <ele>137.7</ele>
      </trkpt>
      <trkpt lat="35.423459" lon="127.446853">
        <ele>137.2</ele>
      </trkpt>
      <trkpt lat="35.423434" lon="127.446568">
        <ele>136.6</ele>
      </trkpt>
      <trkpt lat="35.423413" lon="127.446235">
        <ele>136.1</ele>
      </trkpt>
      <trkpt lat="35.423405" lon="127.445975">
        <ele>135.5</ele>
      </trkpt>
      <trkpt lat="35.423415" lon="127.445681">
        <ele>134.9</ele>
      </trkpt>
      <trkpt lat="35.423431" lon="127.445477">
        <ele>134.3</ele>
      </trkpt>
      <trkpt lat="35.423475" lon="127.445088">
        <ele>133.8</ele>
      </trkpt>
      <trkpt lat="35.423553" lon="127.444633">
        <ele>133.3</ele>
      </trkpt>
      <trkpt lat="35.424067" lon="127.442828">
        <ele>132.7</ele>
      </trkpt>
      <trkpt lat="35.424564" lon="127.441082">
        <ele>132.2</ele>
      </trkpt>
      <trkpt lat="35.424703" lon="127.440594">
        <ele>131.6</ele>
      </trkpt>
      <trkpt lat="35.42511" lon="127.43916">
        <ele>131.0</ele>
      </trkpt>
      <trkpt lat="35.425385" lon="127.438267">
        <ele>130.5</ele>
      </trkpt>
      <trkpt lat="35.425636" lon="127.437448">
        <ele>130.0</ele>
      </trkpt>
      <trkpt lat="35.425773" lon="127.437">
        <ele>129.4</ele>
      </trkpt>
      <trkpt lat="35.42574218197902" lon="127.43698596954347">
        <ele>128.9</ele>
      </trkpt>
      <trkpt lat="35.425773" lon="127.437">
        <ele>128.4</ele>
      </trkpt>
      <trkpt lat="35.425888" lon="127.436627">
        <ele>127.9</ele>
      </trkpt>
      <trkpt lat="35.426293" lon="127.435272">
        <ele>127.4</ele>
      </trkpt>
      <trkpt lat="35.426705" lon="127.433938">
        <ele>126.9</ele>
      </trkpt>
      <trkpt lat="35.427182" lon="127.432336">
        <ele>126.4</ele>
      </trkpt>
      <trkpt lat="35.4271672097969" lon="127.43232965469362">
        <ele>125.9</ele>
      </trkpt>
      <trkpt lat="35.427182" lon="127.432336">
        <ele>125.5</ele>
      </trkpt>
      <trkpt lat="35.4277" lon="127.430601">
        <ele>125.0</ele>
      </trkpt>
      <trkpt lat="35.427788" lon="127.430306">
        <ele>124.6</ele>
      </trkpt>
      <trkpt lat="35.427855" lon="127.429988">
        <ele>124.2</ele>
      </trkpt>
      <trkpt lat="35.427935" lon="127.429564">
        <ele>123.8</ele>
      </trkpt>
      <trkpt lat="35.427974" lon="127.429017">
        <ele>123.4</ele>
      </trkpt>
      <trkpt lat="35.427969" lon="127.42868">
        <ele>123.0</ele>
      </trkpt>
      <trkpt lat="35.42795402416869" lon="127.42868185043336">
        <ele>122.7</ele>
      </trkpt>
      <trkpt lat="35.427969" lon="127.42868">
        <ele>122.3</ele>
      </trkpt>
      <trkpt lat="35.427966" lon="127.428383">
        <ele>122.0</ele>
      </trkpt>
      <trkpt lat="35.427883" lon="127.427779">
        <ele>121.6</ele>
      </trkpt>
      <trkpt lat="35.427854" lon="127.427623">
        <ele>121.3</ele>
      </trkpt>
      <trkpt lat="35.427819" lon="127.427434">
        <ele>121.0</ele>
      </trkpt>
      <trkpt lat="35.427612" lon="127.426704">
        <ele>120.6</ele>
      </trkpt>
      <trkpt lat="35.427447" lon="127.426297">
        <ele>120.3</ele>
      </trkpt>
      <trkpt lat="35.427226" lon="127.42575">
        <ele>120.0</ele>
      </trkpt>
      <trkpt lat="35.42678" lon="127.424648">
        <ele>119.7</ele>
      </trkpt>
      <trkpt lat="35.42676505726079" lon="127.42465853691102">
        <ele>119.4</ele>
      </trkpt>
      <trkpt lat="35.42678" lon="127.424648">
        <ele>119.1</ele>
      </trkpt>
      <trkpt lat="35.426776" lon="127.424638">
        <ele>118.8</ele>
      </trkpt>
      <trkpt lat="35.426487" lon="127.423924">
        <ele>118.5</ele>
      </trkpt>
      <trkpt lat="35.425415" lon="127.421274">
        <ele>118.2</ele>
      </trkpt>
      <trkpt lat="35.425072" lon="127.420373">
        <ele>117.9</ele>
      </trkpt>
      <trkpt lat="35.424694" lon="127.419211">
        <ele>117.6</ele>
      </trkpt>
      <trkpt lat="35.424558" lon="127.418792">
        <ele>117.4</ele>
      </trkpt>
      <trkpt lat="35.42429" lon="127.417929">
        <ele>117.1</ele>
      </trkpt>
      <trkpt lat="35.424161" lon="127.417614">
        <ele>116.8</ele>
      </trkpt>
      <trkpt lat="35.424061" lon="127.417368">
        <ele>116.6</ele>
      </trkpt>
      <trkpt lat="35.423764" lon="127.416803">
        <ele>116.4</ele>
      </trkpt>
      <trkpt lat="35.423685" lon="127.416788">
        <ele>116.2</ele>
      </trkpt>
      <trkpt lat="35.423654" lon="127.416816">
        <ele>116.0</ele>
      </trkpt>
      <trkpt lat="35.423629" lon="127.416905">
        <ele>115.7</ele>
      </trkpt>
      <trkpt lat="35.424042" lon="127.417967">
        <ele>115.5</ele>
      </trkpt>
      <trkpt lat="35.424899" lon="127.419971">
        <ele>115.4</ele>
      </trkpt>
      <trkpt lat="35.4249028899947" lon="127.41997003555299">
        <ele>115.2</ele>
      </trkpt>
      <trkpt lat="35.424899" lon="127.419971">
        <ele>115.0</ele>
      </trkpt>
      <trkpt lat="35.425072" lon="127.420373">
        <ele>114.8</ele>
      </trkpt>
      <trkpt lat="35.424694" lon="127.419211">
        <ele>114.6</ele>
      </trkpt>
      <trkpt lat="35.424558" lon="127.418792">
        <ele>114.5</ele>
      </trkpt>
      <trkpt lat="35.42429" lon="127.417929">
        <ele>114.3</ele>
      </trkpt>
      <trkpt lat="35.424161" lon="127.417614">
        <ele>114.2</ele>
      </trkpt>
      <trkpt lat="35.424061" lon="127.417368">
        <ele>114.0</ele>
      </trkpt>
      <trkpt lat="35.423764" lon="127.416803">
        <ele>113.9</ele>
      </trkpt>
      <trkpt lat="35.423591" lon="127.416473">
        <ele>113.8</ele>
      </trkpt>
      <trkpt lat="35.423197" lon="127.415768">
        <ele>113.7</ele>
      </trkpt>
      <trkpt lat="35.423171" lon="127.415709">
        <ele>113.6</ele>
      </trkpt>
      <trkpt lat="35.423154336939504" lon="127.4157214164734">
        <ele>113.5</ele>
      </trkpt>
      <trkpt lat="35.423171" lon="127.415709">
        <ele>113.5</ele>
      </trkpt>
      <trkpt lat="35.422604" lon="127.41437">
        <ele>113.4</ele>
      </trkpt>
      <trkpt lat="35.422538" lon="127.414172">
        <ele>113.4</ele>
      </trkpt>
      <trkpt lat="35.422481" lon="127.413922">
        <ele>113.3</ele>
      </trkpt>
      <trkpt lat="35.422452" lon="127.413621">
        <ele>113.3</ele>
      </trkpt>
      <trkpt lat="35.422464" lon="127.413401">
        <ele>113.3</ele>
      </trkpt>
      <trkpt lat="35.422485" lon="127.413266">
        <ele>113.3</ele>
      </trkpt>
      <trkpt lat="35.422554" lon="127.413062">
        <ele>113.3</ele>
      </trkpt>
      <trkpt lat="35.42304" lon="127.411719">
        <ele>113.3</ele>
      </trkpt>
      <trkpt lat="35.423081" lon="127.411604">
        <ele>113.4</ele>
      </trkpt>
      <trkpt lat="35.423136" lon="127.411449">
        <ele>113.5</ele>
      </trkpt>
      <trkpt lat="35.423180565515715" lon="127.41147279739381">
        <ele>113.5</ele>
      </trkpt>
      <trkpt lat="35.423136" lon="127.411449">
        <ele>113.6</ele>
      </trkpt>
      <trkpt lat="35.423312" lon="127.410965">
        <ele>113.7</ele>
      </trkpt>
      <trkpt lat="35.423624" lon="127.410104">
        <ele>113.9</ele>
      </trkpt>
      <trkpt lat="35.423717" lon="127.409848">
        <ele>114.0</ele>
      </trkpt>
      <trkpt lat="35.423787" lon="127.409657">
        <ele>114.2</ele>
      </trkpt>
      <trkpt lat="35.423849" lon="127.409489">
        <ele>114.3</ele>
      </trkpt>
      <trkpt lat="35.423909" lon="127.409324">
        <ele>114.5</ele>
      </trkpt>
      <trkpt lat="35.423947" lon="127.40934">
        <ele>114.7</ele>
      </trkpt>
      <trkpt lat="35.423987" lon="127.40934">
        <ele>114.9</ele>
      </trkpt>
      <trkpt lat="35.424025" lon="127.409324">
        <ele>115.2</ele>
      </trkpt>
      <trkpt lat="35.424057" lon="127.409293">
        <ele>115.4</ele>
      </trkpt>
      <trkpt lat="35.424067" lon="127.409273">
        <ele>115.7</ele>
      </trkpt>
      <trkpt lat="35.424186" lon="127.409359">
        <ele>115.9</ele>
      </trkpt>
      <trkpt lat="35.424266" lon="127.409417">
        <ele>116.2</ele>
      </trkpt>
      <trkpt lat="35.425057" lon="127.409988">
        <ele>116.5</ele>
      </trkpt>
      <trkpt lat="35.42507774321261" lon="127.40994930267335">
        <ele>116.8</ele>
      </trkpt>
      <trkpt lat="35.425057" lon="127.409988">
        <ele>117.1</ele>
      </trkpt>
      <trkpt lat="35.42539" lon="127.410228">
        <ele>117.5</ele>
      </trkpt>
      <trkpt lat="35.425795" lon="127.410516">
        <ele>117.8</ele>
      </trkpt>
      <trkpt lat="35.427336" lon="127.411644">
        <ele>118.2</ele>
      </trkpt>
      <trkpt lat="35.427607" lon="127.411819">
        <ele>118.5</ele>
      </trkpt>
      <trkpt lat="35.427843" lon="127.411935">
        <ele>118.9</ele>
      </trkpt>
      <trkpt lat="35.42807" lon="127.412004">
        <ele>119.3</ele>
      </trkpt>
      <trkpt lat="35.42812" lon="127.412012">
        <ele>119.6</ele>
      </trkpt>
      <trkpt lat="35.428297" lon="127.412039">
        <ele>120.0</ele>
      </trkpt>
      <trkpt lat="35.429974" lon="127.412203">
        <ele>120.4</ele>
      </trkpt>
      <trkpt lat="35.431357" lon="127.412349">
        <ele>120.7</ele>
      </trkpt>
      <trkpt lat="35.431354722320606" lon="127.41239547729494">
        <ele>121.1</ele>
      </trkpt>
      <trkpt lat="35.431357" lon="127.412349">
        <ele>121.5</ele>
      </trkpt>
      <trkpt lat="35.431696" lon="127.412385">
        <ele>121.8</ele>
      </trkpt>
      <trkpt lat="35.432005" lon="127.412418">
        <ele>122.1</ele>
      </trkpt>
      <trkpt lat="35.432194" lon="127.412427">
        <ele>122.5</ele>
      </trkpt>
      <trkpt lat="35.43227" lon="127.412422">
        <ele>122.8</ele>
      </trkpt>
      <trkpt lat="35.432403" lon="127.412392">
        <ele>123.1</ele>
      </trkpt>
      <trkpt lat="35.432313" lon="127.412153">
        <ele>123.4</ele>
      </trkpt>
      <trkpt lat="35.432223" lon="127.411884">
        <ele>123.6</ele>
      </trkpt>
      <trkpt lat="35.431619" lon="127.410115">
        <ele>123.9</ele>
      </trkpt>
      <trkpt lat="35.431607" lon="127.410073">
        <ele>124.2</ele>
      </trkpt>
      <trkpt lat="35.431606053567485" lon="127.41007536649707">
        <ele>124.4</ele>
      </trkpt>
      <trkpt lat="35.431607" lon="127.410073">
        <ele>124.6</ele>
      </trkpt>
      <trkpt lat="35.431477" lon="127.409629">
        <ele>124.8</ele>
      </trkpt>
      <trkpt lat="35.43141" lon="127.409432">
        <ele>125.0</ele>
      </trkpt>
      <trkpt lat="35.431389" lon="127.409377">
        <ele>125.2</ele>
      </trkpt>
      <trkpt lat="35.43138531920997" lon="127.4093806743622">
        <ele>125.3</ele>
      </trkpt>
      <trkpt lat="35.431389" lon="127.409377">
        <ele>125.5</ele>
      </trkpt>
      <trkpt lat="35.431284" lon="127.409103">
        <ele>125.6</ele>
      </trkpt>
      <trkpt lat="35.431231" lon="127.408945">
        <ele>125.8</ele>
      </trkpt>
      <trkpt lat="35.431075" lon="127.408609">
        <ele>125.9</ele>
      </trkpt>
      <trkpt lat="35.431012" lon="127.408475">
        <ele>126.0</ele>
      </trkpt>
      <trkpt lat="35.430946" lon="127.408356">
        <ele>126.0</ele>
      </trkpt>
      <trkpt lat="35.430851" lon="127.408219">
        <ele>126.1</ele>
      </trkpt>
      <trkpt lat="35.430735" lon="127.408074">
        <ele>126.1</ele>
      </trkpt>
      <trkpt lat="35.430692" lon="127.40803">
        <ele>126.2</ele>
      </trkpt>
      <trkpt lat="35.43068377332379" lon="127.40804493427278">
        <ele>126.2</ele>
      </trkpt>
      <trkpt lat="35.430692" lon="127.40803">
        <ele>126.2</ele>
      </trkpt>
      <trkpt lat="35.430209" lon="127.407545">
        <ele>126.2</ele>
      </trkpt>
      <trkpt lat="35.430054" lon="127.407318">
        <ele>126.2</ele>
      </trkpt>
      <trkpt lat="35.429937" lon="127.407158">
        <ele>126.2</ele>
      </trkpt>
      <trkpt lat="35.429932" lon="127.407182">
        <ele>126.1</ele>
      </trkpt>
      <trkpt lat="35.429908" lon="127.407229">
        <ele>126.1</ele>
      </trkpt>
      <trkpt lat="35.429869" lon="127.407267">
        <ele>126.1</ele>
      </trkpt>
      <trkpt lat="35.429823" lon="127.407287">
        <ele>126.1</ele>
      </trkpt>
      <trkpt lat="35.429773" lon="127.407287">
        <ele>126.0</ele>
      </trkpt>
      <trkpt lat="35.42975" lon="127.407276">
        <ele>126.0</ele>
      </trkpt>
      <trkpt lat="35.429726" lon="127.407265">
        <ele>126.0</ele>
      </trkpt>
      <trkpt lat="35.429689" lon="127.407226">
        <ele>126.0</ele>
      </trkpt>
      <trkpt lat="35.429664" lon="127.407173">
        <ele>125.9</ele>
      </trkpt>
      <trkpt lat="35.429659" lon="127.40714">
        <ele>125.9</ele>
      </trkpt>
      <trkpt lat="35.429655" lon="127.407113">
        <ele>125.9</ele>
      </trkpt>
      <trkpt lat="35.429664" lon="127.407053">
        <ele>125.9</ele>
      </trkpt>
      <trkpt lat="35.429688" lon="127.407">
        <ele>125.9</ele>
      </trkpt>
      <trkpt lat="35.429722" lon="127.406963">
        <ele>125.9</ele>
      </trkpt>
      <trkpt lat="35.429764" lon="127.406941">
        <ele>125.9</ele>
      </trkpt>
      <trkpt lat="35.42981" lon="127.406936">
        <ele>125.9</ele>
      </trkpt>
      <trkpt lat="35.429854" lon="127.406949">
        <ele>125.9</ele>
      </trkpt>
      <trkpt lat="35.429893" lon="127.406978">
        <ele>125.9</ele>
      </trkpt>
      <trkpt lat="35.429922" lon="127.40702">
        <ele>125.9</ele>
      </trkpt>
      <trkpt lat="35.42992758306351" lon="127.40703374147418">
        <ele>125.9</ele>
      </trkpt>
      <trkpt lat="35.429926" lon="127.407034">
        <ele>126.0</ele>
      </trkpt>
      <trkpt lat="35.42994" lon="127.407072">
        <ele>126.0</ele>
      </trkpt>
      <trkpt lat="35.429943" lon="127.407127">
        <ele>126.0</ele>
      </trkpt>
      <trkpt lat="35.429937" lon="127.407158">
        <ele>126.0</ele>
      </trkpt>
      <trkpt lat="35.429932" lon="127.407182">
        <ele>126.1</ele>
      </trkpt>
      <trkpt lat="35.429908" lon="127.407229">
        <ele>126.1</ele>
      </trkpt>
      <trkpt lat="35.429869" lon="127.407267">
        <ele>126.2</ele>
      </trkpt>
      <trkpt lat="35.429823" lon="127.407287">
        <ele>126.2</ele>
      </trkpt>
      <trkpt lat="35.429773" lon="127.407287">
        <ele>126.3</ele>
      </trkpt>
      <trkpt lat="35.42975" lon="127.407276">
        <ele>126.3</ele>
      </trkpt>
      <trkpt lat="35.429726" lon="127.407265">
        <ele>126.4</ele>
      </trkpt>
      <trkpt lat="35.429689" lon="127.407226">
        <ele>126.5</ele>
      </trkpt>
      <trkpt lat="35.429664" lon="127.407173">
        <ele>126.5</ele>
      </trkpt>
      <trkpt lat="35.429659" lon="127.40714">
        <ele>126.6</ele>
      </trkpt>
      <trkpt lat="35.429655" lon="127.407113">
        <ele>126.7</ele>
      </trkpt>
      <trkpt lat="35.429664" lon="127.407053">
        <ele>126.7</ele>
      </trkpt>
      <trkpt lat="35.429688" lon="127.407">
        <ele>126.8</ele>
      </trkpt>
      <trkpt lat="35.429441" lon="127.406758">
        <ele>126.9</ele>
      </trkpt>
      <trkpt lat="35.429163" lon="127.406462">
        <ele>127.0</ele>
      </trkpt>
      <trkpt lat="35.428942" lon="127.40619">
        <ele>127.0</ele>
      </trkpt>
      <trkpt lat="35.428822" lon="127.406004">
        <ele>127.1</ele>
      </trkpt>
      <trkpt lat="35.42881295441555" lon="127.40601450204852">
        <ele>127.1</ele>
      </trkpt>
      <trkpt lat="35.428822" lon="127.406004">
        <ele>127.1</ele>
      </trkpt>
      <trkpt lat="35.428634" lon="127.405709">
        <ele>127.1</ele>
      </trkpt>
      <trkpt lat="35.428361" lon="127.40515">
        <ele>127.2</ele>
      </trkpt>
      <trkpt lat="35.428367" lon="127.405143">
        <ele>127.2</ele>
      </trkpt>
      <trkpt lat="35.428364913063284" lon="127.40514010190967">
        <ele>127.2</ele>
      </trkpt>
      <trkpt lat="35.428367" lon="127.405143">
        <ele>127.3</ele>
      </trkpt>
      <trkpt lat="35.428647" lon="127.404883">
        <ele>127.3</ele>
      </trkpt>
      <trkpt lat="35.428763" lon="127.404728">
        <ele>127.3</ele>
      </trkpt>
      <trkpt lat="35.428982" lon="127.404437">
        <ele>127.4</ele>
      </trkpt>
      <trkpt lat="35.429021" lon="127.404384">
        <ele>127.4</ele>
      </trkpt>
      <trkpt lat="35.42902058248971" lon="127.40438371896745">
        <ele>127.5</ele>
      </trkpt>
      <trkpt lat="35.4298161208929" lon="127.4054914712906">
        <ele>127.5</ele>
      </trkpt>
      <trkpt lat="35.43027945282513" lon="127.40554779767993">
        <ele>127.5</ele>
      </trkpt>
    </trkseg>
  </trk>
</gpx>