<?xml version="1.0" encoding="UTF-8"?>
 <gpx creator="Garmin Connect" version="1.1"
	 xsi:schemaLocation="http://www.topografix.com/GPX/1/1 http://www.topografix.com/GPX/11.xsd"
	 xmlns:ns3="http://www.garmin.com/xmlschemas/TrackPointExtension/v1"
	 xmlns="http://www.topografix.com/GPX/1/1"
	 xmlns:xsi="http://www.w3.org/2001/XMLSchema-instance" xmlns:ns2="http://www.garmin.com/xmlschemas/GpxExtensions/v3">
	 <metadata>
		<name>TCS New York City Marathon 2025 - 42.195 km</name>
		 <link href="https://www.goandrace.com">
		 <text>Garmin Connect</text>
		 </link>
	 <time>2026-05-08T00:07:29</time>
	 </metadata>
	 <trk>
		 <name>TCS New York City Marathon 2025 - 42.195 km</name>
		 <trkseg>
			 <trkpt lat="40.601905" lon="-74.059344">
				 <ele>48.3</ele>
			 </trkpt>
			 <trkpt lat="40.602068" lon="-74.058683">
				 <ele>48.7</ele>
			 </trkpt>
			 <trkpt lat="40.602232" lon="-74.058022">
				 <ele>49.1</ele>
			 </trkpt>
			 <trkpt lat="40.602602" lon="-74.056901">
				 <ele>49.6</ele>
			 </trkpt>
			 <trkpt lat="40.602973" lon="-74.05578">
				 <ele>50</ele>
			 </trkpt>
			 <trkpt lat="40.603291" lon="-74.054788">
				 <ele>50.5</ele>
			 </trkpt>
			 <trkpt lat="40.603608" lon="-74.053795">
				 <ele>51.3</ele>
			 </trkpt>
			 <trkpt lat="40.603759" lon="-74.053318">
				 <ele>52</ele>
			 </trkpt>
			 <trkpt lat="40.60391" lon="-74.05284">
				 <ele>52.6</ele>
			 </trkpt>
			 <trkpt lat="40.604036" lon="-74.052449">
				 <ele>53.2</ele>
			 </trkpt>
			 <trkpt lat="40.604162" lon="-74.052057">
				 <ele>53.6</ele>
			 </trkpt>
			 <trkpt lat="40.604544" lon="-74.050891">
				 <ele>54.1</ele>
			 </trkpt>
			 <trkpt lat="40.604926" lon="-74.049724">
				 <ele>54.5</ele>
			 </trkpt>
			 <trkpt lat="40.605309" lon="-74.048558">
				 <ele>54.7</ele>
			 </trkpt>
			 <trkpt lat="40.605343" lon="-74.048452">
				 <ele>54.9</ele>
			 </trkpt>
			 <trkpt lat="40.605725" lon="-74.047286">
				 <ele>54.8</ele>
			 </trkpt>
			 <trkpt lat="40.606107" lon="-74.046119">
				 <ele>54.4</ele>
			 </trkpt>
			 <trkpt lat="40.606489" lon="-74.044953">
				 <ele>53.6</ele>
			 </trkpt>
			 <trkpt lat="40.606826" lon="-74.043925">
				 <ele>52.6</ele>
			 </trkpt>
			 <trkpt lat="40.607203" lon="-74.042756">
				 <ele>51.4</ele>
			 </trkpt>
			 <trkpt lat="40.60758" lon="-74.041586">
				 <ele>49.8</ele>
			 </trkpt>
			 <trkpt lat="40.607819" lon="-74.040846">
				 <ele>47.9</ele>
			 </trkpt>
			 <trkpt lat="40.608129" lon="-74.039901">
				 <ele>45.7</ele>
			 </trkpt>
			 <trkpt lat="40.608438" lon="-74.038957">
				 <ele>43.3</ele>
			 </trkpt>
			 <trkpt lat="40.608819" lon="-74.03779">
				 <ele>40.5</ele>
			 </trkpt>
			 <trkpt lat="40.6092" lon="-74.036623">
				 <ele>37.5</ele>
			 </trkpt>
			 <trkpt lat="40.609514" lon="-74.035664">
				 <ele>34.5</ele>
			 </trkpt>
			 <trkpt lat="40.609889" lon="-74.034493">
				 <ele>31.8</ele>
			 </trkpt>
			 <trkpt lat="40.610264" lon="-74.033323">
				 <ele>29.4</ele>
			 </trkpt>
			 <trkpt lat="40.610312" lon="-74.033175">
				 <ele>27.2</ele>
			 </trkpt>
			 <trkpt lat="40.610499" lon="-74.032542">
				 <ele>25.3</ele>
			 </trkpt>
			 <trkpt lat="40.610686" lon="-74.031909">
				 <ele>23.6</ele>
			 </trkpt>
			 <trkpt lat="40.610809" lon="-74.031501">
				 <ele>22.5</ele>
			 </trkpt>
			 <trkpt lat="40.610931" lon="-74.031093">
				 <ele>21.5</ele>
			 </trkpt>
			 <trkpt lat="40.611057" lon="-74.030793">
				 <ele>20.9</ele>
			 </trkpt>
			 <trkpt lat="40.611183" lon="-74.030492">
				 <ele>20.5</ele>
			 </trkpt>
			 <trkpt lat="40.611461" lon="-74.03007">
				 <ele>20.5</ele>
			 </trkpt>
			 <trkpt lat="40.611739" lon="-74.029648">
				 <ele>20.6</ele>
			 </trkpt>
			 <trkpt lat="40.612023" lon="-74.029389">
				 <ele>20.8</ele>
			 </trkpt>
			 <trkpt lat="40.612307" lon="-74.02913">
				 <ele>21</ele>
			 </trkpt>
			 <trkpt lat="40.612539" lon="-74.028958">
				 <ele>21.3</ele>
			 </trkpt>
			 <trkpt lat="40.612771" lon="-74.028786">
				 <ele>21.5</ele>
			 </trkpt>
			 <trkpt lat="40.613024" lon="-74.028625">
				 <ele>21.8</ele>
			 </trkpt>
			 <trkpt lat="40.613276" lon="-74.028465">
				 <ele>22</ele>
			 </trkpt>
			 <trkpt lat="40.613464" lon="-74.02833">
				 <ele>22.2</ele>
			 </trkpt>
			 <trkpt lat="40.613651" lon="-74.028196">
				 <ele>22.5</ele>
			 </trkpt>
			 <trkpt lat="40.613928" lon="-74.027982">
				 <ele>22.7</ele>
			 </trkpt>
			 <trkpt lat="40.614205" lon="-74.027767">
				 <ele>23</ele>
			 </trkpt>
			 <trkpt lat="40.614413" lon="-74.027563">
				 <ele>23.3</ele>
			 </trkpt>
			 <trkpt lat="40.61462" lon="-74.027359">
				 <ele>23.5</ele>
			 </trkpt>
			 <trkpt lat="40.614779" lon="-74.027145">
				 <ele>23.6</ele>
			 </trkpt>
			 <trkpt lat="40.614938" lon="-74.02693">
				 <ele>23.7</ele>
			 </trkpt>
			 <trkpt lat="40.615097" lon="-74.026694">
				 <ele>23.8</ele>
			 </trkpt>
			 <trkpt lat="40.615256" lon="-74.026458">
				 <ele>23.8</ele>
			 </trkpt>
			 <trkpt lat="40.615308" lon="-74.026319">
				 <ele>23.8</ele>
			 </trkpt>
			 <trkpt lat="40.615361" lon="-74.026179">
				 <ele>23.8</ele>
			 </trkpt>
			 <trkpt lat="40.615721" lon="-74.02597">
				 <ele>23.7</ele>
			 </trkpt>
			 <trkpt lat="40.61608" lon="-74.02576">
				 <ele>23.6</ele>
			 </trkpt>
			 <trkpt lat="40.61654" lon="-74.02668">
				 <ele>23.5</ele>
			 </trkpt>
			 <trkpt lat="40.61667" lon="-74.02695">
				 <ele>23.2</ele>
			 </trkpt>
			 <trkpt lat="40.61697" lon="-74.02749">
				 <ele>23</ele>
			 </trkpt>
			 <trkpt lat="40.61706" lon="-74.02761">
				 <ele>22.8</ele>
			 </trkpt>
			 <trkpt lat="40.61722" lon="-74.02793">
				 <ele>22.6</ele>
			 </trkpt>
			 <trkpt lat="40.61736" lon="-74.0282">
				 <ele>22.5</ele>
			 </trkpt>
			 <trkpt lat="40.61791" lon="-74.02931">
				 <ele>22.5</ele>
			 </trkpt>
			 <trkpt lat="40.61821" lon="-74.0299">
				 <ele>22.5</ele>
			 </trkpt>
			 <trkpt lat="40.61834" lon="-74.03019">
				 <ele>22.5</ele>
			 </trkpt>
			 <trkpt lat="40.61872" lon="-74.03003">
				 <ele>22.5</ele>
			 </trkpt>
			 <trkpt lat="40.61891" lon="-74.02995">
				 <ele>22.5</ele>
			 </trkpt>
			 <trkpt lat="40.62053" lon="-74.02929">
				 <ele>22.6</ele>
			 </trkpt>
			 <trkpt lat="40.62209" lon="-74.02865">
				 <ele>22.6</ele>
			 </trkpt>
			 <trkpt lat="40.62543" lon="-74.02729">
				 <ele>22.6</ele>
			 </trkpt>
			 <trkpt lat="40.63242" lon="-74.02442">
				 <ele>22.5</ele>
			 </trkpt>
			 <trkpt lat="40.63373" lon="-74.02388">
				 <ele>22.5</ele>
			 </trkpt>
			 <trkpt lat="40.63598" lon="-74.02297">
				 <ele>22.2</ele>
			 </trkpt>
			 <trkpt lat="40.63658" lon="-74.02274">
				 <ele>21.9</ele>
			 </trkpt>
			 <trkpt lat="40.63682" lon="-74.02263">
				 <ele>21.6</ele>
			 </trkpt>
			 <trkpt lat="40.63696" lon="-74.02248">
				 <ele>21.4</ele>
			 </trkpt>
			 <trkpt lat="40.63722" lon="-74.02221">
				 <ele>21.1</ele>
			 </trkpt>
			 <trkpt lat="40.63738" lon="-74.02205">
				 <ele>20.9</ele>
			 </trkpt>
			 <trkpt lat="40.63775" lon="-74.02166">
				 <ele>20.7</ele>
			 </trkpt>
			 <trkpt lat="40.63781" lon="-74.02159">
				 <ele>20.7</ele>
			 </trkpt>
			 <trkpt lat="40.63789" lon="-74.02144">
				 <ele>20.8</ele>
			 </trkpt>
			 <trkpt lat="40.63799" lon="-74.02132">
				 <ele>21</ele>
			 </trkpt>
			 <trkpt lat="40.63813" lon="-74.02119">
				 <ele>21.2</ele>
			 </trkpt>
			 <trkpt lat="40.63823" lon="-74.02104">
				 <ele>21.5</ele>
			 </trkpt>
			 <trkpt lat="40.63881" lon="-74.02045">
				 <ele>21.6</ele>
			 </trkpt>
			 <trkpt lat="40.63952" lon="-74.0197">
				 <ele>21.8</ele>
			 </trkpt>
			 <trkpt lat="40.64082" lon="-74.01837">
				 <ele>21.8</ele>
			 </trkpt>
			 <trkpt lat="40.64251" lon="-74.01661">
				 <ele>21.7</ele>
			 </trkpt>
			 <trkpt lat="40.64575" lon="-74.01323">
				 <ele>21.4</ele>
			 </trkpt>
			 <trkpt lat="40.64796" lon="-74.01094">
				 <ele>20.8</ele>
			 </trkpt>
			 <trkpt lat="40.64904" lon="-74.00981">
				 <ele>20.1</ele>
			 </trkpt>
			 <trkpt lat="40.65019" lon="-74.00861">
				 <ele>19.1</ele>
			 </trkpt>
			 <trkpt lat="40.65044" lon="-74.00836">
				 <ele>18</ele>
			 </trkpt>
			 <trkpt lat="40.65092" lon="-74.00787">
				 <ele>16.8</ele>
			 </trkpt>
			 <trkpt lat="40.65148" lon="-74.00728">
				 <ele>15.5</ele>
			 </trkpt>
			 <trkpt lat="40.65243" lon="-74.00628">
				 <ele>14.4</ele>
			 </trkpt>
			 <trkpt lat="40.65331" lon="-74.00536">
				 <ele>13.2</ele>
			 </trkpt>
			 <trkpt lat="40.65435" lon="-74.00427">
				 <ele>12.2</ele>
			 </trkpt>
			 <trkpt lat="40.655" lon="-74.00361">
				 <ele>11.4</ele>
			 </trkpt>
			 <trkpt lat="40.65541" lon="-74.00321">
				 <ele>10.8</ele>
			 </trkpt>
			 <trkpt lat="40.65652" lon="-74.00202">
				 <ele>10.5</ele>
			 </trkpt>
			 <trkpt lat="40.65729" lon="-74.00121">
				 <ele>10.3</ele>
			 </trkpt>
			 <trkpt lat="40.65834" lon="-74.00013">
				 <ele>10.4</ele>
			 </trkpt>
			 <trkpt lat="40.65932" lon="-73.99912">
				 <ele>10.5</ele>
			 </trkpt>
			 <trkpt lat="40.66043" lon="-73.99795">
				 <ele>10.9</ele>
			 </trkpt>
			 <trkpt lat="40.66194" lon="-73.99639">
				 <ele>11.4</ele>
			 </trkpt>
			 <trkpt lat="40.66445" lon="-73.9938">
				 <ele>11.8</ele>
			 </trkpt>
			 <trkpt lat="40.66458" lon="-73.99365">
				 <ele>12.2</ele>
			 </trkpt>
			 <trkpt lat="40.66559" lon="-73.99263">
				 <ele>12.5</ele>
			 </trkpt>
			 <trkpt lat="40.66611" lon="-73.99216">
				 <ele>12.6</ele>
			 </trkpt>
			 <trkpt lat="40.6668" lon="-73.99159">
				 <ele>12.6</ele>
			 </trkpt>
			 <trkpt lat="40.66732" lon="-73.99117">
				 <ele>12.5</ele>
			 </trkpt>
			 <trkpt lat="40.66792" lon="-73.99067">
				 <ele>12.4</ele>
			 </trkpt>
			 <trkpt lat="40.66897" lon="-73.98979">
				 <ele>12</ele>
			 </trkpt>
			 <trkpt lat="40.66937" lon="-73.98945">
				 <ele>11.6</ele>
			 </trkpt>
			 <trkpt lat="40.6703" lon="-73.98869">
				 <ele>11.2</ele>
			 </trkpt>
			 <trkpt lat="40.67153" lon="-73.98766">
				 <ele>10.7</ele>
			 </trkpt>
			 <trkpt lat="40.67374" lon="-73.98581">
				 <ele>10.3</ele>
			 </trkpt>
			 <trkpt lat="40.67434" lon="-73.98534">
				 <ele>10</ele>
			 </trkpt>
			 <trkpt lat="40.67494" lon="-73.98481">
				 <ele>9.8</ele>
			 </trkpt>
			 <trkpt lat="40.67573" lon="-73.98414">
				 <ele>9.7</ele>
			 </trkpt>
			 <trkpt lat="40.67609" lon="-73.98385">
				 <ele>9.7</ele>
			 </trkpt>
			 <trkpt lat="40.67676" lon="-73.9834">
				 <ele>9.9</ele>
			 </trkpt>
			 <trkpt lat="40.67787" lon="-73.98265">
				 <ele>10.1</ele>
			 </trkpt>
			 <trkpt lat="40.67897" lon="-73.9819">
				 <ele>10.5</ele>
			 </trkpt>
			 <trkpt lat="40.684863" lon="-73.978089">
				 <ele>11</ele>
			 </trkpt>
			 <trkpt lat="40.685604" lon="-73.978555">
				 <ele>11.6</ele>
			 </trkpt>
			 <trkpt lat="40.686691" lon="-73.979274">
				 <ele>12.4</ele>
			 </trkpt>
			 <trkpt lat="40.68672" lon="-73.97928">
				 <ele>13.3</ele>
			 </trkpt>
			 <trkpt lat="40.68682" lon="-73.97822">
				 <ele>14.2</ele>
			 </trkpt>
			 <trkpt lat="40.68694" lon="-73.97716">
				 <ele>15.2</ele>
			 </trkpt>
			 <trkpt lat="40.68699" lon="-73.97664">
				 <ele>16.2</ele>
			 </trkpt>
			 <trkpt lat="40.68706" lon="-73.97627">
				 <ele>17.2</ele>
			 </trkpt>
			 <trkpt lat="40.6871" lon="-73.97556">
				 <ele>18.1</ele>
			 </trkpt>
			 <trkpt lat="40.68725" lon="-73.97424">
				 <ele>19</ele>
			 </trkpt>
			 <trkpt lat="40.68753" lon="-73.97184">
				 <ele>19.7</ele>
			 </trkpt>
			 <trkpt lat="40.68755" lon="-73.97156">
				 <ele>20.2</ele>
			 </trkpt>
			 <trkpt lat="40.68762" lon="-73.971">
				 <ele>20.4</ele>
			 </trkpt>
			 <trkpt lat="40.68777" lon="-73.96962">
				 <ele>20.3</ele>
			 </trkpt>
			 <trkpt lat="40.68787" lon="-73.96879">
				 <ele>19.8</ele>
			 </trkpt>
			 <trkpt lat="40.68841" lon="-73.96419">
				 <ele>19.1</ele>
			 </trkpt>
			 <trkpt lat="40.68866" lon="-73.96196">
				 <ele>18.1</ele>
			 </trkpt>
			 <trkpt lat="40.6891" lon="-73.95815">
				 <ele>16.9</ele>
			 </trkpt>
			 <trkpt lat="40.68945" lon="-73.95512">
				 <ele>15.6</ele>
			 </trkpt>
			 <trkpt lat="40.69034" lon="-73.9553">
				 <ele>14.3</ele>
			 </trkpt>
			 <trkpt lat="40.69451" lon="-73.95613">
				 <ele>12.8</ele>
			 </trkpt>
			 <trkpt lat="40.69661" lon="-73.95655">
				 <ele>11.5</ele>
			 </trkpt>
			 <trkpt lat="40.69849" lon="-73.9569">
				 <ele>10.3</ele>
			 </trkpt>
			 <trkpt lat="40.699" lon="-73.957">
				 <ele>9.4</ele>
			 </trkpt>
			 <trkpt lat="40.69972" lon="-73.95718">
				 <ele>8.7</ele>
			 </trkpt>
			 <trkpt lat="40.70003" lon="-73.95722">
				 <ele>8.4</ele>
			 </trkpt>
			 <trkpt lat="40.70067" lon="-73.95736">
				 <ele>8.3</ele>
			 </trkpt>
			 <trkpt lat="40.70083" lon="-73.95743">
				 <ele>8.4</ele>
			 </trkpt>
			 <trkpt lat="40.70145" lon="-73.95814">
				 <ele>8.6</ele>
			 </trkpt>
			 <trkpt lat="40.70297" lon="-73.95982">
				 <ele>9.1</ele>
			 </trkpt>
			 <trkpt lat="40.70329" lon="-73.96017">
				 <ele>9.6</ele>
			 </trkpt>
			 <trkpt lat="40.70366" lon="-73.96059">
				 <ele>10.3</ele>
			 </trkpt>
			 <trkpt lat="40.70409" lon="-73.96107">
				 <ele>10.9</ele>
			 </trkpt>
			 <trkpt lat="40.70592" lon="-73.96311">
				 <ele>11.5</ele>
			 </trkpt>
			 <trkpt lat="40.70689" lon="-73.96421">
				 <ele>11.9</ele>
			 </trkpt>
			 <trkpt lat="40.70704" lon="-73.96438">
				 <ele>12.3</ele>
			 </trkpt>
			 <trkpt lat="40.70712" lon="-73.96441">
				 <ele>12.6</ele>
			 </trkpt>
			 <trkpt lat="40.70717" lon="-73.96444">
				 <ele>12.9</ele>
			 </trkpt>
			 <trkpt lat="40.70722" lon="-73.96445">
				 <ele>13.2</ele>
			 </trkpt>
			 <trkpt lat="40.70739" lon="-73.96445">
				 <ele>13.4</ele>
			 </trkpt>
			 <trkpt lat="40.70821" lon="-73.96429">
				 <ele>13.5</ele>
			 </trkpt>
			 <trkpt lat="40.70954" lon="-73.96403">
				 <ele>13.5</ele>
			 </trkpt>
			 <trkpt lat="40.71007" lon="-73.96393">
				 <ele>13.5</ele>
			 </trkpt>
			 <trkpt lat="40.71027" lon="-73.9639">
				 <ele>13.5</ele>
			 </trkpt>
			 <trkpt lat="40.7104" lon="-73.96386">
				 <ele>13.5</ele>
			 </trkpt>
			 <trkpt lat="40.71096" lon="-73.96353">
				 <ele>13.3</ele>
			 </trkpt>
			 <trkpt lat="40.71244" lon="-73.96261">
				 <ele>13</ele>
			 </trkpt>
			 <trkpt lat="40.71368" lon="-73.96183">
				 <ele>12.5</ele>
			 </trkpt>
			 <trkpt lat="40.71396" lon="-73.96165">
				 <ele>12.1</ele>
			 </trkpt>
			 <trkpt lat="40.71432" lon="-73.96142">
				 <ele>11.5</ele>
			 </trkpt>
			 <trkpt lat="40.71458" lon="-73.96123">
				 <ele>11</ele>
			 </trkpt>
			 <trkpt lat="40.71564" lon="-73.96009">
				 <ele>10.5</ele>
			 </trkpt>
			 <trkpt lat="40.71704" lon="-73.95859">
				 <ele>9.8</ele>
			 </trkpt>
			 <trkpt lat="40.71821" lon="-73.95733">
				 <ele>9.3</ele>
			 </trkpt>
			 <trkpt lat="40.72285" lon="-73.95234">
				 <ele>8.6</ele>
			 </trkpt>
			 <trkpt lat="40.723455" lon="-73.951687">
				 <ele>8.1</ele>
			 </trkpt>
			 <trkpt lat="40.723764" lon="-73.950796">
				 <ele>7.6</ele>
			 </trkpt>
			 <trkpt lat="40.72501" lon="-73.95149">
				 <ele>7.3</ele>
			 </trkpt>
			 <trkpt lat="40.72851" lon="-73.9535">
				 <ele>7</ele>
			 </trkpt>
			 <trkpt lat="40.72889" lon="-73.9537">
				 <ele>6.6</ele>
			 </trkpt>
			 <trkpt lat="40.72929" lon="-73.95388">
				 <ele>6.4</ele>
			 </trkpt>
			 <trkpt lat="40.730192" lon="-73.954232">
				 <ele>6</ele>
			 </trkpt>
			 <trkpt lat="40.730459" lon="-73.951564">
				 <ele>5.6</ele>
			 </trkpt>
			 <trkpt lat="40.730977" lon="-73.951653">
				 <ele>5.4</ele>
			 </trkpt>
			 <trkpt lat="40.732583" lon="-73.951906">
				 <ele>5.1</ele>
			 </trkpt>
			 <trkpt lat="40.73466" lon="-73.952315">
				 <ele>4.9</ele>
			 </trkpt>
			 <trkpt lat="40.735457" lon="-73.95253">
				 <ele>4.7</ele>
			 </trkpt>
			 <trkpt lat="40.738003" lon="-73.952959">
				 <ele>4.5</ele>
			 </trkpt>
			 <trkpt lat="40.740492" lon="-73.952187">
				 <ele>4.3</ele>
			 </trkpt>
			 <trkpt lat="40.743632" lon="-73.951205">
				 <ele>4.1</ele>
			 </trkpt>
			 <trkpt lat="40.74404" lon="-73.95325">
				 <ele>4</ele>
			 </trkpt>
			 <trkpt lat="40.74412" lon="-73.95364">
				 <ele>3.9</ele>
			 </trkpt>
			 <trkpt lat="40.74442" lon="-73.95354">
				 <ele>3.9</ele>
			 </trkpt>
			 <trkpt lat="40.7455" lon="-73.95318">
				 <ele>3.8</ele>
			 </trkpt>
			 <trkpt lat="40.74667" lon="-73.95279">
				 <ele>3.7</ele>
			 </trkpt>
			 <trkpt lat="40.74757" lon="-73.95249">
				 <ele>3.7</ele>
			 </trkpt>
			 <trkpt lat="40.74827" lon="-73.95224">
				 <ele>3.7</ele>
			 </trkpt>
			 <trkpt lat="40.74855" lon="-73.952">
				 <ele>3.7</ele>
			 </trkpt>
			 <trkpt lat="40.74894" lon="-73.95164">
				 <ele>3.9</ele>
			 </trkpt>
			 <trkpt lat="40.74881" lon="-73.95094">
				 <ele>4</ele>
			 </trkpt>
			 <trkpt lat="40.7488" lon="-73.95088">
				 <ele>4.1</ele>
			 </trkpt>
			 <trkpt lat="40.747439" lon="-73.943745">
				 <ele>4.3</ele>
			 </trkpt>
			 <trkpt lat="40.747691" lon="-73.943262">
				 <ele>4.5</ele>
			 </trkpt>
			 <trkpt lat="40.749154" lon="-73.941921">
				 <ele>4.9</ele>
			 </trkpt>
			 <trkpt lat="40.749359" lon="-73.941745">
				 <ele>5.5</ele>
			 </trkpt>
			 <trkpt lat="40.749827" lon="-73.941289">
				 <ele>6.3</ele>
			 </trkpt>
			 <trkpt lat="40.75055" lon="-73.940649">
				 <ele>7</ele>
			 </trkpt>
			 <trkpt lat="40.751058" lon="-73.941052">
				 <ele>7.8</ele>
			 </trkpt>
			 <trkpt lat="40.751497" lon="-73.942028">
				 <ele>8.7</ele>
			 </trkpt>
			 <trkpt lat="40.75257" lon="-73.94446">
				 <ele>9.6</ele>
			 </trkpt>
			 <trkpt lat="40.75376" lon="-73.94719">
				 <ele>10.5</ele>
			 </trkpt>
			 <trkpt lat="40.7548" lon="-73.9496">
				 <ele>11.5</ele>
			 </trkpt>
			 <trkpt lat="40.75535" lon="-73.95086">
				 <ele>12.5</ele>
			 </trkpt>
			 <trkpt lat="40.75827" lon="-73.95755">
				 <ele>13.3</ele>
			 </trkpt>
			 <trkpt lat="40.76039" lon="-73.962641">
				 <ele>13.9</ele>
			 </trkpt>
			 <trkpt lat="40.760333" lon="-73.963038">
				 <ele>14.4</ele>
			 </trkpt>
			 <trkpt lat="40.760203" lon="-73.96307">
				 <ele>14.6</ele>
			 </trkpt>
			 <trkpt lat="40.760106" lon="-73.963038">
				 <ele>14.8</ele>
			 </trkpt>
			 <trkpt lat="40.759651" lon="-73.961965">
				 <ele>14.9</ele>
			 </trkpt>
			 <trkpt lat="40.76178" lon="-73.96039">
				 <ele>14.9</ele>
			 </trkpt>
			 <trkpt lat="40.76274" lon="-73.95968">
				 <ele>14.8</ele>
			 </trkpt>
			 <trkpt lat="40.76369" lon="-73.95901">
				 <ele>14.7</ele>
			 </trkpt>
			 <trkpt lat="40.76547" lon="-73.95771">
				 <ele>14.5</ele>
			 </trkpt>
			 <trkpt lat="40.76719" lon="-73.95645">
				 <ele>14.2</ele>
			 </trkpt>
			 <trkpt lat="40.76962" lon="-73.95469">
				 <ele>13.8</ele>
			 </trkpt>
			 <trkpt lat="40.77134" lon="-73.95343">
				 <ele>13.5</ele>
			 </trkpt>
			 <trkpt lat="40.77238" lon="-73.95266">
				 <ele>13</ele>
			 </trkpt>
			 <trkpt lat="40.77308" lon="-73.95216">
				 <ele>12.5</ele>
			 </trkpt>
			 <trkpt lat="40.77518" lon="-73.9506">
				 <ele>12</ele>
			 </trkpt>
			 <trkpt lat="40.77619" lon="-73.94985">
				 <ele>11.4</ele>
			 </trkpt>
			 <trkpt lat="40.77688" lon="-73.94937">
				 <ele>10.6</ele>
			 </trkpt>
			 <trkpt lat="40.77913" lon="-73.94773">
				 <ele>9.8</ele>
			 </trkpt>
			 <trkpt lat="40.77973" lon="-73.9473">
				 <ele>8.9</ele>
			 </trkpt>
			 <trkpt lat="40.78007" lon="-73.94702">
				 <ele>8</ele>
			 </trkpt>
			 <trkpt lat="40.78108" lon="-73.94631">
				 <ele>7.1</ele>
			 </trkpt>
			 <trkpt lat="40.78185" lon="-73.94573">
				 <ele>6.3</ele>
			 </trkpt>
			 <trkpt lat="40.78258" lon="-73.94522">
				 <ele>5.5</ele>
			 </trkpt>
			 <trkpt lat="40.78357" lon="-73.9445">
				 <ele>4.9</ele>
			 </trkpt>
			 <trkpt lat="40.78497" lon="-73.94347">
				 <ele>4.4</ele>
			 </trkpt>
			 <trkpt lat="40.78751" lon="-73.9416">
				 <ele>3.9</ele>
			 </trkpt>
			 <trkpt lat="40.78923" lon="-73.94036">
				 <ele>3.5</ele>
			 </trkpt>
			 <trkpt lat="40.79029" lon="-73.93958">
				 <ele>3.3</ele>
			 </trkpt>
			 <trkpt lat="40.79147" lon="-73.93873">
				 <ele>3.1</ele>
			 </trkpt>
			 <trkpt lat="40.79283" lon="-73.93774">
				 <ele>3</ele>
			 </trkpt>
			 <trkpt lat="40.79341" lon="-73.93731">
				 <ele>3</ele>
			 </trkpt>
			 <trkpt lat="40.79346" lon="-73.93729">
				 <ele>3</ele>
			 </trkpt>
			 <trkpt lat="40.79354" lon="-73.9372">
				 <ele>3</ele>
			 </trkpt>
			 <trkpt lat="40.79407" lon="-73.93681">
				 <ele>3</ele>
			 </trkpt>
			 <trkpt lat="40.79447" lon="-73.93652">
				 <ele>3.1</ele>
			 </trkpt>
			 <trkpt lat="40.79512" lon="-73.93606">
				 <ele>3.3</ele>
			 </trkpt>
			 <trkpt lat="40.79638" lon="-73.93515">
				 <ele>3.5</ele>
			 </trkpt>
			 <trkpt lat="40.797" lon="-73.9347">
				 <ele>3.7</ele>
			 </trkpt>
			 <trkpt lat="40.79731" lon="-73.93446">
				 <ele>4.1</ele>
			 </trkpt>
			 <trkpt lat="40.7978" lon="-73.93411">
				 <ele>4.5</ele>
			 </trkpt>
			 <trkpt lat="40.79874" lon="-73.93342">
				 <ele>4.9</ele>
			 </trkpt>
			 <trkpt lat="40.8003" lon="-73.93227">
				 <ele>5.5</ele>
			 </trkpt>
			 <trkpt lat="40.80143" lon="-73.93144">
				 <ele>6.1</ele>
			 </trkpt>
			 <trkpt lat="40.80256" lon="-73.93059">
				 <ele>6.8</ele>
			 </trkpt>
			 <trkpt lat="40.80274" lon="-73.93038">
				 <ele>7.5</ele>
			 </trkpt>
			 <trkpt lat="40.80285" lon="-73.93023">
				 <ele>8.2</ele>
			 </trkpt>
			 <trkpt lat="40.80297" lon="-73.93001">
				 <ele>8.7</ele>
			 </trkpt>
			 <trkpt lat="40.80339" lon="-73.92911">
				 <ele>9.2</ele>
			 </trkpt>
			 <trkpt lat="40.80378" lon="-73.92832">
				 <ele>9.5</ele>
			 </trkpt>
			 <trkpt lat="40.80459" lon="-73.92673">
				 <ele>9.8</ele>
			 </trkpt>
			 <trkpt lat="40.80471" lon="-73.92652">
				 <ele>10</ele>
			 </trkpt>
			 <trkpt lat="40.80474" lon="-73.92635">
				 <ele>10.1</ele>
			 </trkpt>
			 <trkpt lat="40.80545" lon="-73.925485">
				 <ele>10</ele>
			 </trkpt>
			 <trkpt lat="40.806019" lon="-73.925002">
				 <ele>9.7</ele>
			 </trkpt>
			 <trkpt lat="40.807161" lon="-73.924256">
				 <ele>9.4</ele>
			 </trkpt>
			 <trkpt lat="40.808146" lon="-73.926461">
				 <ele>9</ele>
			 </trkpt>
			 <trkpt lat="40.810081" lon="-73.925111">
				 <ele>8.6</ele>
			 </trkpt>
			 <trkpt lat="40.810995" lon="-73.92715">
				 <ele>8.2</ele>
			 </trkpt>
			 <trkpt lat="40.812984" lon="-73.925787">
				 <ele>7.7</ele>
			 </trkpt>
			 <trkpt lat="40.81335" lon="-73.926699">
				 <ele>7.3</ele>
			 </trkpt>
			 <trkpt lat="40.812245" lon="-73.927461">
				 <ele>6.7</ele>
			 </trkpt>
			 <trkpt lat="40.811742" lon="-73.928158">
				 <ele>6.3</ele>
			 </trkpt>
			 <trkpt lat="40.81268" lon="-73.92939">
				 <ele>5.8</ele>
			 </trkpt>
			 <trkpt lat="40.81284" lon="-73.92957">
				 <ele>5.5</ele>
			 </trkpt>
			 <trkpt lat="40.81288" lon="-73.9296">
				 <ele>5.1</ele>
			 </trkpt>
			 <trkpt lat="40.81315" lon="-73.92992">
				 <ele>4.7</ele>
			 </trkpt>
			 <trkpt lat="40.81341" lon="-73.93048">
				 <ele>4.4</ele>
			 </trkpt>
			 <trkpt lat="40.81408" lon="-73.932">
				 <ele>4</ele>
			 </trkpt>
			 <trkpt lat="40.81413" lon="-73.93213">
				 <ele>3.7</ele>
			 </trkpt>
			 <trkpt lat="40.81416" lon="-73.93232">
				 <ele>3.5</ele>
			 </trkpt>
			 <trkpt lat="40.81418" lon="-73.9331">
				 <ele>3.5</ele>
			 </trkpt>
			 <trkpt lat="40.81423" lon="-73.93442">
				 <ele>3.5</ele>
			 </trkpt>
			 <trkpt lat="40.81427" lon="-73.93481">
				 <ele>3.5</ele>
			 </trkpt>
			 <trkpt lat="40.81432" lon="-73.93502">
				 <ele>3.6</ele>
			 </trkpt>
			 <trkpt lat="40.81453" lon="-73.93551">
				 <ele>3.8</ele>
			 </trkpt>
			 <trkpt lat="40.8148" lon="-73.93616">
				 <ele>4.1</ele>
			 </trkpt>
			 <trkpt lat="40.81343" lon="-73.93715">
				 <ele>4.4</ele>
			 </trkpt>
			 <trkpt lat="40.81264" lon="-73.93775">
				 <ele>4.7</ele>
			 </trkpt>
			 <trkpt lat="40.81225" lon="-73.93804">
				 <ele>5.1</ele>
			 </trkpt>
			 <trkpt lat="40.80959" lon="-73.93995">
				 <ele>5.5</ele>
			 </trkpt>
			 <trkpt lat="40.80771" lon="-73.94132">
				 <ele>5.8</ele>
			 </trkpt>
			 <trkpt lat="40.80619" lon="-73.94246">
				 <ele>6.1</ele>
			 </trkpt>
			 <trkpt lat="40.80575" lon="-73.94275">
				 <ele>6.4</ele>
			 </trkpt>
			 <trkpt lat="40.80591" lon="-73.94316">
				 <ele>6.5</ele>
			 </trkpt>
			 <trkpt lat="40.80617" lon="-73.94379">
				 <ele>6.7</ele>
			 </trkpt>
			 <trkpt lat="40.80643" lon="-73.94438">
				 <ele>6.8</ele>
			 </trkpt>
			 <trkpt lat="40.80631" lon="-73.94444">
				 <ele>6.9</ele>
			 </trkpt>
			 <trkpt lat="40.80607" lon="-73.94461">
				 <ele>7</ele>
			 </trkpt>
			 <trkpt lat="40.80584" lon="-73.94477">
				 <ele>7</ele>
			 </trkpt>
			 <trkpt lat="40.80529" lon="-73.94517">
				 <ele>7.1</ele>
			 </trkpt>
			 <trkpt lat="40.80453" lon="-73.94573">
				 <ele>7.2</ele>
			 </trkpt>
			 <trkpt lat="40.80417" lon="-73.94599">
				 <ele>7.3</ele>
			 </trkpt>
			 <trkpt lat="40.8039" lon="-73.94619">
				 <ele>7.4</ele>
			 </trkpt>
			 <trkpt lat="40.80365" lon="-73.94562">
				 <ele>7.5</ele>
			 </trkpt>
			 <trkpt lat="40.80361" lon="-73.94552">
				 <ele>7.5</ele>
			 </trkpt>
			 <trkpt lat="40.80329" lon="-73.94474">
				 <ele>7.6</ele>
			 </trkpt>
			 <trkpt lat="40.80324" lon="-73.94461">
				 <ele>7.7</ele>
			 </trkpt>
			 <trkpt lat="40.80312" lon="-73.9447">
				 <ele>7.8</ele>
			 </trkpt>
			 <trkpt lat="40.80275" lon="-73.94498">
				 <ele>7.8</ele>
			 </trkpt>
			 <trkpt lat="40.80262" lon="-73.94507">
				 <ele>7.8</ele>
			 </trkpt>
			 <trkpt lat="40.80224" lon="-73.94534">
				 <ele>7.7</ele>
			 </trkpt>
			 <trkpt lat="40.80186" lon="-73.94562">
				 <ele>7.6</ele>
			 </trkpt>
			 <trkpt lat="40.80107" lon="-73.94618">
				 <ele>7.5</ele>
			 </trkpt>
			 <trkpt lat="40.80068" lon="-73.94647">
				 <ele>7.6</ele>
			 </trkpt>
			 <trkpt lat="40.8004" lon="-73.94667">
				 <ele>7.8</ele>
			 </trkpt>
			 <trkpt lat="40.79986" lon="-73.94706">
				 <ele>8.3</ele>
			 </trkpt>
			 <trkpt lat="40.79863" lon="-73.94796">
				 <ele>8.9</ele>
			 </trkpt>
			 <trkpt lat="40.79804" lon="-73.94841">
				 <ele>9.8</ele>
			 </trkpt>
			 <trkpt lat="40.79761" lon="-73.94873">
				 <ele>11</ele>
			 </trkpt>
			 <trkpt lat="40.79717" lon="-73.94904">
				 <ele>12.5</ele>
			 </trkpt>
			 <trkpt lat="40.79664" lon="-73.9494">
				 <ele>14.1</ele>
			 </trkpt>
			 <trkpt lat="40.79424" lon="-73.95115">
				 <ele>16</ele>
			 </trkpt>
			 <trkpt lat="40.79209" lon="-73.95272">
				 <ele>18.1</ele>
			 </trkpt>
			 <trkpt lat="40.78807" lon="-73.95566">
				 <ele>20.4</ele>
			 </trkpt>
			 <trkpt lat="40.78673" lon="-73.95662">
				 <ele>22.5</ele>
			 </trkpt>
			 <trkpt lat="40.784113" lon="-73.958575">
				 <ele>24.5</ele>
			 </trkpt>
			 <trkpt lat="40.784211" lon="-73.958854">
				 <ele>26.4</ele>
			 </trkpt>
			 <trkpt lat="40.78422" lon="-73.95889">
				 <ele>27.9</ele>
			 </trkpt>
			 <trkpt lat="40.7841" lon="-73.95898">
				 <ele>29.1</ele>
			 </trkpt>
			 <trkpt lat="40.78201" lon="-73.96051">
				 <ele>30</ele>
			 </trkpt>
			 <trkpt lat="40.78184" lon="-73.96064">
				 <ele>30.7</ele>
			 </trkpt>
			 <trkpt lat="40.78173" lon="-73.96076">
				 <ele>31.3</ele>
			 </trkpt>
			 <trkpt lat="40.78162" lon="-73.96096">
				 <ele>31.5</ele>
			 </trkpt>
			 <trkpt lat="40.78154" lon="-73.96126">
				 <ele>31.7</ele>
			 </trkpt>
			 <trkpt lat="40.78152" lon="-73.96152">
				 <ele>31.7</ele>
			 </trkpt>
			 <trkpt lat="40.78153" lon="-73.96167">
				 <ele>31.6</ele>
			 </trkpt>
			 <trkpt lat="40.78163" lon="-73.96236">
				 <ele>31.5</ele>
			 </trkpt>
			 <trkpt lat="40.78163" lon="-73.96254">
				 <ele>31.3</ele>
			 </trkpt>
			 <trkpt lat="40.78155" lon="-73.963">
				 <ele>31.2</ele>
			 </trkpt>
			 <trkpt lat="40.78144" lon="-73.9634">
				 <ele>31.2</ele>
			 </trkpt>
			 <trkpt lat="40.78128" lon="-73.96375">
				 <ele>31.2</ele>
			 </trkpt>
			 <trkpt lat="40.78113" lon="-73.96397">
				 <ele>31.2</ele>
			 </trkpt>
			 <trkpt lat="40.78101" lon="-73.9641">
				 <ele>31.1</ele>
			 </trkpt>
			 <trkpt lat="40.78086" lon="-73.96423">
				 <ele>31</ele>
			 </trkpt>
			 <trkpt lat="40.78039" lon="-73.96458">
				 <ele>30.8</ele>
			 </trkpt>
			 <trkpt lat="40.77989" lon="-73.96485">
				 <ele>30.6</ele>
			 </trkpt>
			 <trkpt lat="40.77959" lon="-73.96505">
				 <ele>30.5</ele>
			 </trkpt>
			 <trkpt lat="40.77924" lon="-73.96536">
				 <ele>30.4</ele>
			 </trkpt>
			 <trkpt lat="40.77896" lon="-73.96572">
				 <ele>30.2</ele>
			 </trkpt>
			 <trkpt lat="40.77865" lon="-73.96611">
				 <ele>30</ele>
			 </trkpt>
			 <trkpt lat="40.77848" lon="-73.96626">
				 <ele>29.7</ele>
			 </trkpt>
			 <trkpt lat="40.77841" lon="-73.96632">
				 <ele>29.4</ele>
			 </trkpt>
			 <trkpt lat="40.77823" lon="-73.96646">
				 <ele>28.9</ele>
			 </trkpt>
			 <trkpt lat="40.77791" lon="-73.96667">
				 <ele>28.5</ele>
			 </trkpt>
			 <trkpt lat="40.77757" lon="-73.96684">
				 <ele>27.9</ele>
			 </trkpt>
			 <trkpt lat="40.77734" lon="-73.96693">
				 <ele>27.2</ele>
			 </trkpt>
			 <trkpt lat="40.77691" lon="-73.96707">
				 <ele>26.4</ele>
			 </trkpt>
			 <trkpt lat="40.77633" lon="-73.96732">
				 <ele>25.5</ele>
			 </trkpt>
			 <trkpt lat="40.77625" lon="-73.96734">
				 <ele>24.5</ele>
			 </trkpt>
			 <trkpt lat="40.77614" lon="-73.96734">
				 <ele>23.5</ele>
			 </trkpt>
			 <trkpt lat="40.77581" lon="-73.96729">
				 <ele>22.5</ele>
			 </trkpt>
			 <trkpt lat="40.77566" lon="-73.9673">
				 <ele>21.5</ele>
			 </trkpt>
			 <trkpt lat="40.77553" lon="-73.96736">
				 <ele>20.6</ele>
			 </trkpt>
			 <trkpt lat="40.77544" lon="-73.96746">
				 <ele>19.8</ele>
			 </trkpt>
			 <trkpt lat="40.77527" lon="-73.96772">
				 <ele>19.1</ele>
			 </trkpt>
			 <trkpt lat="40.77504" lon="-73.96822">
				 <ele>18.5</ele>
			 </trkpt>
			 <trkpt lat="40.77489" lon="-73.96847">
				 <ele>18.2</ele>
			 </trkpt>
			 <trkpt lat="40.7747" lon="-73.96868">
				 <ele>18</ele>
			 </trkpt>
			 <trkpt lat="40.77426" lon="-73.96908">
				 <ele>17.9</ele>
			 </trkpt>
			 <trkpt lat="40.7741" lon="-73.96915">
				 <ele>18</ele>
			 </trkpt>
			 <trkpt lat="40.77396" lon="-73.96917">
				 <ele>18.3</ele>
			 </trkpt>
			 <trkpt lat="40.77372" lon="-73.96914">
				 <ele>18.6</ele>
			 </trkpt>
			 <trkpt lat="40.77354" lon="-73.96908">
				 <ele>19.1</ele>
			 </trkpt>
			 <trkpt lat="40.77337" lon="-73.96897">
				 <ele>19.6</ele>
			 </trkpt>
			 <trkpt lat="40.7732" lon="-73.96886">
				 <ele>20.2</ele>
			 </trkpt>
			 <trkpt lat="40.77306" lon="-73.96882">
				 <ele>20.7</ele>
			 </trkpt>
			 <trkpt lat="40.77293" lon="-73.9688">
				 <ele>21.2</ele>
			 </trkpt>
			 <trkpt lat="40.77281" lon="-73.96881">
				 <ele>21.6</ele>
			 </trkpt>
			 <trkpt lat="40.7726" lon="-73.96887">
				 <ele>22</ele>
			 </trkpt>
			 <trkpt lat="40.77196" lon="-73.96921">
				 <ele>22.4</ele>
			 </trkpt>
			 <trkpt lat="40.77186" lon="-73.96928">
				 <ele>22.6</ele>
			 </trkpt>
			 <trkpt lat="40.77174" lon="-73.96937">
				 <ele>22.8</ele>
			 </trkpt>
			 <trkpt lat="40.77164" lon="-73.96948">
				 <ele>22.9</ele>
			 </trkpt>
			 <trkpt lat="40.77151" lon="-73.96967">
				 <ele>22.9</ele>
			 </trkpt>
			 <trkpt lat="40.77143" lon="-73.96981">
				 <ele>22.8</ele>
			 </trkpt>
			 <trkpt lat="40.77124" lon="-73.97024">
				 <ele>22.7</ele>
			 </trkpt>
			 <trkpt lat="40.77112" lon="-73.97051">
				 <ele>22.6</ele>
			 </trkpt>
			 <trkpt lat="40.77101" lon="-73.97069">
				 <ele>22.5</ele>
			 </trkpt>
			 <trkpt lat="40.77089" lon="-73.97082">
				 <ele>22.5</ele>
			 </trkpt>
			 <trkpt lat="40.77081" lon="-73.97089">
				 <ele>22.4</ele>
			 </trkpt>
			 <trkpt lat="40.7706" lon="-73.97101">
				 <ele>22.3</ele>
			 </trkpt>
			 <trkpt lat="40.77019" lon="-73.97121">
				 <ele>22.1</ele>
			 </trkpt>
			 <trkpt lat="40.77006" lon="-73.9713">
				 <ele>21.9</ele>
			 </trkpt>
			 <trkpt lat="40.76994" lon="-73.97141">
				 <ele>21.7</ele>
			 </trkpt>
			 <trkpt lat="40.76982" lon="-73.97158">
				 <ele>21.5</ele>
			 </trkpt>
			 <trkpt lat="40.76968" lon="-73.97182">
				 <ele>21.4</ele>
			 </trkpt>
			 <trkpt lat="40.76953" lon="-73.97224">
				 <ele>21.1</ele>
			 </trkpt>
			 <trkpt lat="40.76945" lon="-73.97247">
				 <ele>20.7</ele>
			 </trkpt>
			 <trkpt lat="40.76935" lon="-73.9726">
				 <ele>20.4</ele>
			 </trkpt>
			 <trkpt lat="40.76917" lon="-73.97277">
				 <ele>19.9</ele>
			 </trkpt>
			 <trkpt lat="40.76885" lon="-73.97295">
				 <ele>19.4</ele>
			 </trkpt>
			 <trkpt lat="40.76845" lon="-73.97307">
				 <ele>18.8</ele>
			 </trkpt>
			 <trkpt lat="40.76815" lon="-73.97313">
				 <ele>18.3</ele>
			 </trkpt>
			 <trkpt lat="40.76779" lon="-73.97314">
				 <ele>17.7</ele>
			 </trkpt>
			 <trkpt lat="40.76743" lon="-73.9731">
				 <ele>17.2</ele>
			 </trkpt>
			 <trkpt lat="40.76738" lon="-73.97309">
				 <ele>16.7</ele>
			 </trkpt>
			 <trkpt lat="40.76718" lon="-73.97303">
				 <ele>16.4</ele>
			 </trkpt>
			 <trkpt lat="40.76688" lon="-73.97291">
				 <ele>16.2</ele>
			 </trkpt>
			 <trkpt lat="40.76658" lon="-73.9727">
				 <ele>16.1</ele>
			 </trkpt>
			 <trkpt lat="40.76643" lon="-73.97261">
				 <ele>16.1</ele>
			 </trkpt>
			 <trkpt lat="40.76624" lon="-73.97255">
				 <ele>16.3</ele>
			 </trkpt>
			 <trkpt lat="40.76608" lon="-73.97256">
				 <ele>16.5</ele>
			 </trkpt>
			 <trkpt lat="40.76579" lon="-73.97268">
				 <ele>16.9</ele>
			 </trkpt>
			 <trkpt lat="40.76571" lon="-73.97275">
				 <ele>17.5</ele>
			 </trkpt>
			 <trkpt lat="40.764601" lon="-73.973615">
				 <ele>18</ele>
			 </trkpt>
			 <trkpt lat="40.765628" lon="-73.976072">
				 <ele>18.6</ele>
			 </trkpt>
			 <trkpt lat="40.767631" lon="-73.980808">
				 <ele>19.4</ele>
			 </trkpt>
			 <trkpt lat="40.767846" lon="-73.981162">
				 <ele>19.9</ele>
			 </trkpt>
			 <trkpt lat="40.76799" lon="-73.98115">
				 <ele>20.4</ele>
			 </trkpt>
			 <trkpt lat="40.76814" lon="-73.98114">
				 <ele>20.8</ele>
			 </trkpt>
			 <trkpt lat="40.76824" lon="-73.98117">
				 <ele>21.2</ele>
			 </trkpt>
			 <trkpt lat="40.76833" lon="-73.98122">
				 <ele>21.5</ele>
			 </trkpt>
			 <trkpt lat="40.76846" lon="-73.98095">
				 <ele>21.7</ele>
			 </trkpt>
			 <trkpt lat="40.76863" lon="-73.98051">
				 <ele>21.9</ele>
			 </trkpt>
			 <trkpt lat="40.76871" lon="-73.98031">
				 <ele>21.9</ele>
			 </trkpt>
			 <trkpt lat="40.76878" lon="-73.98021">
				 <ele>21.9</ele>
			 </trkpt>
			 <trkpt lat="40.76886" lon="-73.98009">
				 <ele>21.8</ele>
			 </trkpt>
			 <trkpt lat="40.7689" lon="-73.97995">
				 <ele>21.6</ele>
			 </trkpt>
			 <trkpt lat="40.76903" lon="-73.97998">
				 <ele>21.5</ele>
			 </trkpt>
			 <trkpt lat="40.76912" lon="-73.97998">
				 <ele>21.5</ele>
			 </trkpt>
			 <trkpt lat="40.76927" lon="-73.9799">
				 <ele>21.5</ele>
			 </trkpt>
			 <trkpt lat="40.76963" lon="-73.97969">
				 <ele>21.5</ele>
			 </trkpt>
			 <trkpt lat="40.76983" lon="-73.97953">
				 <ele>21.5</ele>
			 </trkpt>
			 <trkpt lat="40.77007" lon="-73.9793">
				 <ele>21.5</ele>
			 </trkpt>
			 <trkpt lat="40.77062" lon="-73.9787">
				 <ele>21.6</ele>
			 </trkpt>
			 <trkpt lat="40.77096" lon="-73.97826">
				 <ele>21.9</ele>
			 </trkpt>
			 <trkpt lat="40.77118" lon="-73.97791">
				 <ele>22.2</ele>
			 </trkpt>
			 <trkpt lat="40.77148" lon="-73.97745">
				 <ele>22.5</ele>
			 </trkpt>
			 <trkpt lat="40.77162" lon="-73.97729">
				 <ele>22.8</ele>
			 </trkpt>
			 <trkpt lat="40.77183" lon="-73.97709">
				 <ele>23</ele>
			 </trkpt>
			 <trkpt lat="40.77211" lon="-73.97689">
				 <ele>23.2</ele>
			 </trkpt>
			 <trkpt lat="40.77231" lon="-73.97678">
				 <ele>23.4</ele>
			 </trkpt>
			 <trkpt lat="40.77266" lon="-73.97664">
				 <ele>23.6</ele>
			 </trkpt>
			 <trkpt lat="40.7729" lon="-73.97655">
				 <ele>23.8</ele>
			 </trkpt>
		 </trkseg>
	 </trk>
</gpx>