<?xml version="1.0" encoding="UTF-8"?>
<gpx version="1.1" creator="HTML GPX Creator" xmlns="http://www.topografix.com/GPX/1/1">
  <trk>
    <name>nightrace_busan</name>
    <trkseg>
      <trkpt lat="35.154293082918315" lon="129.1195356845856">
        <ele>8.9</ele>
      </trkpt>
      <trkpt lat="35.154284" lon="129.119528">
        <ele>8.8</ele>
      </trkpt>
      <trkpt lat="35.154277" lon="129.119541">
        <ele>8.6</ele>
      </trkpt>
      <trkpt lat="35.153547" lon="129.118427">
        <ele>8.5</ele>
      </trkpt>
      <trkpt lat="35.153505" lon="129.118363">
        <ele>8.3</ele>
      </trkpt>
      <trkpt lat="35.152841" lon="129.117836">
        <ele>8.2</ele>
      </trkpt>
      <trkpt lat="35.151873" lon="129.117113">
        <ele>8.1</ele>
      </trkpt>
      <trkpt lat="35.150917" lon="129.116378">
        <ele>8.0</ele>
      </trkpt>
      <trkpt lat="35.149969" lon="129.115654">
        <ele>7.9</ele>
      </trkpt>
      <trkpt lat="35.149027" lon="129.114924">
        <ele>7.8</ele>
      </trkpt>
      <trkpt lat="35.148461" lon="129.114716">
        <ele>7.7</ele>
      </trkpt>
      <trkpt lat="35.1482" lon="129.11462">
        <ele>7.6</ele>
      </trkpt>
      <trkpt lat="35.14801" lon="129.11457">
        <ele>7.5</ele>
      </trkpt>
      <trkpt lat="35.147745" lon="129.114485">
        <ele>7.4</ele>
      </trkpt>
      <trkpt lat="35.147403" lon="129.114375">
        <ele>7.3</ele>
      </trkpt>
      <trkpt lat="35.146934" lon="129.114375">
        <ele>7.2</ele>
      </trkpt>
      <trkpt lat="35.146471" lon="129.114553">
        <ele>7.0</ele>
      </trkpt>
      <trkpt lat="35.146045" lon="129.114711">
        <ele>6.8</ele>
      </trkpt>
      <trkpt lat="35.146047037340495" lon="129.11471843719485">
        <ele>6.6</ele>
      </trkpt>
      <trkpt lat="35.146045" lon="129.114711">
        <ele>6.4</ele>
      </trkpt>
      <trkpt lat="35.146031" lon="129.114717">
        <ele>6.2</ele>
      </trkpt>
      <trkpt lat="35.145998" lon="129.116478">
        <ele>6.0</ele>
      </trkpt>
      <trkpt lat="35.145993" lon="129.11766">
        <ele>5.8</ele>
      </trkpt>
      <trkpt lat="35.145941" lon="129.117659">
        <ele>5.7</ele>
      </trkpt>
      <trkpt lat="35.145941763271736" lon="129.1176795959473">
        <ele>5.5</ele>
      </trkpt>
      <trkpt lat="35.145941" lon="129.117659">
        <ele>5.4</ele>
      </trkpt>
      <trkpt lat="35.140067" lon="129.117545">
        <ele>5.3</ele>
      </trkpt>
      <trkpt lat="35.140031" lon="129.117522">
        <ele>5.2</ele>
      </trkpt>
      <trkpt lat="35.140011104160436" lon="129.1175723075867">
        <ele>5.1</ele>
      </trkpt>
      <trkpt lat="35.140031" lon="129.117522">
        <ele>5.0</ele>
      </trkpt>
      <trkpt lat="35.14" lon="129.117504">
        <ele>4.9</ele>
      </trkpt>
      <trkpt lat="35.139966" lon="129.117437">
        <ele>4.8</ele>
      </trkpt>
      <trkpt lat="35.139737" lon="129.116473">
        <ele>4.7</ele>
      </trkpt>
      <trkpt lat="35.139614" lon="129.115939">
        <ele>4.7</ele>
      </trkpt>
      <trkpt lat="35.13964261699907" lon="129.11593079566958">
        <ele>4.6</ele>
      </trkpt>
      <trkpt lat="35.139614" lon="129.115939">
        <ele>4.6</ele>
      </trkpt>
      <trkpt lat="35.13952" lon="129.115527">
        <ele>4.5</ele>
      </trkpt>
      <trkpt lat="35.139498" lon="129.115309">
        <ele>4.5</ele>
      </trkpt>
      <trkpt lat="35.13951101403722" lon="129.11530852317813">
        <ele>4.4</ele>
      </trkpt>
      <trkpt lat="35.139528561111085" lon="129.11497592926028">
        <ele>4.3</ele>
      </trkpt>
      <trkpt lat="35.139532" lon="129.114961">
        <ele>4.3</ele>
      </trkpt>
      <trkpt lat="35.139426" lon="129.114908">
        <ele>4.2</ele>
      </trkpt>
      <trkpt lat="35.139336" lon="129.114833">
        <ele>4.2</ele>
      </trkpt>
      <trkpt lat="35.138057" lon="129.113469">
        <ele>4.1</ele>
      </trkpt>
      <trkpt lat="35.137829" lon="129.113226">
        <ele>4.0</ele>
      </trkpt>
      <trkpt lat="35.137175" lon="129.112529">
        <ele>4.0</ele>
      </trkpt>
      <trkpt lat="35.137064" lon="129.112411">
        <ele>3.9</ele>
      </trkpt>
      <trkpt lat="35.136798" lon="129.112128">
        <ele>3.8</ele>
      </trkpt>
      <trkpt lat="35.136569" lon="129.111886">
        <ele>3.7</ele>
      </trkpt>
      <trkpt lat="35.136358" lon="129.11167">
        <ele>3.7</ele>
      </trkpt>
      <trkpt lat="35.13634370524706" lon="129.11169290542605">
        <ele>3.6</ele>
      </trkpt>
      <trkpt lat="35.136358" lon="129.11167">
        <ele>3.5</ele>
      </trkpt>
      <trkpt lat="35.136231" lon="129.111539">
        <ele>3.4</ele>
      </trkpt>
      <trkpt lat="35.136192" lon="129.111702">
        <ele>3.4</ele>
      </trkpt>
      <trkpt lat="35.136171" lon="129.111792">
        <ele>3.3</ele>
      </trkpt>
      <trkpt lat="35.135871" lon="129.111885">
        <ele>3.2</ele>
      </trkpt>
      <trkpt lat="35.135755" lon="129.11205">
        <ele>3.1</ele>
      </trkpt>
      <trkpt lat="35.135774" lon="129.112135">
        <ele>3.1</ele>
      </trkpt>
      <trkpt lat="35.135827" lon="129.112455">
        <ele>3.1</ele>
      </trkpt>
      <trkpt lat="35.135892" lon="129.11301">
        <ele>3.0</ele>
      </trkpt>
      <trkpt lat="35.135954" lon="129.113536">
        <ele>3.0</ele>
      </trkpt>
      <trkpt lat="35.13594887972413" lon="129.1135382652283">
        <ele>3.0</ele>
      </trkpt>
      <trkpt lat="35.135954" lon="129.113536">
        <ele>3.0</ele>
      </trkpt>
      <trkpt lat="35.135958" lon="129.113566">
        <ele>3.0</ele>
      </trkpt>
      <trkpt lat="35.136064" lon="129.114352">
        <ele>3.0</ele>
      </trkpt>
      <trkpt lat="35.136256" lon="129.115748">
        <ele>2.9</ele>
      </trkpt>
      <trkpt lat="35.136352" lon="129.116531">
        <ele>2.9</ele>
      </trkpt>
      <trkpt lat="35.136453" lon="129.117269">
        <ele>2.9</ele>
      </trkpt>
      <trkpt lat="35.136502" lon="129.117624">
        <ele>3.0</ele>
      </trkpt>
      <trkpt lat="35.136551" lon="129.117888">
        <ele>3.0</ele>
      </trkpt>
      <trkpt lat="35.136639" lon="129.11829">
        <ele>3.0</ele>
      </trkpt>
      <trkpt lat="35.136707" lon="129.118543">
        <ele>3.1</ele>
      </trkpt>
      <trkpt lat="35.136776" lon="129.118771">
        <ele>3.1</ele>
      </trkpt>
      <trkpt lat="35.136846" lon="129.118961">
        <ele>3.2</ele>
      </trkpt>
      <trkpt lat="35.136872" lon="129.119017">
        <ele>3.3</ele>
      </trkpt>
      <trkpt lat="35.1368525886522" lon="129.1190314292908">
        <ele>3.3</ele>
      </trkpt>
      <trkpt lat="35.136872" lon="129.119017">
        <ele>3.4</ele>
      </trkpt>
      <trkpt lat="35.136972" lon="129.119237">
        <ele>3.5</ele>
      </trkpt>
      <trkpt lat="35.137093" lon="129.119527">
        <ele>3.5</ele>
      </trkpt>
      <trkpt lat="35.13721" lon="129.119776">
        <ele>3.6</ele>
      </trkpt>
      <trkpt lat="35.137312" lon="129.119976">
        <ele>3.7</ele>
      </trkpt>
      <trkpt lat="35.13745" lon="129.120209">
        <ele>3.7</ele>
      </trkpt>
      <trkpt lat="35.137574" lon="129.120393">
        <ele>3.8</ele>
      </trkpt>
      <trkpt lat="35.137707" lon="129.120576">
        <ele>3.8</ele>
      </trkpt>
      <trkpt lat="35.137866" lon="129.120773">
        <ele>3.8</ele>
      </trkpt>
      <trkpt lat="35.138028" lon="129.120959">
        <ele>3.9</ele>
      </trkpt>
      <trkpt lat="35.138499" lon="129.121454">
        <ele>3.9</ele>
      </trkpt>
      <trkpt lat="35.139242" lon="129.122153">
        <ele>3.9</ele>
      </trkpt>
      <trkpt lat="35.139441" lon="129.122344">
        <ele>3.8</ele>
      </trkpt>
      <trkpt lat="35.13944082570388" lon="129.1223466396332">
        <ele>3.8</ele>
      </trkpt>
      <trkpt lat="35.139441" lon="129.122344">
        <ele>3.8</ele>
      </trkpt>
      <trkpt lat="35.141154" lon="129.123982">
        <ele>3.8</ele>
      </trkpt>
      <trkpt lat="35.141864" lon="129.124669">
        <ele>3.7</ele>
      </trkpt>
      <trkpt lat="35.14182719508624" lon="129.12472844123843">
        <ele>3.7</ele>
      </trkpt>
      <trkpt lat="35.141864" lon="129.124669">
        <ele>3.6</ele>
      </trkpt>
      <trkpt lat="35.142519" lon="129.125301">
        <ele>3.6</ele>
      </trkpt>
      <trkpt lat="35.144867" lon="129.127571">
        <ele>3.5</ele>
      </trkpt>
      <trkpt lat="35.14485392325386" lon="129.12759304046634">
        <ele>3.5</ele>
      </trkpt>
      <trkpt lat="35.144867" lon="129.127571">
        <ele>3.5</ele>
      </trkpt>
      <trkpt lat="35.14871" lon="129.131287">
        <ele>3.5</ele>
      </trkpt>
      <trkpt lat="35.14867884480233" lon="129.13133740425113">
        <ele>3.4</ele>
      </trkpt>
      <trkpt lat="35.14871" lon="129.131287">
        <ele>3.4</ele>
      </trkpt>
      <trkpt lat="35.148918" lon="129.131489">
        <ele>3.4</ele>
      </trkpt>
      <trkpt lat="35.149954" lon="129.132468">
        <ele>3.3</ele>
      </trkpt>
      <trkpt lat="35.151365" lon="129.133787">
        <ele>3.3</ele>
      </trkpt>
      <trkpt lat="35.152154" lon="129.134554">
        <ele>3.3</ele>
      </trkpt>
      <trkpt lat="35.15212638379703" lon="129.13459897041324">
        <ele>3.3</ele>
      </trkpt>
      <trkpt lat="35.152154" lon="129.134554">
        <ele>3.3</ele>
      </trkpt>
      <trkpt lat="35.152851" lon="129.135231">
        <ele>3.3</ele>
      </trkpt>
      <trkpt lat="35.153672" lon="129.136">
        <ele>3.3</ele>
      </trkpt>
      <trkpt lat="35.154152" lon="129.136415">
        <ele>3.3</ele>
      </trkpt>
      <trkpt lat="35.154712" lon="129.136705">
        <ele>3.3</ele>
      </trkpt>
      <trkpt lat="35.154983" lon="129.136824">
        <ele>3.3</ele>
      </trkpt>
      <trkpt lat="35.155196" lon="129.136907">
        <ele>3.3</ele>
      </trkpt>
      <trkpt lat="35.155645" lon="129.137001">
        <ele>3.4</ele>
      </trkpt>
      <trkpt lat="35.155696" lon="129.137003">
        <ele>3.4</ele>
      </trkpt>
      <trkpt lat="35.15569658191948" lon="129.1370236873627">
        <ele>3.5</ele>
      </trkpt>
      <trkpt lat="35.155696" lon="129.137003">
        <ele>3.5</ele>
      </trkpt>
      <trkpt lat="35.156231" lon="129.137026">
        <ele>3.5</ele>
      </trkpt>
      <trkpt lat="35.156527" lon="129.136994">
        <ele>3.6</ele>
      </trkpt>
      <trkpt lat="35.15652989799571" lon="129.1370236873627">
        <ele>3.6</ele>
      </trkpt>
      <trkpt lat="35.156526" lon="129.136977">
        <ele>3.6</ele>
      </trkpt>
      <trkpt lat="35.156744" lon="129.136954">
        <ele>3.7</ele>
      </trkpt>
      <trkpt lat="35.157325" lon="129.136755">
        <ele>3.7</ele>
      </trkpt>
      <trkpt lat="35.157862" lon="129.136505">
        <ele>3.7</ele>
      </trkpt>
      <trkpt lat="35.15786318596324" lon="129.13650870323184">
        <ele>3.7</ele>
      </trkpt>
      <trkpt lat="35.157862" lon="129.136505">
        <ele>3.7</ele>
      </trkpt>
      <trkpt lat="35.157879" lon="129.136498">
        <ele>3.7</ele>
      </trkpt>
      <trkpt lat="35.158591" lon="129.136001">
        <ele>3.6</ele>
      </trkpt>
      <trkpt lat="35.158826" lon="129.135801">
        <ele>3.6</ele>
      </trkpt>
      <trkpt lat="35.158968" lon="129.135706">
        <ele>3.6</ele>
      </trkpt>
      <trkpt lat="35.159066" lon="129.135631">
        <ele>3.5</ele>
      </trkpt>
      <trkpt lat="35.15906488073665" lon="129.13562893867496">
        <ele>3.5</ele>
      </trkpt>
      <trkpt lat="35.159066" lon="129.135631">
        <ele>3.5</ele>
      </trkpt>
      <trkpt lat="35.159844" lon="129.135036">
        <ele>3.4</ele>
      </trkpt>
      <trkpt lat="35.159845534252554" lon="129.13503885269168">
        <ele>3.4</ele>
      </trkpt>
      <trkpt lat="35.159844" lon="129.135036">
        <ele>3.3</ele>
      </trkpt>
      <trkpt lat="35.160629" lon="129.134438">
        <ele>3.3</ele>
      </trkpt>
      <trkpt lat="35.160686" lon="129.134394">
        <ele>3.3</ele>
      </trkpt>
      <trkpt lat="35.16067003657246" lon="129.13436293601993">
        <ele>3.3</ele>
      </trkpt>
      <trkpt lat="35.160686" lon="129.134394">
        <ele>3.2</ele>
      </trkpt>
      <trkpt lat="35.160915" lon="129.13422">
        <ele>3.2</ele>
      </trkpt>
      <trkpt lat="35.161138" lon="129.134072">
        <ele>3.3</ele>
      </trkpt>
      <trkpt lat="35.161351" lon="129.133953">
        <ele>3.3</ele>
      </trkpt>
      <trkpt lat="35.161506" lon="129.133892">
        <ele>3.3</ele>
      </trkpt>
      <trkpt lat="35.16152084403441" lon="129.1339445114136">
        <ele>3.3</ele>
      </trkpt>
      <trkpt lat="35.161506" lon="129.133892">
        <ele>3.4</ele>
      </trkpt>
      <trkpt lat="35.161627" lon="129.133845">
        <ele>3.4</ele>
      </trkpt>
      <trkpt lat="35.162024" lon="129.133704">
        <ele>3.4</ele>
      </trkpt>
      <trkpt lat="35.162235" lon="129.13365">
        <ele>3.5</ele>
      </trkpt>
      <trkpt lat="35.16224007639057" lon="129.1336762905121">
        <ele>3.5</ele>
      </trkpt>
      <trkpt lat="35.163029470436115" lon="129.13371920585635">
        <ele>3.6</ele>
      </trkpt>
      <trkpt lat="35.163031" lon="129.133701">
        <ele>3.7</ele>
      </trkpt>
      <trkpt lat="35.16321" lon="129.133745">
        <ele>3.8</ele>
      </trkpt>
      <trkpt lat="35.163415" lon="129.133821">
        <ele>4.0</ele>
      </trkpt>
      <trkpt lat="35.163651" lon="129.133949">
        <ele>4.1</ele>
      </trkpt>
      <trkpt lat="35.163858" lon="129.13414">
        <ele>4.3</ele>
      </trkpt>
      <trkpt lat="35.163885" lon="129.134174">
        <ele>4.4</ele>
      </trkpt>
      <trkpt lat="35.16386271139464" lon="129.13420200347903">
        <ele>4.6</ele>
      </trkpt>
      <trkpt lat="35.163885" lon="129.134174">
        <ele>4.8</ele>
      </trkpt>
      <trkpt lat="35.164054" lon="129.134389">
        <ele>5.0</ele>
      </trkpt>
      <trkpt lat="35.164231" lon="129.134656">
        <ele>5.1</ele>
      </trkpt>
      <trkpt lat="35.164554" lon="129.135281">
        <ele>5.3</ele>
      </trkpt>
      <trkpt lat="35.16456438137017" lon="129.135274887085">
        <ele>5.5</ele>
      </trkpt>
      <trkpt lat="35.164554" lon="129.135281">
        <ele>5.7</ele>
      </trkpt>
      <trkpt lat="35.16484" lon="129.135833">
        <ele>5.8</ele>
      </trkpt>
      <trkpt lat="35.16482750605027" lon="129.13584351539615">
        <ele>6.0</ele>
      </trkpt>
      <trkpt lat="35.16484" lon="129.135833">
        <ele>6.1</ele>
      </trkpt>
      <trkpt lat="35.165222" lon="129.13657">
        <ele>6.3</ele>
      </trkpt>
      <trkpt lat="35.165309" lon="129.13693">
        <ele>6.4</ele>
      </trkpt>
      <trkpt lat="35.165556" lon="129.137468">
        <ele>6.5</ele>
      </trkpt>
      <trkpt lat="35.165564250625664" lon="129.13746356964114">
        <ele>6.6</ele>
      </trkpt>
      <trkpt lat="35.165556" lon="129.137468">
        <ele>6.7</ele>
      </trkpt>
      <trkpt lat="35.165678" lon="129.137731">
        <ele>6.8</ele>
      </trkpt>
      <trkpt lat="35.165822" lon="129.137944">
        <ele>6.9</ele>
      </trkpt>
      <trkpt lat="35.165981" lon="129.138133">
        <ele>7.0</ele>
      </trkpt>
      <trkpt lat="35.166204" lon="129.138308">
        <ele>7.1</ele>
      </trkpt>
      <trkpt lat="35.166453" lon="129.138448">
        <ele>7.2</ele>
      </trkpt>
      <trkpt lat="35.16645008943283" lon="129.13846135139468">
        <ele>7.3</ele>
      </trkpt>
      <trkpt lat="35.166453" lon="129.138448">
        <ele>7.3</ele>
      </trkpt>
      <trkpt lat="35.166464" lon="129.138454">
        <ele>7.4</ele>
      </trkpt>
      <trkpt lat="35.167572" lon="129.138999">
        <ele>7.5</ele>
      </trkpt>
      <trkpt lat="35.16758149328271" lon="129.13897633552554">
        <ele>7.5</ele>
      </trkpt>
      <trkpt lat="35.167572" lon="129.138999">
        <ele>7.5</ele>
      </trkpt>
      <trkpt lat="35.167599" lon="129.139013">
        <ele>7.5</ele>
      </trkpt>
      <trkpt lat="35.167937" lon="129.139143">
        <ele>7.6</ele>
      </trkpt>
      <trkpt lat="35.168088" lon="129.13923">
        <ele>7.6</ele>
      </trkpt>
      <trkpt lat="35.168165" lon="129.139312">
        <ele>7.6</ele>
      </trkpt>
      <trkpt lat="35.168218" lon="129.139417">
        <ele>7.6</ele>
      </trkpt>
      <trkpt lat="35.168234" lon="129.139552">
        <ele>7.5</ele>
      </trkpt>
      <trkpt lat="35.168398" lon="129.139353">
        <ele>7.5</ele>
      </trkpt>
      <trkpt lat="35.1684146876037" lon="129.13937330245975">
        <ele>7.5</ele>
      </trkpt>
      <trkpt lat="35.16899353336939" lon="129.13859546184543">
        <ele>7.5</ele>
      </trkpt>
      <trkpt lat="35.169001" lon="129.138604">
        <ele>7.4</ele>
      </trkpt>
      <trkpt lat="35.169021" lon="129.138582">
        <ele>7.4</ele>
      </trkpt>
      <trkpt lat="35.168873" lon="129.138409">
        <ele>7.4</ele>
      </trkpt>
      <trkpt lat="35.168647" lon="129.13815">
        <ele>7.4</ele>
      </trkpt>
      <trkpt lat="35.168527" lon="129.138017">
        <ele>7.4</ele>
      </trkpt>
      <trkpt lat="35.168446" lon="129.13789">
        <ele>7.4</ele>
      </trkpt>
      <trkpt lat="35.168058" lon="129.137181">
        <ele>7.4</ele>
      </trkpt>
      <trkpt lat="35.167976" lon="129.137042">
        <ele>7.4</ele>
      </trkpt>
      <trkpt lat="35.167396" lon="129.135957">
        <ele>7.4</ele>
      </trkpt>
      <trkpt lat="35.16740608286416" lon="129.13595080375674">
        <ele>7.4</ele>
      </trkpt>
      <trkpt lat="35.167396" lon="129.135957">
        <ele>7.4</ele>
      </trkpt>
      <trkpt lat="35.167327" lon="129.135829">
        <ele>7.4</ele>
      </trkpt>
      <trkpt lat="35.167159" lon="129.135526">
        <ele>7.4</ele>
      </trkpt>
      <trkpt lat="35.166695" lon="129.134732">
        <ele>7.3</ele>
      </trkpt>
      <trkpt lat="35.166519" lon="129.134551">
        <ele>7.3</ele>
      </trkpt>
      <trkpt lat="35.166534" lon="129.134605">
        <ele>7.3</ele>
      </trkpt>
      <trkpt lat="35.16654218103233" lon="129.13460433483127">
        <ele>7.3</ele>
      </trkpt>
    </trkseg>
  </trk>
</gpx>