<?xml version="1.0" encoding="UTF-8"?>
<gpx version="1.1" creator="HTML GPX Creator" xmlns="http://www.topografix.com/GPX/1/1">
  <trk>
    <name>Pohang_2_Battery_marathon</name>
    <trkseg>
      <trkpt lat="36.02334911989295" lon="129.37723159790042">
        <ele>2.4</ele>
      </trkpt>
      <trkpt lat="36.023329" lon="129.37722">
        <ele>2.4</ele>
      </trkpt>
      <trkpt lat="36.02334" lon="129.377193">
        <ele>2.4</ele>
      </trkpt>
      <trkpt lat="36.023402" lon="129.377228">
        <ele>2.5</ele>
      </trkpt>
      <trkpt lat="36.023541" lon="129.377312">
        <ele>2.5</ele>
      </trkpt>
      <trkpt lat="36.023714" lon="129.377411">
        <ele>2.5</ele>
      </trkpt>
      <trkpt lat="36.023786" lon="129.377438">
        <ele>2.5</ele>
      </trkpt>
      <trkpt lat="36.02386" lon="129.37746">
        <ele>2.5</ele>
      </trkpt>
      <trkpt lat="36.023951" lon="129.377468">
        <ele>2.5</ele>
      </trkpt>
      <trkpt lat="36.02414" lon="129.377493">
        <ele>2.5</ele>
      </trkpt>
      <trkpt lat="36.02432" lon="129.377597">
        <ele>2.6</ele>
      </trkpt>
      <trkpt lat="36.024363" lon="129.377622">
        <ele>2.6</ele>
      </trkpt>
      <trkpt lat="36.024534" lon="129.377721">
        <ele>2.6</ele>
      </trkpt>
      <trkpt lat="36.02453789281389" lon="129.3777143955231">
        <ele>2.6</ele>
      </trkpt>
      <trkpt lat="36.024534" lon="129.377721">
        <ele>2.6</ele>
      </trkpt>
      <trkpt lat="36.024363" lon="129.377622">
        <ele>2.6</ele>
      </trkpt>
      <trkpt lat="36.024793" lon="129.377735">
        <ele>2.6</ele>
      </trkpt>
      <trkpt lat="36.025117" lon="129.377956">
        <ele>2.6</ele>
      </trkpt>
      <trkpt lat="36.025101902889695" lon="129.37799334526065">
        <ele>2.6</ele>
      </trkpt>
      <trkpt lat="36.025117" lon="129.377956">
        <ele>2.6</ele>
      </trkpt>
      <trkpt lat="36.025247" lon="129.378046">
        <ele>2.6</ele>
      </trkpt>
      <trkpt lat="36.026766" lon="129.37891">
        <ele>2.6</ele>
      </trkpt>
      <trkpt lat="36.02678523203102" lon="129.37886238098147">
        <ele>2.6</ele>
      </trkpt>
      <trkpt lat="36.026766" lon="129.37891">
        <ele>2.6</ele>
      </trkpt>
      <trkpt lat="36.028658" lon="129.379988">
        <ele>2.5</ele>
      </trkpt>
      <trkpt lat="36.028973" lon="129.380188">
        <ele>2.5</ele>
      </trkpt>
      <trkpt lat="36.028971770821094" lon="129.38019275665286">
        <ele>2.5</ele>
      </trkpt>
      <trkpt lat="36.028973" lon="129.380188">
        <ele>2.4</ele>
      </trkpt>
      <trkpt lat="36.029075" lon="129.380254">
        <ele>2.4</ele>
      </trkpt>
      <trkpt lat="36.029239" lon="129.380368">
        <ele>2.3</ele>
      </trkpt>
      <trkpt lat="36.029524" lon="129.380583">
        <ele>2.3</ele>
      </trkpt>
      <trkpt lat="36.029869" lon="129.380881">
        <ele>2.3</ele>
      </trkpt>
      <trkpt lat="36.030022" lon="129.381019">
        <ele>2.2</ele>
      </trkpt>
      <trkpt lat="36.030342" lon="129.381332">
        <ele>2.2</ele>
      </trkpt>
      <trkpt lat="36.030468" lon="129.381468">
        <ele>2.2</ele>
      </trkpt>
      <trkpt lat="36.030663" lon="129.381704">
        <ele>2.1</ele>
      </trkpt>
      <trkpt lat="36.030672370145226" lon="129.3816947937012">
        <ele>2.1</ele>
      </trkpt>
      <trkpt lat="36.030663" lon="129.381704">
        <ele>2.1</ele>
      </trkpt>
      <trkpt lat="36.030709" lon="129.38176">
        <ele>2.1</ele>
      </trkpt>
      <trkpt lat="36.030993" lon="129.382131">
        <ele>2.0</ele>
      </trkpt>
      <trkpt lat="36.031076" lon="129.382226">
        <ele>2.0</ele>
      </trkpt>
      <trkpt lat="36.031165" lon="129.382312">
        <ele>2.0</ele>
      </trkpt>
      <trkpt lat="36.03124" lon="129.38237">
        <ele>2.0</ele>
      </trkpt>
      <trkpt lat="36.031301" lon="129.38241">
        <ele>2.0</ele>
      </trkpt>
      <trkpt lat="36.031446" lon="129.38248">
        <ele>2.0</ele>
      </trkpt>
      <trkpt lat="36.031528" lon="129.382502">
        <ele>2.0</ele>
      </trkpt>
      <trkpt lat="36.03162" lon="129.382516">
        <ele>2.0</ele>
      </trkpt>
      <trkpt lat="36.031717" lon="129.382514">
        <ele>2.0</ele>
      </trkpt>
      <trkpt lat="36.031828" lon="129.382499">
        <ele>2.0</ele>
      </trkpt>
      <trkpt lat="36.031924" lon="129.382475">
        <ele>2.0</ele>
      </trkpt>
      <trkpt lat="36.032015" lon="129.38245">
        <ele>2.0</ele>
      </trkpt>
      <trkpt lat="36.032025882143856" lon="129.3824887275696">
        <ele>2.0</ele>
      </trkpt>
      <trkpt lat="36.032015" lon="129.38245">
        <ele>2.1</ele>
      </trkpt>
      <trkpt lat="36.032088" lon="129.382417">
        <ele>2.1</ele>
      </trkpt>
      <trkpt lat="36.032165" lon="129.382376">
        <ele>2.2</ele>
      </trkpt>
      <trkpt lat="36.032255" lon="129.382316">
        <ele>2.3</ele>
      </trkpt>
      <trkpt lat="36.033955" lon="129.380969">
        <ele>2.3</ele>
      </trkpt>
      <trkpt lat="36.034283" lon="129.380725">
        <ele>2.4</ele>
      </trkpt>
      <trkpt lat="36.034566" lon="129.380535">
        <ele>2.4</ele>
      </trkpt>
      <trkpt lat="36.034576668460666" lon="129.3805575370789">
        <ele>2.5</ele>
      </trkpt>
      <trkpt lat="36.034566" lon="129.380535">
        <ele>2.6</ele>
      </trkpt>
      <trkpt lat="36.034571" lon="129.380532">
        <ele>2.6</ele>
      </trkpt>
      <trkpt lat="36.03564" lon="129.379856">
        <ele>2.7</ele>
      </trkpt>
      <trkpt lat="36.036352" lon="129.379406">
        <ele>2.8</ele>
      </trkpt>
      <trkpt lat="36.036618" lon="129.379253">
        <ele>2.8</ele>
      </trkpt>
      <trkpt lat="36.036689" lon="129.379215">
        <ele>2.8</ele>
      </trkpt>
      <trkpt lat="36.036977" lon="129.379069">
        <ele>2.9</ele>
      </trkpt>
      <trkpt lat="36.037218" lon="129.378959">
        <ele>2.9</ele>
      </trkpt>
      <trkpt lat="36.03723148076991" lon="129.37900185585025">
        <ele>2.9</ele>
      </trkpt>
      <trkpt lat="36.037218" lon="129.378959">
        <ele>2.9</ele>
      </trkpt>
      <trkpt lat="36.038319" lon="129.378462">
        <ele>3.0</ele>
      </trkpt>
      <trkpt lat="36.038768" lon="129.378259">
        <ele>3.0</ele>
      </trkpt>
      <trkpt lat="36.039516" lon="129.377921">
        <ele>3.0</ele>
      </trkpt>
      <trkpt lat="36.03951315970665" lon="129.37790751457217">
        <ele>3.0</ele>
      </trkpt>
      <trkpt lat="36.039516" lon="129.377921">
        <ele>3.0</ele>
      </trkpt>
      <trkpt lat="36.039999" lon="129.377703">
        <ele>3.1</ele>
      </trkpt>
      <trkpt lat="36.040046" lon="129.377682">
        <ele>3.1</ele>
      </trkpt>
      <trkpt lat="36.040107" lon="129.377654">
        <ele>3.2</ele>
      </trkpt>
      <trkpt lat="36.040811" lon="129.377333">
        <ele>3.2</ele>
      </trkpt>
      <trkpt lat="36.040944" lon="129.377272">
        <ele>3.3</ele>
      </trkpt>
      <trkpt lat="36.04094459753482" lon="129.37727451324466">
        <ele>3.4</ele>
      </trkpt>
      <trkpt lat="36.040944" lon="129.377272">
        <ele>3.4</ele>
      </trkpt>
      <trkpt lat="36.042191" lon="129.376703">
        <ele>3.5</ele>
      </trkpt>
      <trkpt lat="36.042423" lon="129.376603">
        <ele>3.5</ele>
      </trkpt>
      <trkpt lat="36.042568" lon="129.376548">
        <ele>3.6</ele>
      </trkpt>
      <trkpt lat="36.042833" lon="129.37647">
        <ele>3.6</ele>
      </trkpt>
      <trkpt lat="36.042946" lon="129.376448">
        <ele>3.7</ele>
      </trkpt>
      <trkpt lat="36.043112" lon="129.376427">
        <ele>3.7</ele>
      </trkpt>
      <trkpt lat="36.043113393147564" lon="129.37642693519595">
        <ele>3.8</ele>
      </trkpt>
      <trkpt lat="36.043112" lon="129.376427">
        <ele>3.9</ele>
      </trkpt>
      <trkpt lat="36.043184" lon="129.376418">
        <ele>4.0</ele>
      </trkpt>
      <trkpt lat="36.045595" lon="129.376258">
        <ele>4.0</ele>
      </trkpt>
      <trkpt lat="36.04559442206765" lon="129.37623381614688">
        <ele>4.1</ele>
      </trkpt>
      <trkpt lat="36.045595" lon="129.376258">
        <ele>4.2</ele>
      </trkpt>
      <trkpt lat="36.045843" lon="129.376242">
        <ele>4.3</ele>
      </trkpt>
      <trkpt lat="36.045924" lon="129.376234">
        <ele>4.4</ele>
      </trkpt>
      <trkpt lat="36.046017" lon="129.376219">
        <ele>4.4</ele>
      </trkpt>
      <trkpt lat="36.046117" lon="129.376193">
        <ele>4.5</ele>
      </trkpt>
      <trkpt lat="36.046047" lon="129.375982">
        <ele>4.6</ele>
      </trkpt>
      <trkpt lat="36.046062859313025" lon="129.37597632408145">
        <ele>4.7</ele>
      </trkpt>
      <trkpt lat="36.046047" lon="129.375982">
        <ele>4.8</ele>
      </trkpt>
      <trkpt lat="36.045952" lon="129.375694">
        <ele>4.9</ele>
      </trkpt>
      <trkpt lat="36.045798" lon="129.375213">
        <ele>5.0</ele>
      </trkpt>
      <trkpt lat="36.045717" lon="129.375024">
        <ele>5.0</ele>
      </trkpt>
      <trkpt lat="36.045671" lon="129.374949">
        <ele>5.1</ele>
      </trkpt>
      <trkpt lat="36.045569" lon="129.374834">
        <ele>5.2</ele>
      </trkpt>
      <trkpt lat="36.045399" lon="129.374683">
        <ele>5.2</ele>
      </trkpt>
      <trkpt lat="36.045104" lon="129.374447">
        <ele>5.2</ele>
      </trkpt>
      <trkpt lat="36.045071" lon="129.374423">
        <ele>5.2</ele>
      </trkpt>
      <trkpt lat="36.04507393297048" lon="129.3744206428528">
        <ele>5.2</ele>
      </trkpt>
      <trkpt lat="36.045071" lon="129.374423">
        <ele>5.2</ele>
      </trkpt>
      <trkpt lat="36.044916" lon="129.374307">
        <ele>5.1</ele>
      </trkpt>
      <trkpt lat="36.044749" lon="129.374196">
        <ele>5.1</ele>
      </trkpt>
      <trkpt lat="36.04466" lon="129.374147">
        <ele>5.1</ele>
      </trkpt>
      <trkpt lat="36.044473" lon="129.374067">
        <ele>5.0</ele>
      </trkpt>
      <trkpt lat="36.044309" lon="129.374005">
        <ele>5.0</ele>
      </trkpt>
      <trkpt lat="36.044215" lon="129.373979">
        <ele>4.9</ele>
      </trkpt>
      <trkpt lat="36.044036" lon="129.373944">
        <ele>4.8</ele>
      </trkpt>
      <trkpt lat="36.043928" lon="129.373935">
        <ele>4.7</ele>
      </trkpt>
      <trkpt lat="36.042193" lon="129.37383">
        <ele>4.6</ele>
      </trkpt>
      <trkpt lat="36.041968" lon="129.373819">
        <ele>4.5</ele>
      </trkpt>
      <trkpt lat="36.041962" lon="129.373836">
        <ele>4.4</ele>
      </trkpt>
      <trkpt lat="36.041950926127576" lon="129.37383055686954">
        <ele>4.3</ele>
      </trkpt>
      <trkpt lat="36.041962" lon="129.373836">
        <ele>4.2</ele>
      </trkpt>
      <trkpt lat="36.041968" lon="129.373819">
        <ele>4.1</ele>
      </trkpt>
      <trkpt lat="36.041897" lon="129.373803">
        <ele>4.0</ele>
      </trkpt>
      <trkpt lat="36.041832" lon="129.373774">
        <ele>3.9</ele>
      </trkpt>
      <trkpt lat="36.041773" lon="129.373732">
        <ele>3.8</ele>
      </trkpt>
      <trkpt lat="36.041693" lon="129.37366">
        <ele>3.7</ele>
      </trkpt>
      <trkpt lat="36.041663" lon="129.373618">
        <ele>3.5</ele>
      </trkpt>
      <trkpt lat="36.041637" lon="129.373567">
        <ele>3.5</ele>
      </trkpt>
      <trkpt lat="36.041606" lon="129.373481">
        <ele>3.3</ele>
      </trkpt>
      <trkpt lat="36.041549" lon="129.373274">
        <ele>3.2</ele>
      </trkpt>
      <trkpt lat="36.041498" lon="129.373109">
        <ele>3.1</ele>
      </trkpt>
      <trkpt lat="36.041448" lon="129.372995">
        <ele>3.0</ele>
      </trkpt>
      <trkpt lat="36.041396" lon="129.372896">
        <ele>3.0</ele>
      </trkpt>
      <trkpt lat="36.041279" lon="129.372731">
        <ele>2.9</ele>
      </trkpt>
      <trkpt lat="36.041171" lon="129.372626">
        <ele>2.9</ele>
      </trkpt>
      <trkpt lat="36.04117015506183" lon="129.37262892723086">
        <ele>2.8</ele>
      </trkpt>
      <trkpt lat="36.041171" lon="129.372626">
        <ele>2.8</ele>
      </trkpt>
      <trkpt lat="36.041167" lon="129.372623">
        <ele>2.8</ele>
      </trkpt>
      <trkpt lat="36.041067" lon="129.372562">
        <ele>2.8</ele>
      </trkpt>
      <trkpt lat="36.04094" lon="129.372522">
        <ele>2.8</ele>
      </trkpt>
      <trkpt lat="36.040495" lon="129.372441">
        <ele>2.8</ele>
      </trkpt>
      <trkpt lat="36.040093" lon="129.372369">
        <ele>2.8</ele>
      </trkpt>
      <trkpt lat="36.039947" lon="129.372342">
        <ele>2.8</ele>
      </trkpt>
      <trkpt lat="36.039956" lon="129.372277">
        <ele>2.8</ele>
      </trkpt>
      <trkpt lat="36.03994693149336" lon="129.3722748756409">
        <ele>2.9</ele>
      </trkpt>
      <trkpt lat="36.039956" lon="129.372277">
        <ele>2.9</ele>
      </trkpt>
      <trkpt lat="36.039978" lon="129.372132">
        <ele>2.9</ele>
      </trkpt>
      <trkpt lat="36.040212" lon="129.370366">
        <ele>3.0</ele>
      </trkpt>
      <trkpt lat="36.04025" lon="129.370106">
        <ele>3.0</ele>
      </trkpt>
      <trkpt lat="36.04025924570022" lon="129.37010765075686">
        <ele>3.1</ele>
      </trkpt>
      <trkpt lat="36.04025" lon="129.370106">
        <ele>3.1</ele>
      </trkpt>
      <trkpt lat="36.040257" lon="129.37006">
        <ele>3.2</ele>
      </trkpt>
      <trkpt lat="36.041588" lon="129.370293">
        <ele>3.3</ele>
      </trkpt>
      <trkpt lat="36.042452" lon="129.370448">
        <ele>3.3</ele>
      </trkpt>
      <trkpt lat="36.042717" lon="129.370511">
        <ele>3.4</ele>
      </trkpt>
      <trkpt lat="36.04272301434588" lon="129.37048316001895">
        <ele>3.5</ele>
      </trkpt>
      <trkpt lat="36.042717" lon="129.370511">
        <ele>3.6</ele>
      </trkpt>
      <trkpt lat="36.043163" lon="129.370618">
        <ele>3.6</ele>
      </trkpt>
      <trkpt lat="36.043528" lon="129.370724">
        <ele>3.7</ele>
      </trkpt>
      <trkpt lat="36.044551" lon="129.370995">
        <ele>3.8</ele>
      </trkpt>
      <trkpt lat="36.045781" lon="129.371325">
        <ele>3.9</ele>
      </trkpt>
      <trkpt lat="36.04578526720776" lon="129.37130928039554">
        <ele>4.0</ele>
      </trkpt>
      <trkpt lat="36.045781" lon="129.371325">
        <ele>4.1</ele>
      </trkpt>
      <trkpt lat="36.04584" lon="129.371341">
        <ele>4.2</ele>
      </trkpt>
      <trkpt lat="36.046836" lon="129.3716">
        <ele>4.2</ele>
      </trkpt>
      <trkpt lat="36.047458" lon="129.371778">
        <ele>4.3</ele>
      </trkpt>
      <trkpt lat="36.047459479742095" lon="129.37178134918216">
        <ele>4.4</ele>
      </trkpt>
      <trkpt lat="36.047458" lon="129.371778">
        <ele>4.5</ele>
      </trkpt>
      <trkpt lat="36.047813" lon="129.37188">
        <ele>4.5</ele>
      </trkpt>
      <trkpt lat="36.0483" lon="129.371989">
        <ele>4.6</ele>
      </trkpt>
      <trkpt lat="36.048687" lon="129.372034">
        <ele>4.7</ele>
      </trkpt>
      <trkpt lat="36.048794" lon="129.372049">
        <ele>4.7</ele>
      </trkpt>
      <trkpt lat="36.048954" lon="129.372068">
        <ele>4.8</ele>
      </trkpt>
      <trkpt lat="36.049249" lon="129.37212">
        <ele>4.9</ele>
      </trkpt>
      <trkpt lat="36.049334" lon="129.372126">
        <ele>4.9</ele>
      </trkpt>
      <trkpt lat="36.049458" lon="129.372134">
        <ele>5.0</ele>
      </trkpt>
      <trkpt lat="36.049887" lon="129.372116">
        <ele>5.1</ele>
      </trkpt>
      <trkpt lat="36.049949" lon="129.372114">
        <ele>5.1</ele>
      </trkpt>
      <trkpt lat="36.04994904601324" lon="129.37210321426394">
        <ele>5.2</ele>
      </trkpt>
      <trkpt lat="36.049949" lon="129.372114">
        <ele>5.3</ele>
      </trkpt>
      <trkpt lat="36.050189" lon="129.372111">
        <ele>5.3</ele>
      </trkpt>
      <trkpt lat="36.05039" lon="129.372157">
        <ele>5.4</ele>
      </trkpt>
      <trkpt lat="36.05073" lon="129.37226">
        <ele>5.4</ele>
      </trkpt>
      <trkpt lat="36.050977" lon="129.372364">
        <ele>5.5</ele>
      </trkpt>
      <trkpt lat="36.051121" lon="129.372462">
        <ele>5.5</ele>
      </trkpt>
      <trkpt lat="36.051187" lon="129.372526">
        <ele>5.6</ele>
      </trkpt>
      <trkpt lat="36.051255" lon="129.372601">
        <ele>5.6</ele>
      </trkpt>
      <trkpt lat="36.051322" lon="129.372691">
        <ele>5.7</ele>
      </trkpt>
      <trkpt lat="36.051382" lon="129.372787">
        <ele>5.7</ele>
      </trkpt>
      <trkpt lat="36.051481" lon="129.37297">
        <ele>5.8</ele>
      </trkpt>
      <trkpt lat="36.05149305800914" lon="129.3729615211487">
        <ele>5.8</ele>
      </trkpt>
      <trkpt lat="36.051481" lon="129.37297">
        <ele>5.8</ele>
      </trkpt>
      <trkpt lat="36.051542" lon="129.373083">
        <ele>5.9</ele>
      </trkpt>
      <trkpt lat="36.051908" lon="129.373799">
        <ele>5.9</ele>
      </trkpt>
      <trkpt lat="36.051996" lon="129.374017">
        <ele>6.0</ele>
      </trkpt>
      <trkpt lat="36.052049" lon="129.374208">
        <ele>6.0</ele>
      </trkpt>
      <trkpt lat="36.052108" lon="129.374521">
        <ele>6.0</ele>
      </trkpt>
      <trkpt lat="36.052192" lon="129.374965">
        <ele>6.1</ele>
      </trkpt>
      <trkpt lat="36.052328" lon="129.375742">
        <ele>6.1</ele>
      </trkpt>
      <trkpt lat="36.052366" lon="129.375989">
        <ele>6.1</ele>
      </trkpt>
      <trkpt lat="36.05242" lon="129.376436">
        <ele>6.2</ele>
      </trkpt>
      <trkpt lat="36.052496" lon="129.37712">
        <ele>6.2</ele>
      </trkpt>
      <trkpt lat="36.052515" lon="129.377192">
        <ele>6.2</ele>
      </trkpt>
      <trkpt lat="36.052522" lon="129.377206">
        <ele>6.2</ele>
      </trkpt>
      <trkpt lat="36.05253394788121" lon="129.37719941139224">
        <ele>6.3</ele>
      </trkpt>
      <trkpt lat="36.052522" lon="129.377206">
        <ele>6.3</ele>
      </trkpt>
      <trkpt lat="36.052543" lon="129.377251">
        <ele>6.3</ele>
      </trkpt>
      <trkpt lat="36.052576" lon="129.377291">
        <ele>6.4</ele>
      </trkpt>
      <trkpt lat="36.05261" lon="129.377318">
        <ele>6.4</ele>
      </trkpt>
      <trkpt lat="36.052649" lon="129.377338">
        <ele>6.4</ele>
      </trkpt>
      <trkpt lat="36.052699" lon="129.37735">
        <ele>6.4</ele>
      </trkpt>
      <trkpt lat="36.052763" lon="129.377352">
        <ele>6.4</ele>
      </trkpt>
      <trkpt lat="36.053088" lon="129.377318">
        <ele>6.5</ele>
      </trkpt>
      <trkpt lat="36.053717" lon="129.377277">
        <ele>6.5</ele>
      </trkpt>
      <trkpt lat="36.053913" lon="129.377261">
        <ele>6.5</ele>
      </trkpt>
      <trkpt lat="36.054339" lon="129.37726">
        <ele>6.5</ele>
      </trkpt>
      <trkpt lat="36.054505" lon="129.377267">
        <ele>6.5</ele>
      </trkpt>
      <trkpt lat="36.054676" lon="129.377299">
        <ele>6.5</ele>
      </trkpt>
      <trkpt lat="36.054785" lon="129.377312">
        <ele>6.5</ele>
      </trkpt>
      <trkpt lat="36.055058" lon="129.377376">
        <ele>6.5</ele>
      </trkpt>
      <trkpt lat="36.055131" lon="129.377397">
        <ele>6.4</ele>
      </trkpt>
      <trkpt lat="36.05512743860016" lon="129.3774247169495">
        <ele>6.4</ele>
      </trkpt>
      <trkpt lat="36.055131" lon="129.377397">
        <ele>6.3</ele>
      </trkpt>
      <trkpt lat="36.055789" lon="129.377589">
        <ele>6.3</ele>
      </trkpt>
      <trkpt lat="36.056136" lon="129.37771">
        <ele>6.2</ele>
      </trkpt>
      <trkpt lat="36.05643" lon="129.377826">
        <ele>6.1</ele>
      </trkpt>
      <trkpt lat="36.057553" lon="129.378307">
        <ele>6.1</ele>
      </trkpt>
      <trkpt lat="36.057656" lon="129.378359">
        <ele>6.0</ele>
      </trkpt>
      <trkpt lat="36.057668" lon="129.378367">
        <ele>5.9</ele>
      </trkpt>
      <trkpt lat="36.057660129661066" lon="129.37839031219485">
        <ele>5.9</ele>
      </trkpt>
      <trkpt lat="36.057668" lon="129.378367">
        <ele>5.8</ele>
      </trkpt>
      <trkpt lat="36.057945" lon="129.378537">
        <ele>5.8</ele>
      </trkpt>
      <trkpt lat="36.058052" lon="129.378601">
        <ele>5.7</ele>
      </trkpt>
      <trkpt lat="36.058994" lon="129.379169">
        <ele>5.6</ele>
      </trkpt>
      <trkpt lat="36.059266" lon="129.379329">
        <ele>5.6</ele>
      </trkpt>
      <trkpt lat="36.059941" lon="129.379717">
        <ele>5.5</ele>
      </trkpt>
      <trkpt lat="36.05993254335813" lon="129.37974214553836">
        <ele>5.4</ele>
      </trkpt>
      <trkpt lat="36.059941" lon="129.379717">
        <ele>5.3</ele>
      </trkpt>
      <trkpt lat="36.060283" lon="129.379914">
        <ele>5.2</ele>
      </trkpt>
      <trkpt lat="36.060458" lon="129.380027">
        <ele>5.2</ele>
      </trkpt>
      <trkpt lat="36.060535" lon="129.380088">
        <ele>5.1</ele>
      </trkpt>
      <trkpt lat="36.060669" lon="129.380224">
        <ele>5.0</ele>
      </trkpt>
      <trkpt lat="36.060875" lon="129.380444">
        <ele>4.9</ele>
      </trkpt>
      <trkpt lat="36.061137" lon="129.3808">
        <ele>4.9</ele>
      </trkpt>
      <trkpt lat="36.061156" lon="129.380822">
        <ele>4.8</ele>
      </trkpt>
      <trkpt lat="36.061214" lon="129.38088">
        <ele>4.8</ele>
      </trkpt>
      <trkpt lat="36.061641" lon="129.381304">
        <ele>4.8</ele>
      </trkpt>
      <trkpt lat="36.062274" lon="129.382003">
        <ele>4.8</ele>
      </trkpt>
      <trkpt lat="36.06227427507379" lon="129.38200592994693">
        <ele>4.8</ele>
      </trkpt>
      <trkpt lat="36.062274" lon="129.382003">
        <ele>4.8</ele>
      </trkpt>
      <trkpt lat="36.062485" lon="129.382237">
        <ele>4.9</ele>
      </trkpt>
      <trkpt lat="36.062647" lon="129.382416">
        <ele>4.9</ele>
      </trkpt>
      <trkpt lat="36.062911" lon="129.382756">
        <ele>5.0</ele>
      </trkpt>
      <trkpt lat="36.063065" lon="129.382943">
        <ele>5.1</ele>
      </trkpt>
      <trkpt lat="36.063101" lon="129.382981">
        <ele>5.2</ele>
      </trkpt>
      <trkpt lat="36.06342" lon="129.383324">
        <ele>5.3</ele>
      </trkpt>
      <trkpt lat="36.063608" lon="129.383536">
        <ele>5.4</ele>
      </trkpt>
      <trkpt lat="36.063767" lon="129.383746">
        <ele>5.5</ele>
      </trkpt>
      <trkpt lat="36.063852" lon="129.383864">
        <ele>5.6</ele>
      </trkpt>
      <trkpt lat="36.063874" lon="129.383892">
        <ele>5.8</ele>
      </trkpt>
      <trkpt lat="36.064162" lon="129.384261">
        <ele>5.8</ele>
      </trkpt>
      <trkpt lat="36.0641562830115" lon="129.3842697143555">
        <ele>5.9</ele>
      </trkpt>
      <trkpt lat="36.064162" lon="129.384261">
        <ele>6.0</ele>
      </trkpt>
      <trkpt lat="36.064175" lon="129.384277">
        <ele>6.1</ele>
      </trkpt>
      <trkpt lat="36.064463" lon="129.384992">
        <ele>6.2</ele>
      </trkpt>
      <trkpt lat="36.064521" lon="129.385155">
        <ele>6.3</ele>
      </trkpt>
      <trkpt lat="36.064552" lon="129.385267">
        <ele>6.4</ele>
      </trkpt>
      <trkpt lat="36.064576" lon="129.385446">
        <ele>6.5</ele>
      </trkpt>
      <trkpt lat="36.064581" lon="129.385606">
        <ele>6.5</ele>
      </trkpt>
      <trkpt lat="36.064592" lon="129.386186">
        <ele>6.6</ele>
      </trkpt>
      <trkpt lat="36.06459" lon="129.386406">
        <ele>6.7</ele>
      </trkpt>
      <trkpt lat="36.064583" lon="129.386506">
        <ele>6.8</ele>
      </trkpt>
      <trkpt lat="36.064573" lon="129.386566">
        <ele>6.8</ele>
      </trkpt>
      <trkpt lat="36.06457257361783" lon="129.38656568527225">
        <ele>6.8</ele>
      </trkpt>
      <trkpt lat="36.064573" lon="129.386566">
        <ele>6.9</ele>
      </trkpt>
      <trkpt lat="36.064556" lon="129.386676">
        <ele>6.9</ele>
      </trkpt>
      <trkpt lat="36.064464" lon="129.386977">
        <ele>6.9</ele>
      </trkpt>
      <trkpt lat="36.064396" lon="129.387148">
        <ele>6.9</ele>
      </trkpt>
      <trkpt lat="36.064374" lon="129.387185">
        <ele>6.9</ele>
      </trkpt>
      <trkpt lat="36.064315" lon="129.387269">
        <ele>6.8</ele>
      </trkpt>
      <trkpt lat="36.064222" lon="129.387355">
        <ele>6.8</ele>
      </trkpt>
      <trkpt lat="36.06409" lon="129.387436">
        <ele>6.7</ele>
      </trkpt>
      <trkpt lat="36.063852" lon="129.387559">
        <ele>6.6</ele>
      </trkpt>
      <trkpt lat="36.063616" lon="129.387687">
        <ele>6.5</ele>
      </trkpt>
      <trkpt lat="36.063535" lon="129.38774">
        <ele>6.4</ele>
      </trkpt>
      <trkpt lat="36.063473" lon="129.387801">
        <ele>6.3</ele>
      </trkpt>
      <trkpt lat="36.063437" lon="129.387849">
        <ele>6.3</ele>
      </trkpt>
      <trkpt lat="36.063384" lon="129.387987">
        <ele>6.2</ele>
      </trkpt>
      <trkpt lat="36.06336" lon="129.388085">
        <ele>6.1</ele>
      </trkpt>
      <trkpt lat="36.063289" lon="129.388343">
        <ele>6.0</ele>
      </trkpt>
      <trkpt lat="36.063122" lon="129.388781">
        <ele>5.9</ele>
      </trkpt>
      <trkpt lat="36.06315023828574" lon="129.38879728317264">
        <ele>5.9</ele>
      </trkpt>
      <trkpt lat="36.063122" lon="129.388781">
        <ele>5.8</ele>
      </trkpt>
      <trkpt lat="36.063043" lon="129.388991">
        <ele>5.8</ele>
      </trkpt>
      <trkpt lat="36.062838" lon="129.389534">
        <ele>5.8</ele>
      </trkpt>
      <trkpt lat="36.062813" lon="129.389613">
        <ele>5.9</ele>
      </trkpt>
      <trkpt lat="36.062785" lon="129.389754">
        <ele>5.9</ele>
      </trkpt>
      <trkpt lat="36.062784" lon="129.389779">
        <ele>6.0</ele>
      </trkpt>
      <trkpt lat="36.06279" lon="129.3899">
        <ele>6.1</ele>
      </trkpt>
      <trkpt lat="36.062805" lon="129.389981">
        <ele>6.2</ele>
      </trkpt>
      <trkpt lat="36.063061" lon="129.391062">
        <ele>6.3</ele>
      </trkpt>
      <trkpt lat="36.063037491092444" lon="129.39107179641726">
        <ele>6.4</ele>
      </trkpt>
      <trkpt lat="36.063061" lon="129.391062">
        <ele>6.5</ele>
      </trkpt>
      <trkpt lat="36.063311" lon="129.392111">
        <ele>6.7</ele>
      </trkpt>
      <trkpt lat="36.063343" lon="129.392264">
        <ele>6.8</ele>
      </trkpt>
      <trkpt lat="36.063388" lon="129.39255">
        <ele>6.9</ele>
      </trkpt>
      <trkpt lat="36.063402" lon="129.392854">
        <ele>7.0</ele>
      </trkpt>
      <trkpt lat="36.063404" lon="129.393023">
        <ele>7.0</ele>
      </trkpt>
      <trkpt lat="36.063398" lon="129.393185">
        <ele>7.1</ele>
      </trkpt>
      <trkpt lat="36.063311" lon="129.394129">
        <ele>7.2</ele>
      </trkpt>
      <trkpt lat="36.063269" lon="129.394545">
        <ele>7.3</ele>
      </trkpt>
      <trkpt lat="36.063289003840325" lon="129.39454793930057">
        <ele>7.5</ele>
      </trkpt>
      <trkpt lat="36.063269" lon="129.394545">
        <ele>7.6</ele>
      </trkpt>
      <trkpt lat="36.063265" lon="129.394594">
        <ele>7.7</ele>
      </trkpt>
      <trkpt lat="36.063257" lon="129.394741">
        <ele>7.9</ele>
      </trkpt>
      <trkpt lat="36.06325" lon="129.395594">
        <ele>8.0</ele>
      </trkpt>
      <trkpt lat="36.063255" lon="129.395699">
        <ele>8.1</ele>
      </trkpt>
      <trkpt lat="36.063275" lon="129.395889">
        <ele>8.2</ele>
      </trkpt>
      <trkpt lat="36.063298" lon="129.395991">
        <ele>8.3</ele>
      </trkpt>
      <trkpt lat="36.063331" lon="129.396101">
        <ele>8.4</ele>
      </trkpt>
      <trkpt lat="36.063373" lon="129.396213">
        <ele>8.5</ele>
      </trkpt>
      <trkpt lat="36.063468" lon="129.396409">
        <ele>8.6</ele>
      </trkpt>
      <trkpt lat="36.06352" lon="129.396495">
        <ele>8.6</ele>
      </trkpt>
      <trkpt lat="36.063983" lon="129.39719">
        <ele>8.6</ele>
      </trkpt>
      <trkpt lat="36.0640088462269" lon="129.3971657752991">
        <ele>8.6</ele>
      </trkpt>
      <trkpt lat="36.063983" lon="129.39719">
        <ele>8.6</ele>
      </trkpt>
      <trkpt lat="36.064295" lon="129.397656">
        <ele>8.6</ele>
      </trkpt>
      <trkpt lat="36.064438" lon="129.397848">
        <ele>8.5</ele>
      </trkpt>
      <trkpt lat="36.064593" lon="129.398">
        <ele>8.4</ele>
      </trkpt>
      <trkpt lat="36.065967" lon="129.399192">
        <ele>8.3</ele>
      </trkpt>
      <trkpt lat="36.066078" lon="129.399288">
        <ele>8.2</ele>
      </trkpt>
      <trkpt lat="36.06607293606863" lon="129.39930081367496">
        <ele>8.0</ele>
      </trkpt>
      <trkpt lat="36.066078" lon="129.399288">
        <ele>7.9</ele>
      </trkpt>
      <trkpt lat="36.066241" lon="129.399427">
        <ele>7.8</ele>
      </trkpt>
      <trkpt lat="36.066381" lon="129.399531">
        <ele>7.7</ele>
      </trkpt>
      <trkpt lat="36.066506" lon="129.399603">
        <ele>7.6</ele>
      </trkpt>
      <trkpt lat="36.066667" lon="129.399661">
        <ele>7.6</ele>
      </trkpt>
      <trkpt lat="36.067364" lon="129.399878">
        <ele>7.5</ele>
      </trkpt>
      <trkpt lat="36.067881" lon="129.400039">
        <ele>7.5</ele>
      </trkpt>
      <trkpt lat="36.06787680217293" lon="129.40006256103518">
        <ele>7.5</ele>
      </trkpt>
      <trkpt lat="36.067881" lon="129.400039">
        <ele>7.4</ele>
      </trkpt>
      <trkpt lat="36.068147" lon="129.400123">
        <ele>7.4</ele>
      </trkpt>
      <trkpt lat="36.068562" lon="129.400259">
        <ele>7.3</ele>
      </trkpt>
      <trkpt lat="36.068655" lon="129.400298">
        <ele>7.3</ele>
      </trkpt>
      <trkpt lat="36.068831" lon="129.400403">
        <ele>7.2</ele>
      </trkpt>
      <trkpt lat="36.068933" lon="129.400483">
        <ele>7.2</ele>
      </trkpt>
      <trkpt lat="36.069088" lon="129.400635">
        <ele>7.1</ele>
      </trkpt>
      <trkpt lat="36.069355" lon="129.400904">
        <ele>7.0</ele>
      </trkpt>
      <trkpt lat="36.069489" lon="129.40103">
        <ele>7.0</ele>
      </trkpt>
      <trkpt lat="36.06974" lon="129.4013">
        <ele>6.9</ele>
      </trkpt>
      <trkpt lat="36.069804" lon="129.401376">
        <ele>6.8</ele>
      </trkpt>
      <trkpt lat="36.069815" lon="129.401393">
        <ele>6.8</ele>
      </trkpt>
      <trkpt lat="36.069828053068704" lon="129.4013822078705">
        <ele>6.7</ele>
      </trkpt>
      <trkpt lat="36.069815" lon="129.401393">
        <ele>6.6</ele>
      </trkpt>
      <trkpt lat="36.069926" lon="129.401573">
        <ele>6.5</ele>
      </trkpt>
      <trkpt lat="36.070919" lon="129.403771">
        <ele>6.4</ele>
      </trkpt>
      <trkpt lat="36.071029" lon="129.403982">
        <ele>6.3</ele>
      </trkpt>
      <trkpt lat="36.071081" lon="129.404068">
        <ele>6.2</ele>
      </trkpt>
      <trkpt lat="36.071153" lon="129.404177">
        <ele>6.1</ele>
      </trkpt>
      <trkpt lat="36.07121" lon="129.404252">
        <ele>6.0</ele>
      </trkpt>
      <trkpt lat="36.071206907847404" lon="129.40425753593448">
        <ele>5.9</ele>
      </trkpt>
      <trkpt lat="36.07121" lon="129.404252">
        <ele>5.8</ele>
      </trkpt>
      <trkpt lat="36.071333" lon="129.404416">
        <ele>5.7</ele>
      </trkpt>
      <trkpt lat="36.071643" lon="129.404818">
        <ele>5.6</ele>
      </trkpt>
      <trkpt lat="36.071801" lon="129.405044">
        <ele>5.5</ele>
      </trkpt>
      <trkpt lat="36.071869" lon="129.405175">
        <ele>5.5</ele>
      </trkpt>
      <trkpt lat="36.07198" lon="129.405432">
        <ele>5.3</ele>
      </trkpt>
      <trkpt lat="36.072008" lon="129.405528">
        <ele>5.3</ele>
      </trkpt>
      <trkpt lat="36.072166" lon="129.406606">
        <ele>5.2</ele>
      </trkpt>
      <trkpt lat="36.07216949025243" lon="129.40660715103152">
        <ele>5.0</ele>
      </trkpt>
      <trkpt lat="36.072217" lon="129.406729">
        <ele>4.9</ele>
      </trkpt>
      <trkpt lat="36.072187" lon="129.406748">
        <ele>4.8</ele>
      </trkpt>
      <trkpt lat="36.072266" lon="129.407245">
        <ele>4.7</ele>
      </trkpt>
      <trkpt lat="36.072283" lon="129.407352">
        <ele>4.7</ele>
      </trkpt>
      <trkpt lat="36.072289" lon="129.407392">
        <ele>4.6</ele>
      </trkpt>
      <trkpt lat="36.072327" lon="129.407643">
        <ele>4.5</ele>
      </trkpt>
      <trkpt lat="36.072376" lon="129.407853">
        <ele>4.4</ele>
      </trkpt>
      <trkpt lat="36.072453" lon="129.408037">
        <ele>4.4</ele>
      </trkpt>
      <trkpt lat="36.072551" lon="129.408192">
        <ele>4.3</ele>
      </trkpt>
      <trkpt lat="36.072604" lon="129.408261">
        <ele>4.3</ele>
      </trkpt>
      <trkpt lat="36.072977" lon="129.408695">
        <ele>4.2</ele>
      </trkpt>
      <trkpt lat="36.073038" lon="129.408775">
        <ele>4.2</ele>
      </trkpt>
      <trkpt lat="36.07309" lon="129.408854">
        <ele>4.2</ele>
      </trkpt>
      <trkpt lat="36.073166" lon="129.409011">
        <ele>4.2</ele>
      </trkpt>
      <trkpt lat="36.073203" lon="129.409108">
        <ele>4.2</ele>
      </trkpt>
      <trkpt lat="36.07323" lon="129.409205">
        <ele>4.2</ele>
      </trkpt>
      <trkpt lat="36.073275" lon="129.409414">
        <ele>4.3</ele>
      </trkpt>
      <trkpt lat="36.073301" lon="129.409557">
        <ele>4.4</ele>
      </trkpt>
      <trkpt lat="36.07330549577312" lon="129.4095575809479">
        <ele>4.5</ele>
      </trkpt>
      <trkpt lat="36.073301" lon="129.409557">
        <ele>4.5</ele>
      </trkpt>
      <trkpt lat="36.073324" lon="129.409682">
        <ele>4.6</ele>
      </trkpt>
      <trkpt lat="36.073337" lon="129.409783">
        <ele>4.7</ele>
      </trkpt>
      <trkpt lat="36.073344" lon="129.409854">
        <ele>4.8</ele>
      </trkpt>
      <trkpt lat="36.073349" lon="129.409948">
        <ele>4.9</ele>
      </trkpt>
      <trkpt lat="36.073349" lon="129.410071">
        <ele>4.9</ele>
      </trkpt>
      <trkpt lat="36.073334" lon="129.410373">
        <ele>5.0</ele>
      </trkpt>
      <trkpt lat="36.073325" lon="129.410499">
        <ele>5.1</ele>
      </trkpt>
      <trkpt lat="36.073286" lon="129.411029">
        <ele>5.1</ele>
      </trkpt>
      <trkpt lat="36.073244" lon="129.411373">
        <ele>5.2</ele>
      </trkpt>
      <trkpt lat="36.07322" lon="129.411496">
        <ele>5.2</ele>
      </trkpt>
      <trkpt lat="36.073122" lon="129.41187">
        <ele>5.3</ele>
      </trkpt>
      <trkpt lat="36.07310604560968" lon="129.4118642807007">
        <ele>5.3</ele>
      </trkpt>
      <trkpt lat="36.073122" lon="129.41187">
        <ele>5.3</ele>
      </trkpt>
      <trkpt lat="36.07322" lon="129.411496">
        <ele>5.3</ele>
      </trkpt>
      <trkpt lat="36.073244" lon="129.411373">
        <ele>5.4</ele>
      </trkpt>
      <trkpt lat="36.073286" lon="129.411029">
        <ele>5.4</ele>
      </trkpt>
      <trkpt lat="36.073325" lon="129.410499">
        <ele>5.5</ele>
      </trkpt>
      <trkpt lat="36.073334" lon="129.410373">
        <ele>5.5</ele>
      </trkpt>
      <trkpt lat="36.073349" lon="129.410071">
        <ele>5.5</ele>
      </trkpt>
      <trkpt lat="36.073349" lon="129.409948">
        <ele>5.6</ele>
      </trkpt>
      <trkpt lat="36.073344" lon="129.409854">
        <ele>5.7</ele>
      </trkpt>
      <trkpt lat="36.073337" lon="129.409783">
        <ele>5.8</ele>
      </trkpt>
      <trkpt lat="36.073324" lon="129.409682">
        <ele>5.8</ele>
      </trkpt>
      <trkpt lat="36.073275" lon="129.409414">
        <ele>5.9</ele>
      </trkpt>
      <trkpt lat="36.07323" lon="129.409205">
        <ele>6.0</ele>
      </trkpt>
      <trkpt lat="36.073203" lon="129.409108">
        <ele>6.1</ele>
      </trkpt>
      <trkpt lat="36.073166" lon="129.409011">
        <ele>6.2</ele>
      </trkpt>
      <trkpt lat="36.07309" lon="129.408854">
        <ele>6.3</ele>
      </trkpt>
      <trkpt lat="36.073038" lon="129.408775">
        <ele>6.4</ele>
      </trkpt>
      <trkpt lat="36.072977" lon="129.408695">
        <ele>6.5</ele>
      </trkpt>
      <trkpt lat="36.072604" lon="129.408261">
        <ele>6.5</ele>
      </trkpt>
      <trkpt lat="36.072551" lon="129.408192">
        <ele>6.6</ele>
      </trkpt>
      <trkpt lat="36.072453" lon="129.408037">
        <ele>6.7</ele>
      </trkpt>
      <trkpt lat="36.072447" lon="129.408022">
        <ele>6.8</ele>
      </trkpt>
      <trkpt lat="36.07242964563699" lon="129.40803408622745">
        <ele>6.9</ele>
      </trkpt>
      <trkpt lat="36.072447" lon="129.408022">
        <ele>7.0</ele>
      </trkpt>
      <trkpt lat="36.072376" lon="129.407853">
        <ele>7.1</ele>
      </trkpt>
      <trkpt lat="36.072327" lon="129.407643">
        <ele>7.2</ele>
      </trkpt>
      <trkpt lat="36.072289" lon="129.407392">
        <ele>7.3</ele>
      </trkpt>
      <trkpt lat="36.072283" lon="129.407352">
        <ele>7.4</ele>
      </trkpt>
      <trkpt lat="36.072266" lon="129.407245">
        <ele>7.5</ele>
      </trkpt>
      <trkpt lat="36.072187" lon="129.406748">
        <ele>7.6</ele>
      </trkpt>
      <trkpt lat="36.072008" lon="129.405528">
        <ele>7.7</ele>
      </trkpt>
      <trkpt lat="36.07198" lon="129.405432">
        <ele>7.8</ele>
      </trkpt>
      <trkpt lat="36.071869" lon="129.405175">
        <ele>7.8</ele>
      </trkpt>
      <trkpt lat="36.071801" lon="129.405044">
        <ele>7.9</ele>
      </trkpt>
      <trkpt lat="36.071643" lon="129.404818">
        <ele>8.0</ele>
      </trkpt>
      <trkpt lat="36.071333" lon="129.404416">
        <ele>8.1</ele>
      </trkpt>
      <trkpt lat="36.071153" lon="129.404177">
        <ele>8.2</ele>
      </trkpt>
      <trkpt lat="36.071081" lon="129.404068">
        <ele>8.3</ele>
      </trkpt>
      <trkpt lat="36.071029" lon="129.403982">
        <ele>8.3</ele>
      </trkpt>
      <trkpt lat="36.070945" lon="129.40382">
        <ele>8.4</ele>
      </trkpt>
      <trkpt lat="36.070964092407166" lon="129.40380692481997">
        <ele>8.4</ele>
      </trkpt>
      <trkpt lat="36.070945" lon="129.40382">
        <ele>8.4</ele>
      </trkpt>
      <trkpt lat="36.070919" lon="129.403771">
        <ele>8.5</ele>
      </trkpt>
      <trkpt lat="36.069926" lon="129.401573">
        <ele>8.5</ele>
      </trkpt>
      <trkpt lat="36.069804" lon="129.401376">
        <ele>8.5</ele>
      </trkpt>
      <trkpt lat="36.06974" lon="129.4013">
        <ele>8.5</ele>
      </trkpt>
      <trkpt lat="36.069489" lon="129.40103">
        <ele>8.4</ele>
      </trkpt>
      <trkpt lat="36.069355" lon="129.400904">
        <ele>8.4</ele>
      </trkpt>
      <trkpt lat="36.069138" lon="129.400686">
        <ele>8.4</ele>
      </trkpt>
      <trkpt lat="36.06912560832212" lon="129.40070629119876">
        <ele>8.3</ele>
      </trkpt>
      <trkpt lat="36.069138" lon="129.400686">
        <ele>8.2</ele>
      </trkpt>
      <trkpt lat="36.069088" lon="129.400635">
        <ele>8.2</ele>
      </trkpt>
      <trkpt lat="36.068933" lon="129.400483">
        <ele>8.1</ele>
      </trkpt>
      <trkpt lat="36.068831" lon="129.400403">
        <ele>8.1</ele>
      </trkpt>
      <trkpt lat="36.068655" lon="129.400298">
        <ele>8.0</ele>
      </trkpt>
      <trkpt lat="36.068562" lon="129.400259">
        <ele>8.0</ele>
      </trkpt>
      <trkpt lat="36.068147" lon="129.400123">
        <ele>8.0</ele>
      </trkpt>
      <trkpt lat="36.067364" lon="129.399878">
        <ele>8.0</ele>
      </trkpt>
      <trkpt lat="36.066667" lon="129.399661">
        <ele>8.0</ele>
      </trkpt>
      <trkpt lat="36.066506" lon="129.399603">
        <ele>8.0</ele>
      </trkpt>
      <trkpt lat="36.066391" lon="129.399537">
        <ele>8.1</ele>
      </trkpt>
      <trkpt lat="36.066385146623574" lon="129.39955830574038">
        <ele>8.1</ele>
      </trkpt>
      <trkpt lat="36.066391" lon="129.399537">
        <ele>8.2</ele>
      </trkpt>
      <trkpt lat="36.066381" lon="129.399531">
        <ele>8.2</ele>
      </trkpt>
      <trkpt lat="36.066241" lon="129.399427">
        <ele>8.2</ele>
      </trkpt>
      <trkpt lat="36.065967" lon="129.399192">
        <ele>8.2</ele>
      </trkpt>
      <trkpt lat="36.064593" lon="129.398">
        <ele>8.1</ele>
      </trkpt>
      <trkpt lat="36.064438" lon="129.397848">
        <ele>8.1</ele>
      </trkpt>
      <trkpt lat="36.064295" lon="129.397656">
        <ele>8.1</ele>
      </trkpt>
      <trkpt lat="36.064278" lon="129.397632">
        <ele>8.0</ele>
      </trkpt>
      <trkpt lat="36.06429504679169" lon="129.3976163864136">
        <ele>7.9</ele>
      </trkpt>
      <trkpt lat="36.064278" lon="129.397632">
        <ele>7.8</ele>
      </trkpt>
      <trkpt lat="36.06352" lon="129.396495">
        <ele>7.8</ele>
      </trkpt>
      <trkpt lat="36.063468" lon="129.396409">
        <ele>7.6</ele>
      </trkpt>
      <trkpt lat="36.063373" lon="129.396213">
        <ele>7.5</ele>
      </trkpt>
      <trkpt lat="36.063331" lon="129.396101">
        <ele>7.4</ele>
      </trkpt>
      <trkpt lat="36.063298" lon="129.395991">
        <ele>7.3</ele>
      </trkpt>
      <trkpt lat="36.063275" lon="129.395889">
        <ele>7.2</ele>
      </trkpt>
      <trkpt lat="36.063255" lon="129.395699">
        <ele>7.0</ele>
      </trkpt>
      <trkpt lat="36.06325" lon="129.395594">
        <ele>7.0</ele>
      </trkpt>
      <trkpt lat="36.063256" lon="129.394804">
        <ele>6.9</ele>
      </trkpt>
      <trkpt lat="36.06328033100034" lon="129.394805431366">
        <ele>6.8</ele>
      </trkpt>
      <trkpt lat="36.063256" lon="129.394804">
        <ele>6.8</ele>
      </trkpt>
      <trkpt lat="36.063257" lon="129.394741">
        <ele>6.7</ele>
      </trkpt>
      <trkpt lat="36.063265" lon="129.394594">
        <ele>6.7</ele>
      </trkpt>
      <trkpt lat="36.063311" lon="129.394129">
        <ele>6.7</ele>
      </trkpt>
      <trkpt lat="36.063398" lon="129.393185">
        <ele>6.6</ele>
      </trkpt>
      <trkpt lat="36.063404" lon="129.393023">
        <ele>6.5</ele>
      </trkpt>
      <trkpt lat="36.063402" lon="129.392854">
        <ele>6.5</ele>
      </trkpt>
      <trkpt lat="36.063388" lon="129.39255">
        <ele>6.5</ele>
      </trkpt>
      <trkpt lat="36.063343" lon="129.392264">
        <ele>6.4</ele>
      </trkpt>
      <trkpt lat="36.063311" lon="129.392111">
        <ele>6.4</ele>
      </trkpt>
      <trkpt lat="36.062805" lon="129.389981">
        <ele>6.3</ele>
      </trkpt>
      <trkpt lat="36.062801" lon="129.38996">
        <ele>6.3</ele>
      </trkpt>
      <trkpt lat="36.06282066911273" lon="129.38995599746707">
        <ele>6.3</ele>
      </trkpt>
      <trkpt lat="36.062801" lon="129.38996">
        <ele>6.3</ele>
      </trkpt>
      <trkpt lat="36.062805" lon="129.389981">
        <ele>6.3</ele>
      </trkpt>
      <trkpt lat="36.063311" lon="129.392111">
        <ele>6.3</ele>
      </trkpt>
      <trkpt lat="36.063343" lon="129.392264">
        <ele>6.3</ele>
      </trkpt>
      <trkpt lat="36.063388" lon="129.39255">
        <ele>6.3</ele>
      </trkpt>
      <trkpt lat="36.063402" lon="129.392854">
        <ele>6.3</ele>
      </trkpt>
      <trkpt lat="36.063404" lon="129.393023">
        <ele>6.3</ele>
      </trkpt>
      <trkpt lat="36.063398" lon="129.393185">
        <ele>6.3</ele>
      </trkpt>
      <trkpt lat="36.063311" lon="129.394129">
        <ele>6.3</ele>
      </trkpt>
      <trkpt lat="36.063265" lon="129.394594">
        <ele>6.3</ele>
      </trkpt>
      <trkpt lat="36.063257" lon="129.394741">
        <ele>6.4</ele>
      </trkpt>
      <trkpt lat="36.06325" lon="129.395594">
        <ele>6.5</ele>
      </trkpt>
      <trkpt lat="36.063255" lon="129.395699">
        <ele>6.6</ele>
      </trkpt>
      <trkpt lat="36.063263" lon="129.395775">
        <ele>6.7</ele>
      </trkpt>
      <trkpt lat="36.063289003840325" lon="129.39577102661136">
        <ele>6.9</ele>
      </trkpt>
      <trkpt lat="36.063263" lon="129.395775">
        <ele>7.0</ele>
      </trkpt>
      <trkpt lat="36.063275" lon="129.395889">
        <ele>7.2</ele>
      </trkpt>
      <trkpt lat="36.063298" lon="129.395991">
        <ele>7.3</ele>
      </trkpt>
      <trkpt lat="36.063331" lon="129.396101">
        <ele>7.5</ele>
      </trkpt>
      <trkpt lat="36.063373" lon="129.396213">
        <ele>7.6</ele>
      </trkpt>
      <trkpt lat="36.063468" lon="129.396409">
        <ele>7.7</ele>
      </trkpt>
      <trkpt lat="36.06352" lon="129.396495">
        <ele>7.8</ele>
      </trkpt>
      <trkpt lat="36.064295" lon="129.397656">
        <ele>8.0</ele>
      </trkpt>
      <trkpt lat="36.064438" lon="129.397848">
        <ele>8.1</ele>
      </trkpt>
      <trkpt lat="36.064593" lon="129.398">
        <ele>8.2</ele>
      </trkpt>
      <trkpt lat="36.064808" lon="129.398186">
        <ele>8.3</ele>
      </trkpt>
      <trkpt lat="36.06479806344322" lon="129.39820647239688">
        <ele>8.3</ele>
      </trkpt>
      <trkpt lat="36.064808" lon="129.398186">
        <ele>8.4</ele>
      </trkpt>
      <trkpt lat="36.065967" lon="129.399192">
        <ele>8.4</ele>
      </trkpt>
      <trkpt lat="36.066241" lon="129.399427">
        <ele>8.5</ele>
      </trkpt>
      <trkpt lat="36.066381" lon="129.399531">
        <ele>8.5</ele>
      </trkpt>
      <trkpt lat="36.066506" lon="129.399603">
        <ele>8.6</ele>
      </trkpt>
      <trkpt lat="36.066667" lon="129.399661">
        <ele>8.6</ele>
      </trkpt>
      <trkpt lat="36.067364" lon="129.399878">
        <ele>8.7</ele>
      </trkpt>
      <trkpt lat="36.067598" lon="129.399951">
        <ele>8.8</ele>
      </trkpt>
      <trkpt lat="36.06759928700302" lon="129.3999552726746">
        <ele>8.9</ele>
      </trkpt>
      <trkpt lat="36.067598" lon="129.399951">
        <ele>9.0</ele>
      </trkpt>
      <trkpt lat="36.068147" lon="129.400123">
        <ele>9.1</ele>
      </trkpt>
      <trkpt lat="36.068177" lon="129.400133">
        <ele>9.3</ele>
      </trkpt>
      <trkpt lat="36.06818033326903" lon="129.40012693405154">
        <ele>9.4</ele>
      </trkpt>
      <trkpt lat="36.068177" lon="129.400133">
        <ele>9.6</ele>
      </trkpt>
      <trkpt lat="36.068147" lon="129.400123">
        <ele>9.7</ele>
      </trkpt>
      <trkpt lat="36.067364" lon="129.399878">
        <ele>9.8</ele>
      </trkpt>
      <trkpt lat="36.066667" lon="129.399661">
        <ele>9.9</ele>
      </trkpt>
      <trkpt lat="36.066506" lon="129.399603">
        <ele>9.9</ele>
      </trkpt>
      <trkpt lat="36.066381" lon="129.399531">
        <ele>9.9</ele>
      </trkpt>
      <trkpt lat="36.066241" lon="129.399427">
        <ele>9.9</ele>
      </trkpt>
      <trkpt lat="36.065967" lon="129.399192">
        <ele>9.8</ele>
      </trkpt>
      <trkpt lat="36.064593" lon="129.398">
        <ele>9.7</ele>
      </trkpt>
      <trkpt lat="36.064511" lon="129.397919">
        <ele>9.6</ele>
      </trkpt>
      <trkpt lat="36.064520537412506" lon="129.3979060649872">
        <ele>9.5</ele>
      </trkpt>
      <trkpt lat="36.064511" lon="129.397919">
        <ele>9.4</ele>
      </trkpt>
      <trkpt lat="36.064438" lon="129.397848">
        <ele>9.2</ele>
      </trkpt>
      <trkpt lat="36.064295" lon="129.397656">
        <ele>9.1</ele>
      </trkpt>
      <trkpt lat="36.06352" lon="129.396495">
        <ele>8.9</ele>
      </trkpt>
      <trkpt lat="36.063468" lon="129.396409">
        <ele>8.8</ele>
      </trkpt>
      <trkpt lat="36.063373" lon="129.396213">
        <ele>8.6</ele>
      </trkpt>
      <trkpt lat="36.063331" lon="129.396101">
        <ele>8.5</ele>
      </trkpt>
      <trkpt lat="36.063298" lon="129.395991">
        <ele>8.4</ele>
      </trkpt>
      <trkpt lat="36.063275" lon="129.395889">
        <ele>8.3</ele>
      </trkpt>
      <trkpt lat="36.063255" lon="129.395699">
        <ele>8.2</ele>
      </trkpt>
      <trkpt lat="36.06325" lon="129.395594">
        <ele>8.1</ele>
      </trkpt>
      <trkpt lat="36.063253" lon="129.395191">
        <ele>8.0</ele>
      </trkpt>
      <trkpt lat="36.063289003840325" lon="129.39519166946414">
        <ele>8.0</ele>
      </trkpt>
      <trkpt lat="36.063253" lon="129.395191">
        <ele>7.9</ele>
      </trkpt>
      <trkpt lat="36.063257" lon="129.394741">
        <ele>7.8</ele>
      </trkpt>
      <trkpt lat="36.063265" lon="129.394594">
        <ele>7.8</ele>
      </trkpt>
      <trkpt lat="36.063311" lon="129.394129">
        <ele>7.7</ele>
      </trkpt>
      <trkpt lat="36.063398" lon="129.393185">
        <ele>7.6</ele>
      </trkpt>
      <trkpt lat="36.063404" lon="129.393023">
        <ele>7.5</ele>
      </trkpt>
      <trkpt lat="36.063402" lon="129.392854">
        <ele>7.4</ele>
      </trkpt>
      <trkpt lat="36.063388" lon="129.39255">
        <ele>7.3</ele>
      </trkpt>
      <trkpt lat="36.063343" lon="129.392264">
        <ele>7.3</ele>
      </trkpt>
      <trkpt lat="36.063311" lon="129.392111">
        <ele>7.2</ele>
      </trkpt>
      <trkpt lat="36.062805" lon="129.389981">
        <ele>7.2</ele>
      </trkpt>
      <trkpt lat="36.06279" lon="129.3899">
        <ele>7.2</ele>
      </trkpt>
      <trkpt lat="36.062784" lon="129.389779">
        <ele>7.2</ele>
      </trkpt>
      <trkpt lat="36.062785" lon="129.389754">
        <ele>7.3</ele>
      </trkpt>
      <trkpt lat="36.062855" lon="129.389682">
        <ele>7.3</ele>
      </trkpt>
      <trkpt lat="36.06283801489308" lon="129.3896555900574">
        <ele>7.5</ele>
      </trkpt>
      <trkpt lat="36.062855" lon="129.389682">
        <ele>7.6</ele>
      </trkpt>
      <trkpt lat="36.062785" lon="129.389754">
        <ele>7.7</ele>
      </trkpt>
      <trkpt lat="36.062813" lon="129.389613">
        <ele>7.9</ele>
      </trkpt>
      <trkpt lat="36.062838" lon="129.389534">
        <ele>8.0</ele>
      </trkpt>
      <trkpt lat="36.06302" lon="129.389051">
        <ele>8.2</ele>
      </trkpt>
      <trkpt lat="36.0630461639592" lon="129.38906550407413">
        <ele>8.3</ele>
      </trkpt>
      <trkpt lat="36.06302" lon="129.389051">
        <ele>8.5</ele>
      </trkpt>
      <trkpt lat="36.063043" lon="129.388991">
        <ele>8.6</ele>
      </trkpt>
      <trkpt lat="36.063289" lon="129.388343">
        <ele>8.7</ele>
      </trkpt>
      <trkpt lat="36.063322" lon="129.388221">
        <ele>8.8</ele>
      </trkpt>
      <trkpt lat="36.063289003840325" lon="129.38820719718936">
        <ele>8.9</ele>
      </trkpt>
      <trkpt lat="36.063322" lon="129.388221">
        <ele>9.0</ele>
      </trkpt>
      <trkpt lat="36.06336" lon="129.388085">
        <ele>9.1</ele>
      </trkpt>
      <trkpt lat="36.063384" lon="129.387987">
        <ele>9.1</ele>
      </trkpt>
      <trkpt lat="36.063437" lon="129.387849">
        <ele>9.2</ele>
      </trkpt>
      <trkpt lat="36.063473" lon="129.387801">
        <ele>9.2</ele>
      </trkpt>
      <trkpt lat="36.06352" lon="129.387754">
        <ele>9.2</ele>
      </trkpt>
      <trkpt lat="36.06352317015872" lon="129.38775658607486">
        <ele>9.2</ele>
      </trkpt>
      <trkpt lat="36.06352" lon="129.387754">
        <ele>9.2</ele>
      </trkpt>
      <trkpt lat="36.063535" lon="129.38774">
        <ele>9.2</ele>
      </trkpt>
      <trkpt lat="36.063616" lon="129.387687">
        <ele>9.1</ele>
      </trkpt>
      <trkpt lat="36.063852" lon="129.387559">
        <ele>9.1</ele>
      </trkpt>
      <trkpt lat="36.06409" lon="129.387436">
        <ele>9.1</ele>
      </trkpt>
      <trkpt lat="36.064222" lon="129.387355">
        <ele>9.0</ele>
      </trkpt>
      <trkpt lat="36.064315" lon="129.387269">
        <ele>8.9</ele>
      </trkpt>
      <trkpt lat="36.064374" lon="129.387185">
        <ele>8.9</ele>
      </trkpt>
      <trkpt lat="36.064396" lon="129.387148">
        <ele>8.8</ele>
      </trkpt>
      <trkpt lat="36.064433" lon="129.387053">
        <ele>8.7</ele>
      </trkpt>
      <trkpt lat="36.06445982846279" lon="129.38706994056705">
        <ele>8.5</ele>
      </trkpt>
      <trkpt lat="36.064433" lon="129.387053">
        <ele>8.4</ele>
      </trkpt>
      <trkpt lat="36.064464" lon="129.386977">
        <ele>8.2</ele>
      </trkpt>
      <trkpt lat="36.064556" lon="129.386676">
        <ele>8.0</ele>
      </trkpt>
      <trkpt lat="36.064583" lon="129.386506">
        <ele>7.8</ele>
      </trkpt>
      <trkpt lat="36.06459" lon="129.386406">
        <ele>7.6</ele>
      </trkpt>
      <trkpt lat="36.064592" lon="129.386186">
        <ele>7.4</ele>
      </trkpt>
      <trkpt lat="36.064581" lon="129.385606">
        <ele>7.2</ele>
      </trkpt>
      <trkpt lat="36.064576" lon="129.385446">
        <ele>7.0</ele>
      </trkpt>
      <trkpt lat="36.064552" lon="129.385267">
        <ele>6.9</ele>
      </trkpt>
      <trkpt lat="36.064521" lon="129.385155">
        <ele>6.7</ele>
      </trkpt>
      <trkpt lat="36.064463" lon="129.384992">
        <ele>6.6</ele>
      </trkpt>
      <trkpt lat="36.064322" lon="129.384642">
        <ele>6.4</ele>
      </trkpt>
      <trkpt lat="36.06433841042282" lon="129.38463449478152">
        <ele>6.3</ele>
      </trkpt>
      <trkpt lat="36.064322" lon="129.384642">
        <ele>6.2</ele>
      </trkpt>
      <trkpt lat="36.064175" lon="129.384277">
        <ele>6.0</ele>
      </trkpt>
      <trkpt lat="36.063874" lon="129.383892">
        <ele>5.9</ele>
      </trkpt>
      <trkpt lat="36.063852" lon="129.383864">
        <ele>5.8</ele>
      </trkpt>
      <trkpt lat="36.063767" lon="129.383746">
        <ele>5.7</ele>
      </trkpt>
      <trkpt lat="36.063608" lon="129.383536">
        <ele>5.5</ele>
      </trkpt>
      <trkpt lat="36.06342" lon="129.383324">
        <ele>5.5</ele>
      </trkpt>
      <trkpt lat="36.063101" lon="129.382981">
        <ele>5.3</ele>
      </trkpt>
      <trkpt lat="36.063065" lon="129.382943">
        <ele>5.3</ele>
      </trkpt>
      <trkpt lat="36.062911" lon="129.382756">
        <ele>5.2</ele>
      </trkpt>
      <trkpt lat="36.06275" lon="129.382548">
        <ele>5.1</ele>
      </trkpt>
      <trkpt lat="36.06274261305377" lon="129.382558465004">
        <ele>5.0</ele>
      </trkpt>
      <trkpt lat="36.062189713752524" lon="129.38189864158633">
        <ele>5.0</ele>
      </trkpt>
      <trkpt lat="36.061350600331494" lon="129.38101083040237">
        <ele>4.9</ele>
      </trkpt>
      <trkpt lat="36.061348" lon="129.381014">
        <ele>4.9</ele>
      </trkpt>
      <trkpt lat="36.061214" lon="129.38088">
        <ele>4.9</ele>
      </trkpt>
      <trkpt lat="36.061156" lon="129.380822">
        <ele>4.9</ele>
      </trkpt>
      <trkpt lat="36.061137" lon="129.3808">
        <ele>4.9</ele>
      </trkpt>
      <trkpt lat="36.060925" lon="129.380513">
        <ele>5.0</ele>
      </trkpt>
      <trkpt lat="36.060932124402605" lon="129.3805065751076">
        <ele>5.0</ele>
      </trkpt>
      <trkpt lat="36.060925" lon="129.380513">
        <ele>5.1</ele>
      </trkpt>
      <trkpt lat="36.060875" lon="129.380444">
        <ele>5.2</ele>
      </trkpt>
      <trkpt lat="36.060669" lon="129.380224">
        <ele>5.3</ele>
      </trkpt>
      <trkpt lat="36.060535" lon="129.380088">
        <ele>5.3</ele>
      </trkpt>
      <trkpt lat="36.060458" lon="129.380027">
        <ele>5.5</ele>
      </trkpt>
      <trkpt lat="36.060332" lon="129.379946">
        <ele>5.5</ele>
      </trkpt>
      <trkpt lat="36.06033584656577" lon="129.37994062900546">
        <ele>5.6</ele>
      </trkpt>
      <trkpt lat="36.060332" lon="129.379946">
        <ele>5.7</ele>
      </trkpt>
      <trkpt lat="36.060283" lon="129.379914">
        <ele>5.8</ele>
      </trkpt>
      <trkpt lat="36.059273" lon="129.379333">
        <ele>5.8</ele>
      </trkpt>
      <trkpt lat="36.05927120835558" lon="129.37934249639514">
        <ele>5.9</ele>
      </trkpt>
      <trkpt lat="36.059273" lon="129.379333">
        <ele>6.0</ele>
      </trkpt>
      <trkpt lat="36.059266" lon="129.379329">
        <ele>6.1</ele>
      </trkpt>
      <trkpt lat="36.058994" lon="129.379169">
        <ele>6.2</ele>
      </trkpt>
      <trkpt lat="36.058083" lon="129.37862">
        <ele>6.3</ele>
      </trkpt>
      <trkpt lat="36.058085128051175" lon="129.3786182999611">
        <ele>6.4</ele>
      </trkpt>
      <trkpt lat="36.058083" lon="129.37862">
        <ele>6.5</ele>
      </trkpt>
      <trkpt lat="36.058052" lon="129.378601">
        <ele>6.6</ele>
      </trkpt>
      <trkpt lat="36.057945" lon="129.378537">
        <ele>6.7</ele>
      </trkpt>
      <trkpt lat="36.057656" lon="129.378359">
        <ele>6.8</ele>
      </trkpt>
      <trkpt lat="36.057553" lon="129.378307">
        <ele>6.9</ele>
      </trkpt>
      <trkpt lat="36.056593" lon="129.377896">
        <ele>7.0</ele>
      </trkpt>
      <trkpt lat="36.05659328685535" lon="129.37790215015414">
        <ele>7.0</ele>
      </trkpt>
      <trkpt lat="36.056593" lon="129.377896">
        <ele>7.1</ele>
      </trkpt>
      <trkpt lat="36.05643" lon="129.377826">
        <ele>7.2</ele>
      </trkpt>
      <trkpt lat="36.056136" lon="129.37771">
        <ele>7.2</ele>
      </trkpt>
      <trkpt lat="36.055789" lon="129.377589">
        <ele>7.2</ele>
      </trkpt>
      <trkpt lat="36.055058" lon="129.377376">
        <ele>7.2</ele>
      </trkpt>
      <trkpt lat="36.054999" lon="129.377362">
        <ele>7.2</ele>
      </trkpt>
      <trkpt lat="36.05499950084456" lon="129.37736839056015">
        <ele>7.2</ele>
      </trkpt>
      <trkpt lat="36.054999" lon="129.377362">
        <ele>7.2</ele>
      </trkpt>
      <trkpt lat="36.054785" lon="129.377312">
        <ele>7.1</ele>
      </trkpt>
      <trkpt lat="36.054676" lon="129.377299">
        <ele>7.1</ele>
      </trkpt>
      <trkpt lat="36.054505" lon="129.377267">
        <ele>7.0</ele>
      </trkpt>
      <trkpt lat="36.054339" lon="129.37726">
        <ele>7.0</ele>
      </trkpt>
      <trkpt lat="36.053913" lon="129.377261">
        <ele>6.9</ele>
      </trkpt>
      <trkpt lat="36.053717" lon="129.377277">
        <ele>6.8</ele>
      </trkpt>
      <trkpt lat="36.053088" lon="129.377318">
        <ele>6.8</ele>
      </trkpt>
      <trkpt lat="36.052763" lon="129.377352">
        <ele>6.8</ele>
      </trkpt>
      <trkpt lat="36.052745" lon="129.377351">
        <ele>6.7</ele>
      </trkpt>
      <trkpt lat="36.05274646120469" lon="129.3773522973061">
        <ele>6.7</ele>
      </trkpt>
      <trkpt lat="36.052745" lon="129.377351">
        <ele>6.6</ele>
      </trkpt>
      <trkpt lat="36.052699" lon="129.37735">
        <ele>6.6</ele>
      </trkpt>
      <trkpt lat="36.052649" lon="129.377338">
        <ele>6.6</ele>
      </trkpt>
      <trkpt lat="36.05261" lon="129.377318">
        <ele>6.5</ele>
      </trkpt>
      <trkpt lat="36.052576" lon="129.377291">
        <ele>6.5</ele>
      </trkpt>
      <trkpt lat="36.052543" lon="129.377251">
        <ele>6.4</ele>
      </trkpt>
      <trkpt lat="36.052515" lon="129.377192">
        <ele>6.3</ele>
      </trkpt>
      <trkpt lat="36.052496" lon="129.37712">
        <ele>6.3</ele>
      </trkpt>
      <trkpt lat="36.05242" lon="129.376436">
        <ele>6.2</ele>
      </trkpt>
      <trkpt lat="36.052366" lon="129.375989">
        <ele>6.1</ele>
      </trkpt>
      <trkpt lat="36.052336" lon="129.375796">
        <ele>6.0</ele>
      </trkpt>
      <trkpt lat="36.05233878207871" lon="129.37579661607742">
        <ele>6.0</ele>
      </trkpt>
      <trkpt lat="36.052336" lon="129.375796">
        <ele>5.9</ele>
      </trkpt>
      <trkpt lat="36.052328" lon="129.375742">
        <ele>5.9</ele>
      </trkpt>
      <trkpt lat="36.052192" lon="129.374965">
        <ele>5.8</ele>
      </trkpt>
      <trkpt lat="36.052108" lon="129.374521">
        <ele>5.8</ele>
      </trkpt>
      <trkpt lat="36.052049" lon="129.374208">
        <ele>5.8</ele>
      </trkpt>
      <trkpt lat="36.051996" lon="129.374017">
        <ele>5.7</ele>
      </trkpt>
      <trkpt lat="36.051908" lon="129.373799">
        <ele>5.7</ele>
      </trkpt>
      <trkpt lat="36.051709" lon="129.373409">
        <ele>5.7</ele>
      </trkpt>
      <trkpt lat="36.05171424825868" lon="129.37340676784518">
        <ele>5.7</ele>
      </trkpt>
      <trkpt lat="36.051709" lon="129.373409">
        <ele>5.6</ele>
      </trkpt>
      <trkpt lat="36.051542" lon="129.373083">
        <ele>5.6</ele>
      </trkpt>
      <trkpt lat="36.051382" lon="129.372787">
        <ele>5.6</ele>
      </trkpt>
      <trkpt lat="36.051322" lon="129.372691">
        <ele>5.6</ele>
      </trkpt>
      <trkpt lat="36.051255" lon="129.372601">
        <ele>5.5</ele>
      </trkpt>
      <trkpt lat="36.051187" lon="129.372526">
        <ele>5.5</ele>
      </trkpt>
      <trkpt lat="36.051121" lon="129.372462">
        <ele>5.5</ele>
      </trkpt>
      <trkpt lat="36.050977" lon="129.372364">
        <ele>5.4</ele>
      </trkpt>
      <trkpt lat="36.05073" lon="129.37226">
        <ele>5.4</ele>
      </trkpt>
      <trkpt lat="36.05039" lon="129.372157">
        <ele>5.3</ele>
      </trkpt>
      <trkpt lat="36.050213" lon="129.372116">
        <ele>5.2</ele>
      </trkpt>
      <trkpt lat="36.050213612016606" lon="129.37212198972702">
        <ele>5.2</ele>
      </trkpt>
      <trkpt lat="36.050213" lon="129.372116">
        <ele>5.1</ele>
      </trkpt>
      <trkpt lat="36.050189" lon="129.372111">
        <ele>5.0</ele>
      </trkpt>
      <trkpt lat="36.049887" lon="129.372116">
        <ele>5.0</ele>
      </trkpt>
      <trkpt lat="36.049458" lon="129.372134">
        <ele>4.9</ele>
      </trkpt>
      <trkpt lat="36.049334" lon="129.372126">
        <ele>4.8</ele>
      </trkpt>
      <trkpt lat="36.049249" lon="129.37212">
        <ele>4.8</ele>
      </trkpt>
      <trkpt lat="36.048954" lon="129.372068">
        <ele>4.7</ele>
      </trkpt>
      <trkpt lat="36.048794" lon="129.372049">
        <ele>4.6</ele>
      </trkpt>
      <trkpt lat="36.048687" lon="129.372034">
        <ele>4.5</ele>
      </trkpt>
      <trkpt lat="36.048601" lon="129.372024">
        <ele>4.5</ele>
      </trkpt>
      <trkpt lat="36.04860234790191" lon="129.37202811241153">
        <ele>4.4</ele>
      </trkpt>
      <trkpt lat="36.048601" lon="129.372024">
        <ele>4.3</ele>
      </trkpt>
      <trkpt lat="36.0483" lon="129.371989">
        <ele>4.2</ele>
      </trkpt>
      <trkpt lat="36.047813" lon="129.37188">
        <ele>4.2</ele>
      </trkpt>
      <trkpt lat="36.046836" lon="129.3716">
        <ele>4.1</ele>
      </trkpt>
      <trkpt lat="36.045924" lon="129.371362">
        <ele>4.0</ele>
      </trkpt>
      <trkpt lat="36.04592406338274" lon="129.37136828899386">
        <ele>4.0</ele>
      </trkpt>
      <trkpt lat="36.045924" lon="129.371362">
        <ele>3.9</ele>
      </trkpt>
      <trkpt lat="36.04584" lon="129.371341">
        <ele>3.8</ele>
      </trkpt>
      <trkpt lat="36.044551" lon="129.370995">
        <ele>3.8</ele>
      </trkpt>
      <trkpt lat="36.043528" lon="129.370724">
        <ele>3.7</ele>
      </trkpt>
      <trkpt lat="36.043163" lon="129.370618">
        <ele>3.7</ele>
      </trkpt>
      <trkpt lat="36.042452" lon="129.370448">
        <ele>3.6</ele>
      </trkpt>
      <trkpt lat="36.04239" lon="129.370437">
        <ele>3.6</ele>
      </trkpt>
      <trkpt lat="36.04239335962829" lon="129.37042415142062">
        <ele>3.5</ele>
      </trkpt>
      <trkpt lat="36.04239" lon="129.370437">
        <ele>3.5</ele>
      </trkpt>
      <trkpt lat="36.041588" lon="129.370293">
        <ele>3.4</ele>
      </trkpt>
      <trkpt lat="36.040257" lon="129.37006">
        <ele>3.4</ele>
      </trkpt>
      <trkpt lat="36.040229" lon="129.370249">
        <ele>3.4</ele>
      </trkpt>
      <trkpt lat="36.04024189494344" lon="129.37025249004367">
        <ele>3.3</ele>
      </trkpt>
      <trkpt lat="36.040229" lon="129.370249">
        <ele>3.3</ele>
      </trkpt>
      <trkpt lat="36.040212" lon="129.370366">
        <ele>3.3</ele>
      </trkpt>
      <trkpt lat="36.039978" lon="129.372132">
        <ele>3.3</ele>
      </trkpt>
      <trkpt lat="36.039947" lon="129.372342">
        <ele>3.2</ele>
      </trkpt>
      <trkpt lat="36.039943" lon="129.372366">
        <ele>3.2</ele>
      </trkpt>
      <trkpt lat="36.039942593787316" lon="129.3723660707474">
        <ele>3.2</ele>
      </trkpt>
      <trkpt lat="36.039943" lon="129.372366">
        <ele>3.2</ele>
      </trkpt>
      <trkpt lat="36.039907" lon="129.372637">
        <ele>3.1</ele>
      </trkpt>
      <trkpt lat="36.039888" lon="129.372791">
        <ele>3.1</ele>
      </trkpt>
      <trkpt lat="36.039862" lon="129.373005">
        <ele>3.1</ele>
      </trkpt>
      <trkpt lat="36.039848" lon="129.37313">
        <ele>3.1</ele>
      </trkpt>
      <trkpt lat="36.039817" lon="129.373376">
        <ele>3.1</ele>
      </trkpt>
      <trkpt lat="36.039747" lon="129.373947">
        <ele>3.0</ele>
      </trkpt>
      <trkpt lat="36.039753" lon="129.374103">
        <ele>3.0</ele>
      </trkpt>
      <trkpt lat="36.039757" lon="129.374124">
        <ele>3.0</ele>
      </trkpt>
      <trkpt lat="36.03975607220157" lon="129.37412559986117">
        <ele>3.0</ele>
      </trkpt>
      <trkpt lat="36.039757" lon="129.374124">
        <ele>2.9</ele>
      </trkpt>
      <trkpt lat="36.039867" lon="129.374645">
        <ele>2.9</ele>
      </trkpt>
      <trkpt lat="36.039892" lon="129.374827">
        <ele>2.8</ele>
      </trkpt>
      <trkpt lat="36.039928" lon="129.375135">
        <ele>2.8</ele>
      </trkpt>
      <trkpt lat="36.039941" lon="129.375304">
        <ele>2.7</ele>
      </trkpt>
      <trkpt lat="36.039959" lon="129.375681">
        <ele>2.7</ele>
      </trkpt>
      <trkpt lat="36.039977" lon="129.376064">
        <ele>2.6</ele>
      </trkpt>
      <trkpt lat="36.040012" lon="129.37661">
        <ele>2.6</ele>
      </trkpt>
      <trkpt lat="36.040016" lon="129.376654">
        <ele>2.5</ele>
      </trkpt>
      <trkpt lat="36.039994646244004" lon="129.37665760517123">
        <ele>2.4</ele>
      </trkpt>
      <trkpt lat="36.040016" lon="129.376654">
        <ele>2.4</ele>
      </trkpt>
      <trkpt lat="36.040093" lon="129.377502">
        <ele>2.3</ele>
      </trkpt>
      <trkpt lat="36.040107" lon="129.377654">
        <ele>2.2</ele>
      </trkpt>
      <trkpt lat="36.040046" lon="129.377682">
        <ele>2.2</ele>
      </trkpt>
      <trkpt lat="36.039999" lon="129.377703">
        <ele>2.1</ele>
      </trkpt>
      <trkpt lat="36.039689" lon="129.377842">
        <ele>2.1</ele>
      </trkpt>
      <trkpt lat="36.03969100642821" lon="129.37784850597384">
        <ele>2.1</ele>
      </trkpt>
      <trkpt lat="36.03683239705308" lon="129.37916278839114">
        <ele>2.0</ele>
      </trkpt>
      <trkpt lat="36.036450662909836" lon="129.37934517860415">
        <ele>2.0</ele>
      </trkpt>
      <trkpt lat="36.03461571046648" lon="129.38050925731662">
        <ele>2.0</ele>
      </trkpt>
      <trkpt lat="36.03245101893325" lon="129.38216686248782">
        <ele>1.9</ele>
      </trkpt>
      <trkpt lat="36.03185235626428" lon="129.38249945640567">
        <ele>1.9</ele>
      </trkpt>
      <trkpt lat="36.031609419390634" lon="129.38251018524173">
        <ele>1.8</ele>
      </trkpt>
      <trkpt lat="36.03069839944145" lon="129.38167333602908">
        <ele>1.8</ele>
      </trkpt>
      <trkpt lat="36.02852058524646" lon="129.37990307807925">
        <ele>1.7</ele>
      </trkpt>
      <trkpt lat="36.02493703882359" lon="129.37780022621158">
        <ele>1.7</ele>
      </trkpt>
      <trkpt lat="36.024563924137034" lon="129.37767148017886">
        <ele>1.6</ele>
      </trkpt>
      <trkpt lat="36.02413874478212" lon="129.37754273414615">
        <ele>1.6</ele>
      </trkpt>
      <trkpt lat="36.02344456947585" lon="129.37724232673648">
        <ele>1.6</ele>
      </trkpt>
    </trkseg>
  </trk>
</gpx>