<?xml version="1.0" encoding="UTF-8"?>
<gpx version="1.1" creator="HTML GPX Creator" xmlns="http://www.topografix.com/GPX/1/1">
  <trk>
    <name>runseoulrun</name>
    <trkseg>
      <trkpt lat="37.56523291578874" lon="126.97726070880891">
        <ele>45.9</ele>
      </trkpt>
      <trkpt lat="37.565232" lon="126.977225">
        <ele>46.1</ele>
      </trkpt>
      <trkpt lat="37.565242" lon="126.977226">
        <ele>46.3</ele>
      </trkpt>
      <trkpt lat="37.566596" lon="126.97723">
        <ele>46.6</ele>
      </trkpt>
      <trkpt lat="37.56688" lon="126.977239">
        <ele>46.9</ele>
      </trkpt>
      <trkpt lat="37.567003" lon="126.977241">
        <ele>47.2</ele>
      </trkpt>
      <trkpt lat="37.567249" lon="126.977238">
        <ele>47.5</ele>
      </trkpt>
      <trkpt lat="37.568014" lon="126.977231">
        <ele>47.8</ele>
      </trkpt>
      <trkpt lat="37.568884" lon="126.97722">
        <ele>48.0</ele>
      </trkpt>
      <trkpt lat="37.569406" lon="126.977216">
        <ele>48.2</ele>
      </trkpt>
      <trkpt lat="37.569612" lon="126.977214">
        <ele>48.4</ele>
      </trkpt>
      <trkpt lat="37.569818" lon="126.97721">
        <ele>48.5</ele>
      </trkpt>
      <trkpt lat="37.569834" lon="126.977225">
        <ele>48.7</ele>
      </trkpt>
      <trkpt lat="37.5698038455708" lon="126.977276802063">
        <ele>48.8</ele>
      </trkpt>
      <trkpt lat="37.569834" lon="126.977225">
        <ele>48.9</ele>
      </trkpt>
      <trkpt lat="37.570023" lon="126.977406">
        <ele>49.0</ele>
      </trkpt>
      <trkpt lat="37.570145" lon="126.977555">
        <ele>49.1</ele>
      </trkpt>
      <trkpt lat="37.570142" lon="126.978006">
        <ele>49.3</ele>
      </trkpt>
      <trkpt lat="37.57012698906006" lon="126.97800636291505">
        <ele>49.5</ele>
      </trkpt>
      <trkpt lat="37.570142" lon="126.978006">
        <ele>49.6</ele>
      </trkpt>
      <trkpt lat="37.570141" lon="126.978433">
        <ele>49.7</ele>
      </trkpt>
      <trkpt lat="37.570141" lon="126.979338">
        <ele>49.8</ele>
      </trkpt>
      <trkpt lat="37.570136" lon="126.979544">
        <ele>49.9</ele>
      </trkpt>
      <trkpt lat="37.570133" lon="126.97994">
        <ele>50.0</ele>
      </trkpt>
      <trkpt lat="37.570131" lon="126.981043">
        <ele>50.2</ele>
      </trkpt>
      <trkpt lat="37.57010998154297" lon="126.98104262351991">
        <ele>50.3</ele>
      </trkpt>
      <trkpt lat="37.570131" lon="126.981043">
        <ele>50.4</ele>
      </trkpt>
      <trkpt lat="37.570131" lon="126.981206">
        <ele>50.5</ele>
      </trkpt>
      <trkpt lat="37.57013" lon="126.982235">
        <ele>50.6</ele>
      </trkpt>
      <trkpt lat="37.570147" lon="126.98279">
        <ele>50.6</ele>
      </trkpt>
      <trkpt lat="37.570148" lon="126.98283">
        <ele>50.6</ele>
      </trkpt>
      <trkpt lat="37.570149" lon="126.982955">
        <ele>50.5</ele>
      </trkpt>
      <trkpt lat="37.570153" lon="126.983073">
        <ele>50.4</ele>
      </trkpt>
      <trkpt lat="37.570153" lon="126.983111">
        <ele>50.1</ele>
      </trkpt>
      <trkpt lat="37.570158" lon="126.983323">
        <ele>49.8</ele>
      </trkpt>
      <trkpt lat="37.570158" lon="126.983369">
        <ele>49.4</ele>
      </trkpt>
      <trkpt lat="37.57014399657331" lon="126.98337078094484">
        <ele>49.0</ele>
      </trkpt>
      <trkpt lat="37.570158" lon="126.983369">
        <ele>48.6</ele>
      </trkpt>
      <trkpt lat="37.570164" lon="126.983985">
        <ele>48.1</ele>
      </trkpt>
      <trkpt lat="37.570167" lon="126.984033">
        <ele>47.6</ele>
      </trkpt>
      <trkpt lat="37.570153" lon="126.984449">
        <ele>47.1</ele>
      </trkpt>
      <trkpt lat="37.570126" lon="126.985719">
        <ele>46.6</ele>
      </trkpt>
      <trkpt lat="37.57012698906006" lon="126.98572039604188">
        <ele>46.1</ele>
      </trkpt>
      <trkpt lat="37.570126" lon="126.985719">
        <ele>45.6</ele>
      </trkpt>
      <trkpt lat="37.570126" lon="126.98575">
        <ele>45.1</ele>
      </trkpt>
      <trkpt lat="37.570164" lon="126.986046">
        <ele>44.6</ele>
      </trkpt>
      <trkpt lat="37.570172" lon="126.986899">
        <ele>44.1</ele>
      </trkpt>
      <trkpt lat="37.570167" lon="126.987377">
        <ele>43.6</ele>
      </trkpt>
      <trkpt lat="37.570169" lon="126.98764">
        <ele>43.1</ele>
      </trkpt>
      <trkpt lat="37.570177" lon="126.987844">
        <ele>42.6</ele>
      </trkpt>
      <trkpt lat="37.570175" lon="126.988176">
        <ele>42.0</ele>
      </trkpt>
      <trkpt lat="37.570176" lon="126.98826">
        <ele>41.5</ele>
      </trkpt>
      <trkpt lat="37.57013549281718" lon="126.988263130188">
        <ele>41.0</ele>
      </trkpt>
      <trkpt lat="37.570176" lon="126.98826">
        <ele>40.4</ele>
      </trkpt>
      <trkpt lat="37.570183" lon="126.988557">
        <ele>39.8</ele>
      </trkpt>
      <trkpt lat="37.570221" lon="126.989481">
        <ele>39.2</ele>
      </trkpt>
      <trkpt lat="37.570235" lon="126.98975">
        <ele>38.6</ele>
      </trkpt>
      <trkpt lat="37.570329" lon="126.99089">
        <ele>38.1</ele>
      </trkpt>
      <trkpt lat="37.570351" lon="126.991195">
        <ele>37.5</ele>
      </trkpt>
      <trkpt lat="37.57039" lon="126.991957">
        <ele>37.0</ele>
      </trkpt>
      <trkpt lat="37.570405" lon="126.992167">
        <ele>36.5</ele>
      </trkpt>
      <trkpt lat="37.570416" lon="126.992345">
        <ele>36.0</ele>
      </trkpt>
      <trkpt lat="37.570373597621774" lon="126.9923508167267">
        <ele>35.6</ele>
      </trkpt>
      <trkpt lat="37.570416" lon="126.992345">
        <ele>35.2</ele>
      </trkpt>
      <trkpt lat="37.570422" lon="126.992441">
        <ele>34.9</ele>
      </trkpt>
      <trkpt lat="37.570434" lon="126.992677">
        <ele>34.5</ele>
      </trkpt>
      <trkpt lat="37.570456" lon="126.993277">
        <ele>34.2</ele>
      </trkpt>
      <trkpt lat="37.570462" lon="126.993437">
        <ele>34.0</ele>
      </trkpt>
      <trkpt lat="37.570468" lon="126.994148">
        <ele>33.8</ele>
      </trkpt>
      <trkpt lat="37.570491" lon="126.994824">
        <ele>33.5</ele>
      </trkpt>
      <trkpt lat="37.570504" lon="126.995084">
        <ele>33.3</ele>
      </trkpt>
      <trkpt lat="37.570515" lon="126.995283">
        <ele>33.1</ele>
      </trkpt>
      <trkpt lat="37.570553" lon="126.995855">
        <ele>33.0</ele>
      </trkpt>
      <trkpt lat="37.570526664594226" lon="126.99585914611818">
        <ele>32.8</ele>
      </trkpt>
      <trkpt lat="37.570553" lon="126.995855">
        <ele>32.6</ele>
      </trkpt>
      <trkpt lat="37.570564" lon="126.996006">
        <ele>32.5</ele>
      </trkpt>
      <trkpt lat="37.570588" lon="126.996422">
        <ele>32.4</ele>
      </trkpt>
      <trkpt lat="37.570626" lon="126.996868">
        <ele>32.2</ele>
      </trkpt>
      <trkpt lat="37.570655" lon="126.997085">
        <ele>32.1</ele>
      </trkpt>
      <trkpt lat="37.570681" lon="126.99739">
        <ele>32.0</ele>
      </trkpt>
      <trkpt lat="37.57067122755712" lon="126.9973933696747">
        <ele>31.9</ele>
      </trkpt>
      <trkpt lat="37.570681" lon="126.99739">
        <ele>31.8</ele>
      </trkpt>
      <trkpt lat="37.570687" lon="126.997455">
        <ele>31.8</ele>
      </trkpt>
      <trkpt lat="37.570688" lon="126.997819">
        <ele>31.8</ele>
      </trkpt>
      <trkpt lat="37.570688" lon="126.997881">
        <ele>31.8</ele>
      </trkpt>
      <trkpt lat="37.570692" lon="126.99807">
        <ele>31.8</ele>
      </trkpt>
      <trkpt lat="37.570724" lon="126.998691">
        <ele>31.8</ele>
      </trkpt>
      <trkpt lat="37.57073075340146" lon="126.9986915588379">
        <ele>31.8</ele>
      </trkpt>
      <trkpt lat="37.570724" lon="126.998691">
        <ele>31.8</ele>
      </trkpt>
      <trkpt lat="37.570753" lon="126.999222">
        <ele>31.9</ele>
      </trkpt>
      <trkpt lat="37.570794" lon="126.999885">
        <ele>31.9</ele>
      </trkpt>
      <trkpt lat="37.570801" lon="127.000006">
        <ele>31.9</ele>
      </trkpt>
      <trkpt lat="37.57081" lon="127.000129">
        <ele>31.8</ele>
      </trkpt>
      <trkpt lat="37.57082429391789" lon="127.00012922286989">
        <ele>31.8</ele>
      </trkpt>
      <trkpt lat="37.57081" lon="127.000129">
        <ele>31.7</ele>
      </trkpt>
      <trkpt lat="37.570832" lon="127.000396">
        <ele>31.7</ele>
      </trkpt>
      <trkpt lat="37.570867" lon="127.001024">
        <ele>31.6</ele>
      </trkpt>
      <trkpt lat="37.570874" lon="127.001109">
        <ele>31.5</ele>
      </trkpt>
      <trkpt lat="37.570905" lon="127.001674">
        <ele>31.5</ele>
      </trkpt>
      <trkpt lat="37.570919" lon="127.001943">
        <ele>31.4</ele>
      </trkpt>
      <trkpt lat="37.570972" lon="127.002723">
        <ele>31.3</ele>
      </trkpt>
      <trkpt lat="37.570983" lon="127.002988">
        <ele>31.3</ele>
      </trkpt>
      <trkpt lat="37.570984" lon="127.003037">
        <ele>31.2</ele>
      </trkpt>
      <trkpt lat="37.57101987825441" lon="127.00303673744203">
        <ele>31.1</ele>
      </trkpt>
      <trkpt lat="37.570984" lon="127.003037">
        <ele>31.1</ele>
      </trkpt>
      <trkpt lat="37.570987" lon="127.003109">
        <ele>31.1</ele>
      </trkpt>
      <trkpt lat="37.570992" lon="127.003667">
        <ele>31.1</ele>
      </trkpt>
      <trkpt lat="37.570994" lon="127.003891">
        <ele>31.1</ele>
      </trkpt>
      <trkpt lat="37.571016" lon="127.005044">
        <ele>31.1</ele>
      </trkpt>
      <trkpt lat="37.571026" lon="127.005215">
        <ele>31.1</ele>
      </trkpt>
      <trkpt lat="37.57103688556375" lon="127.00521469116212">
        <ele>31.1</ele>
      </trkpt>
      <trkpt lat="37.571026" lon="127.005215">
        <ele>31.1</ele>
      </trkpt>
      <trkpt lat="37.571057" lon="127.005716">
        <ele>31.1</ele>
      </trkpt>
      <trkpt lat="37.571074" lon="127.006435">
        <ele>31.1</ele>
      </trkpt>
      <trkpt lat="37.57108" lon="127.006708">
        <ele>31.1</ele>
      </trkpt>
      <trkpt lat="37.571072" lon="127.007381">
        <ele>31.1</ele>
      </trkpt>
      <trkpt lat="37.571079403820086" lon="127.00738191604616">
        <ele>31.1</ele>
      </trkpt>
      <trkpt lat="37.571072" lon="127.007381">
        <ele>31.1</ele>
      </trkpt>
      <trkpt lat="37.571065" lon="127.00807">
        <ele>31.1</ele>
      </trkpt>
      <trkpt lat="37.571089" lon="127.008368">
        <ele>31.1</ele>
      </trkpt>
      <trkpt lat="37.571151" lon="127.008694">
        <ele>31.1</ele>
      </trkpt>
      <trkpt lat="37.571130425695685" lon="127.00870156288148">
        <ele>31.1</ele>
      </trkpt>
      <trkpt lat="37.571151" lon="127.008694">
        <ele>31.1</ele>
      </trkpt>
      <trkpt lat="37.571169" lon="127.008789">
        <ele>31.1</ele>
      </trkpt>
      <trkpt lat="37.571231" lon="127.008998">
        <ele>31.1</ele>
      </trkpt>
      <trkpt lat="37.571272" lon="127.009135">
        <ele>31.1</ele>
      </trkpt>
      <trkpt lat="37.571325" lon="127.009304">
        <ele>31.1</ele>
      </trkpt>
      <trkpt lat="37.571351520085955" lon="127.00929164886476">
        <ele>31.1</ele>
      </trkpt>
      <trkpt lat="37.571325" lon="127.009304">
        <ele>31.2</ele>
      </trkpt>
      <trkpt lat="37.571272" lon="127.009135">
        <ele>31.2</ele>
      </trkpt>
      <trkpt lat="37.571298" lon="127.009081">
        <ele>31.3</ele>
      </trkpt>
      <trkpt lat="37.571326" lon="127.009023">
        <ele>31.4</ele>
      </trkpt>
      <trkpt lat="37.571345" lon="127.008983">
        <ele>31.4</ele>
      </trkpt>
      <trkpt lat="37.571292" lon="127.008804">
        <ele>31.5</ele>
      </trkpt>
      <trkpt lat="37.57130900198496" lon="127.00879812240602">
        <ele>31.6</ele>
      </trkpt>
      <trkpt lat="37.571292" lon="127.008804">
        <ele>31.6</ele>
      </trkpt>
      <trkpt lat="37.571271" lon="127.008733">
        <ele>31.7</ele>
      </trkpt>
      <trkpt lat="37.571201" lon="127.008429">
        <ele>31.8</ele>
      </trkpt>
      <trkpt lat="37.571189" lon="127.008172">
        <ele>31.8</ele>
      </trkpt>
      <trkpt lat="37.571188" lon="127.008153">
        <ele>31.9</ele>
      </trkpt>
      <trkpt lat="37.571206958443526" lon="127.00815439224245">
        <ele>31.9</ele>
      </trkpt>
      <trkpt lat="37.571188" lon="127.008153">
        <ele>31.9</ele>
      </trkpt>
      <trkpt lat="37.571188" lon="127.007727">
        <ele>31.9</ele>
      </trkpt>
      <trkpt lat="37.57118" lon="127.007074">
        <ele>31.9</ele>
      </trkpt>
      <trkpt lat="37.571185" lon="127.006981">
        <ele>31.9</ele>
      </trkpt>
      <trkpt lat="37.571183" lon="127.006551">
        <ele>31.8</ele>
      </trkpt>
      <trkpt lat="37.571182" lon="127.006378">
        <ele>31.8</ele>
      </trkpt>
      <trkpt lat="37.571171" lon="127.005899">
        <ele>31.8</ele>
      </trkpt>
      <trkpt lat="37.57115593662037" lon="127.00590133666994">
        <ele>31.8</ele>
      </trkpt>
      <trkpt lat="37.571171" lon="127.005899">
        <ele>31.7</ele>
      </trkpt>
      <trkpt lat="37.571167" lon="127.005707">
        <ele>31.7</ele>
      </trkpt>
      <trkpt lat="37.571132" lon="127.004796">
        <ele>31.8</ele>
      </trkpt>
      <trkpt lat="37.571108" lon="127.003929">
        <ele>31.8</ele>
      </trkpt>
      <trkpt lat="37.571093" lon="127.002853">
        <ele>31.8</ele>
      </trkpt>
      <trkpt lat="37.57111341840772" lon="127.00285434722902">
        <ele>31.8</ele>
      </trkpt>
      <trkpt lat="37.571093" lon="127.002853">
        <ele>31.9</ele>
      </trkpt>
      <trkpt lat="37.571081" lon="127.001954">
        <ele>31.9</ele>
      </trkpt>
      <trkpt lat="37.571049" lon="127.001575">
        <ele>31.9</ele>
      </trkpt>
      <trkpt lat="37.571019" lon="127.000885">
        <ele>32.0</ele>
      </trkpt>
      <trkpt lat="37.571001" lon="127.000376">
        <ele>32.0</ele>
      </trkpt>
      <trkpt lat="37.57101987825441" lon="127.00037598609926">
        <ele>32.0</ele>
      </trkpt>
      <trkpt lat="37.571001" lon="127.000376">
        <ele>32.0</ele>
      </trkpt>
      <trkpt lat="37.570998" lon="127.000283">
        <ele>32.0</ele>
      </trkpt>
      <trkpt lat="37.570952" lon="126.999835">
        <ele>32.0</ele>
      </trkpt>
      <trkpt lat="37.570891" lon="126.998894">
        <ele>32.0</ele>
      </trkpt>
      <trkpt lat="37.570885" lon="126.998777">
        <ele>31.9</ele>
      </trkpt>
      <trkpt lat="37.570879" lon="126.998677">
        <ele>31.9</ele>
      </trkpt>
      <trkpt lat="37.570871" lon="126.998512">
        <ele>31.9</ele>
      </trkpt>
      <trkpt lat="37.570845" lon="126.998061">
        <ele>31.9</ele>
      </trkpt>
      <trkpt lat="37.570827" lon="126.997813">
        <ele>31.9</ele>
      </trkpt>
      <trkpt lat="37.570797" lon="126.997501">
        <ele>32.0</ele>
      </trkpt>
      <trkpt lat="37.570776" lon="126.997316">
        <ele>32.0</ele>
      </trkpt>
      <trkpt lat="37.57077327183258" lon="126.99731826782228">
        <ele>32.1</ele>
      </trkpt>
      <trkpt lat="37.570776" lon="126.997316">
        <ele>32.2</ele>
      </trkpt>
      <trkpt lat="37.570749" lon="126.997074">
        <ele>32.3</ele>
      </trkpt>
      <trkpt lat="37.570715" lon="126.996651">
        <ele>32.5</ele>
      </trkpt>
      <trkpt lat="37.570709" lon="126.996432">
        <ele>32.6</ele>
      </trkpt>
      <trkpt lat="37.570644" lon="126.995326">
        <ele>32.8</ele>
      </trkpt>
      <trkpt lat="37.570631" lon="126.99508">
        <ele>33.0</ele>
      </trkpt>
      <trkpt lat="37.570588" lon="126.994276">
        <ele>33.2</ele>
      </trkpt>
      <trkpt lat="37.570583" lon="126.993768">
        <ele>33.5</ele>
      </trkpt>
      <trkpt lat="37.570568" lon="126.993114">
        <ele>33.7</ele>
      </trkpt>
      <trkpt lat="37.570558" lon="126.992864">
        <ele>34.0</ele>
      </trkpt>
      <trkpt lat="37.570528" lon="126.992396">
        <ele>34.4</ele>
      </trkpt>
      <trkpt lat="37.570518" lon="126.992189">
        <ele>34.7</ele>
      </trkpt>
      <trkpt lat="37.570526664594226" lon="126.9921898841858">
        <ele>35.1</ele>
      </trkpt>
      <trkpt lat="37.570518" lon="126.992189">
        <ele>35.6</ele>
      </trkpt>
      <trkpt lat="37.570517" lon="126.992157">
        <ele>36.0</ele>
      </trkpt>
      <trkpt lat="37.570507" lon="126.991949">
        <ele>36.5</ele>
      </trkpt>
      <trkpt lat="37.570472" lon="126.991433">
        <ele>37.1</ele>
      </trkpt>
      <trkpt lat="37.570427" lon="126.990534">
        <ele>37.6</ele>
      </trkpt>
      <trkpt lat="37.5704" lon="126.989738">
        <ele>38.2</ele>
      </trkpt>
      <trkpt lat="37.570384" lon="126.989459">
        <ele>38.8</ele>
      </trkpt>
      <trkpt lat="37.570365" lon="126.989131">
        <ele>39.4</ele>
      </trkpt>
      <trkpt lat="37.570373597621774" lon="126.98913216590883">
        <ele>40.0</ele>
      </trkpt>
      <trkpt lat="37.570365" lon="126.989131">
        <ele>40.6</ele>
      </trkpt>
      <trkpt lat="37.570348" lon="126.988833">
        <ele>41.2</ele>
      </trkpt>
      <trkpt lat="37.570345" lon="126.988798">
        <ele>41.8</ele>
      </trkpt>
      <trkpt lat="37.570328" lon="126.988583">
        <ele>42.4</ele>
      </trkpt>
      <trkpt lat="37.570305" lon="126.988168">
        <ele>43.0</ele>
      </trkpt>
      <trkpt lat="37.570297" lon="126.987842">
        <ele>43.6</ele>
      </trkpt>
      <trkpt lat="37.570288" lon="126.987638">
        <ele>44.2</ele>
      </trkpt>
      <trkpt lat="37.570285" lon="126.987364">
        <ele>44.8</ele>
      </trkpt>
      <trkpt lat="37.570283" lon="126.986621">
        <ele>45.3</ele>
      </trkpt>
      <trkpt lat="37.57032257522775" lon="126.98662161827089">
        <ele>45.9</ele>
      </trkpt>
      <trkpt lat="37.570283" lon="126.986621">
        <ele>46.4</ele>
      </trkpt>
      <trkpt lat="37.570281" lon="126.985669">
        <ele>46.9</ele>
      </trkpt>
      <trkpt lat="37.570278" lon="126.985274">
        <ele>47.5</ele>
      </trkpt>
      <trkpt lat="37.570278" lon="126.984416">
        <ele>48.0</ele>
      </trkpt>
      <trkpt lat="37.570268" lon="126.984078">
        <ele>48.5</ele>
      </trkpt>
      <trkpt lat="37.570273" lon="126.983458">
        <ele>49.0</ele>
      </trkpt>
      <trkpt lat="37.570271" lon="126.98323">
        <ele>49.4</ele>
      </trkpt>
      <trkpt lat="37.57027155279873" lon="126.98323130607606">
        <ele>49.7</ele>
      </trkpt>
      <trkpt lat="37.570271" lon="126.98323">
        <ele>50.0</ele>
      </trkpt>
      <trkpt lat="37.570271" lon="126.983151">
        <ele>50.3</ele>
      </trkpt>
      <trkpt lat="37.570271" lon="126.983102">
        <ele>50.5</ele>
      </trkpt>
      <trkpt lat="37.570275" lon="126.982966">
        <ele>50.6</ele>
      </trkpt>
      <trkpt lat="37.570279" lon="126.982838">
        <ele>50.8</ele>
      </trkpt>
      <trkpt lat="37.57028" lon="126.982799">
        <ele>50.8</ele>
      </trkpt>
      <trkpt lat="37.570291" lon="126.982405">
        <ele>50.8</ele>
      </trkpt>
      <trkpt lat="37.570294" lon="126.982259">
        <ele>50.8</ele>
      </trkpt>
      <trkpt lat="37.570296" lon="126.981751">
        <ele>50.7</ele>
      </trkpt>
      <trkpt lat="37.570288560278954" lon="126.98175072669984">
        <ele>50.7</ele>
      </trkpt>
      <trkpt lat="37.570296" lon="126.981751">
        <ele>50.6</ele>
      </trkpt>
      <trkpt lat="37.570301" lon="126.981001">
        <ele>50.5</ele>
      </trkpt>
      <trkpt lat="37.570265" lon="126.980374">
        <ele>50.3</ele>
      </trkpt>
      <trkpt lat="37.570261" lon="126.979545">
        <ele>50.2</ele>
      </trkpt>
      <trkpt lat="37.570263" lon="126.979338">
        <ele>50.1</ele>
      </trkpt>
      <trkpt lat="37.570266" lon="126.979025">
        <ele>49.9</ele>
      </trkpt>
      <trkpt lat="37.57028005653934" lon="126.97902560234071">
        <ele>49.8</ele>
      </trkpt>
      <trkpt lat="37.570266" lon="126.979025">
        <ele>49.7</ele>
      </trkpt>
      <trkpt lat="37.570267" lon="126.978974">
        <ele>49.5</ele>
      </trkpt>
      <trkpt lat="37.570208" lon="126.97833">
        <ele>49.4</ele>
      </trkpt>
      <trkpt lat="37.570201" lon="126.977364">
        <ele>49.3</ele>
      </trkpt>
      <trkpt lat="37.57028" lon="126.977227">
        <ele>49.1</ele>
      </trkpt>
      <trkpt lat="37.57028" lon="126.977076">
        <ele>48.9</ele>
      </trkpt>
      <trkpt lat="37.570296" lon="126.977077">
        <ele>48.8</ele>
      </trkpt>
      <trkpt lat="37.5702970640176" lon="126.97708368301393">
        <ele>48.6</ele>
      </trkpt>
      <trkpt lat="37.570296" lon="126.977077">
        <ele>48.5</ele>
      </trkpt>
      <trkpt lat="37.57028" lon="126.977076">
        <ele>48.3</ele>
      </trkpt>
      <trkpt lat="37.570242" lon="126.977073">
        <ele>48.1</ele>
      </trkpt>
      <trkpt lat="37.570136" lon="126.977065">
        <ele>48.0</ele>
      </trkpt>
      <trkpt lat="37.570047" lon="126.977058">
        <ele>47.9</ele>
      </trkpt>
      <trkpt lat="37.569997" lon="126.977054">
        <ele>47.8</ele>
      </trkpt>
      <trkpt lat="37.569634" lon="126.977028">
        <ele>47.8</ele>
      </trkpt>
      <trkpt lat="37.569522" lon="126.977029">
        <ele>47.8</ele>
      </trkpt>
      <trkpt lat="37.56952321982429" lon="126.97703003883363">
        <ele>47.8</ele>
      </trkpt>
      <trkpt lat="37.569522" lon="126.977029">
        <ele>47.9</ele>
      </trkpt>
      <trkpt lat="37.569052" lon="126.977035">
        <ele>47.9</ele>
      </trkpt>
      <trkpt lat="37.568406" lon="126.977042">
        <ele>48.0</ele>
      </trkpt>
      <trkpt lat="37.567593" lon="126.977085">
        <ele>48.1</ele>
      </trkpt>
      <trkpt lat="37.567592826189404" lon="126.97707295417787">
        <ele>48.2</ele>
      </trkpt>
      <trkpt lat="37.567593" lon="126.977085">
        <ele>48.3</ele>
      </trkpt>
      <trkpt lat="37.567142" lon="126.977109">
        <ele>48.4</ele>
      </trkpt>
      <trkpt lat="37.566869" lon="126.977114">
        <ele>48.6</ele>
      </trkpt>
      <trkpt lat="37.566637" lon="126.977117">
        <ele>48.7</ele>
      </trkpt>
      <trkpt lat="37.566162" lon="126.977111">
        <ele>48.9</ele>
      </trkpt>
      <trkpt lat="37.566164132606715" lon="126.97707295417787">
        <ele>49.0</ele>
      </trkpt>
      <trkpt lat="37.566162" lon="126.977111">
        <ele>49.2</ele>
      </trkpt>
      <trkpt lat="37.565241" lon="126.977102">
        <ele>49.4</ele>
      </trkpt>
      <trkpt lat="37.564924" lon="126.977084">
        <ele>49.6</ele>
      </trkpt>
      <trkpt lat="37.56475" lon="126.977066">
        <ele>49.8</ele>
      </trkpt>
      <trkpt lat="37.56475242036632" lon="126.97706222534181">
        <ele>49.9</ele>
      </trkpt>
      <trkpt lat="37.56475" lon="126.977066">
        <ele>50.1</ele>
      </trkpt>
      <trkpt lat="37.564642" lon="126.977056">
        <ele>50.3</ele>
      </trkpt>
      <trkpt lat="37.564455" lon="126.976985">
        <ele>50.5</ele>
      </trkpt>
      <trkpt lat="37.563996" lon="126.976829">
        <ele>50.7</ele>
      </trkpt>
      <trkpt lat="37.563861" lon="126.976777">
        <ele>50.9</ele>
      </trkpt>
      <trkpt lat="37.563838" lon="126.976769">
        <ele>51.0</ele>
      </trkpt>
      <trkpt lat="37.563546" lon="126.976665">
        <ele>51.2</ele>
      </trkpt>
      <trkpt lat="37.563541" lon="126.976663">
        <ele>51.3</ele>
      </trkpt>
      <trkpt lat="37.56354478986956" lon="126.97665452957155">
        <ele>51.4</ele>
      </trkpt>
      <trkpt lat="37.563541" lon="126.976663">
        <ele>51.5</ele>
      </trkpt>
      <trkpt lat="37.56255" lon="126.976281">
        <ele>51.6</ele>
      </trkpt>
      <trkpt lat="37.562431" lon="126.97624">
        <ele>51.7</ele>
      </trkpt>
      <trkpt lat="37.561947" lon="126.976071">
        <ele>51.8</ele>
      </trkpt>
      <trkpt lat="37.56195442970268" lon="126.97604298591615">
        <ele>51.8</ele>
      </trkpt>
      <trkpt lat="37.561947" lon="126.976071">
        <ele>51.8</ele>
      </trkpt>
      <trkpt lat="37.561878" lon="126.976048">
        <ele>51.8</ele>
      </trkpt>
      <trkpt lat="37.561242" lon="126.975799">
        <ele>51.8</ele>
      </trkpt>
      <trkpt lat="37.561061" lon="126.975729">
        <ele>51.7</ele>
      </trkpt>
      <trkpt lat="37.560916" lon="126.97565">
        <ele>51.7</ele>
      </trkpt>
      <trkpt lat="37.5609083454154" lon="126.97567820549013">
        <ele>51.6</ele>
      </trkpt>
      <trkpt lat="37.560916" lon="126.97565">
        <ele>51.6</ele>
      </trkpt>
      <trkpt lat="37.560809" lon="126.975592">
        <ele>51.5</ele>
      </trkpt>
      <trkpt lat="37.560785" lon="126.975763">
        <ele>51.4</ele>
      </trkpt>
      <trkpt lat="37.560765" lon="126.975876">
        <ele>51.3</ele>
      </trkpt>
      <trkpt lat="37.56076" lon="126.975921">
        <ele>51.2</ele>
      </trkpt>
      <trkpt lat="37.560756" lon="126.975963">
        <ele>51.1</ele>
      </trkpt>
      <trkpt lat="37.560741" lon="126.975985">
        <ele>51.0</ele>
      </trkpt>
      <trkpt lat="37.560697" lon="126.975983">
        <ele>50.9</ele>
      </trkpt>
      <trkpt lat="37.560673" lon="126.976006">
        <ele>50.8</ele>
      </trkpt>
      <trkpt lat="37.560628" lon="126.976008">
        <ele>50.7</ele>
      </trkpt>
      <trkpt lat="37.560519" lon="126.976012">
        <ele>50.6</ele>
      </trkpt>
      <trkpt lat="37.56045" lon="126.976015">
        <ele>50.5</ele>
      </trkpt>
      <trkpt lat="37.560499" lon="126.976227">
        <ele>50.4</ele>
      </trkpt>
      <trkpt lat="37.560527" lon="126.976334">
        <ele>50.3</ele>
      </trkpt>
      <trkpt lat="37.56048310370138" lon="126.97635412216188">
        <ele>50.2</ele>
      </trkpt>
      <trkpt lat="37.560527" lon="126.976334">
        <ele>50.1</ele>
      </trkpt>
      <trkpt lat="37.56056" lon="126.976457">
        <ele>50.0</ele>
      </trkpt>
      <trkpt lat="37.560688" lon="126.976848">
        <ele>50.0</ele>
      </trkpt>
      <trkpt lat="37.560862" lon="126.977326">
        <ele>50.0</ele>
      </trkpt>
      <trkpt lat="37.56093" lon="126.97757">
        <ele>49.9</ele>
      </trkpt>
      <trkpt lat="37.561013" lon="126.977992">
        <ele>49.9</ele>
      </trkpt>
      <trkpt lat="37.561141" lon="126.978715">
        <ele>49.9</ele>
      </trkpt>
      <trkpt lat="37.561258" lon="126.979337">
        <ele>50.0</ele>
      </trkpt>
      <trkpt lat="37.561299" lon="126.97957">
        <ele>50.0</ele>
      </trkpt>
      <trkpt lat="37.561369" lon="126.97995">
        <ele>50.0</ele>
      </trkpt>
      <trkpt lat="37.561419" lon="126.980168">
        <ele>50.0</ele>
      </trkpt>
      <trkpt lat="37.56147" lon="126.980361">
        <ele>50.1</ele>
      </trkpt>
      <trkpt lat="37.56143564177004" lon="126.98037743568422">
        <ele>50.2</ele>
      </trkpt>
      <trkpt lat="37.56147" lon="126.980361">
        <ele>50.2</ele>
      </trkpt>
      <trkpt lat="37.56148" lon="126.980396">
        <ele>50.3</ele>
      </trkpt>
      <trkpt lat="37.561575" lon="126.980689">
        <ele>50.4</ele>
      </trkpt>
      <trkpt lat="37.561665" lon="126.9809">
        <ele>50.5</ele>
      </trkpt>
      <trkpt lat="37.561786" lon="126.981148">
        <ele>50.6</ele>
      </trkpt>
      <trkpt lat="37.561836" lon="126.981244">
        <ele>50.7</ele>
      </trkpt>
      <trkpt lat="37.561846" lon="126.981252">
        <ele>50.8</ele>
      </trkpt>
      <trkpt lat="37.56184386864288" lon="126.9812572002411">
        <ele>50.9</ele>
      </trkpt>
      <trkpt lat="37.561846" lon="126.981252">
        <ele>51.0</ele>
      </trkpt>
      <trkpt lat="37.561836" lon="126.981244">
        <ele>51.1</ele>
      </trkpt>
      <trkpt lat="37.561963" lon="126.981161">
        <ele>51.2</ele>
      </trkpt>
      <trkpt lat="37.562084" lon="126.981061">
        <ele>51.3</ele>
      </trkpt>
      <trkpt lat="37.562186" lon="126.980976">
        <ele>51.5</ele>
      </trkpt>
      <trkpt lat="37.56258" lon="126.980605">
        <ele>51.6</ele>
      </trkpt>
      <trkpt lat="37.562715" lon="126.980485">
        <ele>51.7</ele>
      </trkpt>
      <trkpt lat="37.56324" lon="126.980046">
        <ele>51.9</ele>
      </trkpt>
      <trkpt lat="37.563381" lon="126.979928">
        <ele>52.0</ele>
      </trkpt>
      <trkpt lat="37.563858" lon="126.979529">
        <ele>52.1</ele>
      </trkpt>
      <trkpt lat="37.563929" lon="126.979469">
        <ele>52.2</ele>
      </trkpt>
      <trkpt lat="37.564404" lon="126.978967">
        <ele>52.3</ele>
      </trkpt>
      <trkpt lat="37.564443" lon="126.978931">
        <ele>52.4</ele>
      </trkpt>
      <trkpt lat="37.564847" lon="126.978561">
        <ele>52.4</ele>
      </trkpt>
      <trkpt lat="37.564857" lon="126.978554">
        <ele>52.5</ele>
      </trkpt>
      <trkpt lat="37.56487148146779" lon="126.97858572006227">
        <ele>52.5</ele>
      </trkpt>
      <trkpt lat="37.564857" lon="126.978554">
        <ele>52.5</ele>
      </trkpt>
      <trkpt lat="37.564879" lon="126.978539">
        <ele>52.5</ele>
      </trkpt>
      <trkpt lat="37.564908" lon="126.978524">
        <ele>52.5</ele>
      </trkpt>
      <trkpt lat="37.564966" lon="126.978511">
        <ele>52.5</ele>
      </trkpt>
      <trkpt lat="37.565071" lon="126.978521">
        <ele>52.5</ele>
      </trkpt>
      <trkpt lat="37.56512" lon="126.978533">
        <ele>52.5</ele>
      </trkpt>
      <trkpt lat="37.565165" lon="126.978556">
        <ele>52.4</ele>
      </trkpt>
      <trkpt lat="37.56589" lon="126.978905">
        <ele>52.4</ele>
      </trkpt>
      <trkpt lat="37.56589" lon="126.979683">
        <ele>52.3</ele>
      </trkpt>
      <trkpt lat="37.565857" lon="126.979681">
        <ele>52.3</ele>
      </trkpt>
      <trkpt lat="37.56586" lon="126.979637">
        <ele>52.2</ele>
      </trkpt>
      <trkpt lat="37.56585798041678" lon="126.97963714599611">
        <ele>52.0</ele>
      </trkpt>
      <trkpt lat="37.56586" lon="126.979637">
        <ele>51.9</ele>
      </trkpt>
      <trkpt lat="37.565857" lon="126.979681">
        <ele>51.7</ele>
      </trkpt>
      <trkpt lat="37.56589" lon="126.979683">
        <ele>51.5</ele>
      </trkpt>
      <trkpt lat="37.565877" lon="126.98029">
        <ele>51.3</ele>
      </trkpt>
      <trkpt lat="37.565898" lon="126.981462">
        <ele>51.1</ele>
      </trkpt>
      <trkpt lat="37.56589" lon="126.982018">
        <ele>50.8</ele>
      </trkpt>
      <trkpt lat="37.565896" lon="126.982299">
        <ele>50.4</ele>
      </trkpt>
      <trkpt lat="37.565905" lon="126.982563">
        <ele>50.0</ele>
      </trkpt>
      <trkpt lat="37.565908" lon="126.98275">
        <ele>49.6</ele>
      </trkpt>
      <trkpt lat="37.565967" lon="126.983392">
        <ele>49.1</ele>
      </trkpt>
      <trkpt lat="37.565971" lon="126.983517">
        <ele>48.6</ele>
      </trkpt>
      <trkpt lat="37.565986" lon="126.984088">
        <ele>48.0</ele>
      </trkpt>
      <trkpt lat="37.566006" lon="126.984806">
        <ele>47.5</ele>
      </trkpt>
      <trkpt lat="37.56600255244105" lon="126.98480844497682">
        <ele>47.0</ele>
      </trkpt>
      <trkpt lat="37.566006" lon="126.984806">
        <ele>46.4</ele>
      </trkpt>
      <trkpt lat="37.566026" lon="126.985473">
        <ele>45.9</ele>
      </trkpt>
      <trkpt lat="37.566038" lon="126.985892">
        <ele>45.4</ele>
      </trkpt>
      <trkpt lat="37.566069" lon="126.987238">
        <ele>44.8</ele>
      </trkpt>
      <trkpt lat="37.566071" lon="126.987345">
        <ele>44.3</ele>
      </trkpt>
      <trkpt lat="37.566075" lon="126.987521">
        <ele>43.8</ele>
      </trkpt>
      <trkpt lat="37.566079" lon="126.987705">
        <ele>43.3</ele>
      </trkpt>
      <trkpt lat="37.566085" lon="126.987885">
        <ele>42.8</ele>
      </trkpt>
      <trkpt lat="37.566088" lon="126.987956">
        <ele>42.4</ele>
      </trkpt>
      <trkpt lat="37.566136" lon="126.98888">
        <ele>42.0</ele>
      </trkpt>
      <trkpt lat="37.566096098895464" lon="126.98888540267946">
        <ele>41.6</ele>
      </trkpt>
      <trkpt lat="37.566136" lon="126.98888">
        <ele>41.2</ele>
      </trkpt>
      <trkpt lat="37.566183" lon="126.989768">
        <ele>40.9</ele>
      </trkpt>
      <trkpt lat="37.566252" lon="126.991427">
        <ele>40.6</ele>
      </trkpt>
      <trkpt lat="37.566269" lon="126.992023">
        <ele>40.3</ele>
      </trkpt>
      <trkpt lat="37.566302" lon="126.992646">
        <ele>40.1</ele>
      </trkpt>
      <trkpt lat="37.566307" lon="126.992755">
        <ele>40.0</ele>
      </trkpt>
      <trkpt lat="37.566274687254975" lon="126.99275851249696">
        <ele>39.8</ele>
      </trkpt>
      <trkpt lat="37.566307" lon="126.992755">
        <ele>39.7</ele>
      </trkpt>
      <trkpt lat="37.566302" lon="126.992646">
        <ele>39.7</ele>
      </trkpt>
      <trkpt lat="37.566429" lon="126.992626">
        <ele>39.7</ele>
      </trkpt>
      <trkpt lat="37.566875" lon="126.992578">
        <ele>39.8</ele>
      </trkpt>
      <trkpt lat="37.56687848282334" lon="126.99261903762819">
        <ele>39.9</ele>
      </trkpt>
      <trkpt lat="37.566875" lon="126.992578">
        <ele>40.1</ele>
      </trkpt>
      <trkpt lat="37.566922" lon="126.992573">
        <ele>40.3</ele>
      </trkpt>
      <trkpt lat="37.566889" lon="126.991942">
        <ele>40.6</ele>
      </trkpt>
      <trkpt lat="37.566819" lon="126.990849">
        <ele>41.0</ele>
      </trkpt>
      <trkpt lat="37.566791" lon="126.990343">
        <ele>41.4</ele>
      </trkpt>
      <trkpt lat="37.566761" lon="126.989664">
        <ele>41.7</ele>
      </trkpt>
      <trkpt lat="37.566725" lon="126.988685">
        <ele>42.1</ele>
      </trkpt>
      <trkpt lat="37.566715" lon="126.988404">
        <ele>42.6</ele>
      </trkpt>
      <trkpt lat="37.56668" lon="126.98789">
        <ele>43.0</ele>
      </trkpt>
      <trkpt lat="37.56662335853239" lon="126.98789834976198">
        <ele>43.5</ele>
      </trkpt>
      <trkpt lat="37.56673391249909" lon="126.98599934577943">
        <ele>43.9</ele>
      </trkpt>
      <trkpt lat="37.566779" lon="126.986002">
        <ele>44.4</ele>
      </trkpt>
      <trkpt lat="37.56679" lon="126.985779">
        <ele>44.9</ele>
      </trkpt>
      <trkpt lat="37.566805" lon="126.984482">
        <ele>45.4</ele>
      </trkpt>
      <trkpt lat="37.566797" lon="126.983616">
        <ele>45.9</ele>
      </trkpt>
      <trkpt lat="37.56677643321181" lon="126.98361754417421">
        <ele>46.3</ele>
      </trkpt>
      <trkpt lat="37.566797" lon="126.983616">
        <ele>46.7</ele>
      </trkpt>
      <trkpt lat="37.56679" lon="126.982762">
        <ele>47.1</ele>
      </trkpt>
      <trkpt lat="37.566758" lon="126.98276">
        <ele>47.4</ele>
      </trkpt>
      <trkpt lat="37.56675942492962" lon="126.98278069496156">
        <ele>47.7</ele>
      </trkpt>
      <trkpt lat="37.566758" lon="126.98276">
        <ele>47.9</ele>
      </trkpt>
      <trkpt lat="37.56679" lon="126.982762">
        <ele>48.1</ele>
      </trkpt>
      <trkpt lat="37.566887" lon="126.982774">
        <ele>48.2</ele>
      </trkpt>
      <trkpt lat="37.567981" lon="126.982806">
        <ele>48.3</ele>
      </trkpt>
      <trkpt lat="37.568527" lon="126.982798">
        <ele>48.3</ele>
      </trkpt>
      <trkpt lat="37.568605" lon="126.982803">
        <ele>48.3</ele>
      </trkpt>
      <trkpt lat="37.568622" lon="126.982802">
        <ele>48.3</ele>
      </trkpt>
      <trkpt lat="37.568677" lon="126.982758">
        <ele>48.2</ele>
      </trkpt>
      <trkpt lat="37.568736" lon="126.982765">
        <ele>48.0</ele>
      </trkpt>
      <trkpt lat="37.568717" lon="126.98287">
        <ele>47.9</ele>
      </trkpt>
      <trkpt lat="37.56866432839366" lon="126.98285579681398">
        <ele>47.7</ele>
      </trkpt>
      <trkpt lat="37.568717" lon="126.98287">
        <ele>47.4</ele>
      </trkpt>
      <trkpt lat="37.568697" lon="126.982983">
        <ele>47.1</ele>
      </trkpt>
      <trkpt lat="37.568553" lon="126.98382">
        <ele>46.8</ele>
      </trkpt>
      <trkpt lat="37.568358" lon="126.984882">
        <ele>46.4</ele>
      </trkpt>
      <trkpt lat="37.568204" lon="126.98562">
        <ele>46.0</ele>
      </trkpt>
      <trkpt lat="37.568133" lon="126.986021">
        <ele>45.7</ele>
      </trkpt>
      <trkpt lat="37.568015" lon="126.986634">
        <ele>45.3</ele>
      </trkpt>
      <trkpt lat="37.56801" lon="126.986997">
        <ele>44.8</ele>
      </trkpt>
      <trkpt lat="37.567992515322025" lon="126.98699712753297">
        <ele>44.4</ele>
      </trkpt>
      <trkpt lat="37.56801" lon="126.986997">
        <ele>43.9</ele>
      </trkpt>
      <trkpt lat="37.568008" lon="126.987151">
        <ele>43.4</ele>
      </trkpt>
      <trkpt lat="37.567991" lon="126.987545">
        <ele>42.8</ele>
      </trkpt>
      <trkpt lat="37.567987" lon="126.987743">
        <ele>42.3</ele>
      </trkpt>
      <trkpt lat="37.56798" lon="126.988109">
        <ele>41.7</ele>
      </trkpt>
      <trkpt lat="37.567964" lon="126.989024">
        <ele>41.1</ele>
      </trkpt>
      <trkpt lat="37.568004" lon="126.989584">
        <ele>40.5</ele>
      </trkpt>
      <trkpt lat="37.568038" lon="126.990152">
        <ele>39.9</ele>
      </trkpt>
      <trkpt lat="37.56804" lon="126.990175">
        <ele>39.4</ele>
      </trkpt>
      <trkpt lat="37.568077" lon="126.990931">
        <ele>38.8</ele>
      </trkpt>
      <trkpt lat="37.568181" lon="126.992437">
        <ele>38.3</ele>
      </trkpt>
      <trkpt lat="37.568199" lon="126.992638">
        <ele>37.8</ele>
      </trkpt>
      <trkpt lat="37.568205" lon="126.992712">
        <ele>37.4</ele>
      </trkpt>
      <trkpt lat="37.568188107094734" lon="126.99271559715272">
        <ele>36.9</ele>
      </trkpt>
      <trkpt lat="37.568205" lon="126.992712">
        <ele>36.5</ele>
      </trkpt>
      <trkpt lat="37.568294" lon="126.993749">
        <ele>36.1</ele>
      </trkpt>
      <trkpt lat="37.568336" lon="126.99434">
        <ele>35.7</ele>
      </trkpt>
      <trkpt lat="37.568359" lon="126.994647">
        <ele>35.3</ele>
      </trkpt>
      <trkpt lat="37.568412" lon="126.995098">
        <ele>34.9</ele>
      </trkpt>
      <trkpt lat="37.568414" lon="126.995178">
        <ele>34.6</ele>
      </trkpt>
      <trkpt lat="37.568449" lon="126.995557">
        <ele>34.2</ele>
      </trkpt>
      <trkpt lat="37.568497" lon="126.996107">
        <ele>33.9</ele>
      </trkpt>
      <trkpt lat="37.568516" lon="126.996307">
        <ele>33.6</ele>
      </trkpt>
      <trkpt lat="37.56855" lon="126.996624">
        <ele>33.3</ele>
      </trkpt>
      <trkpt lat="37.568511257593904" lon="126.99663162231447">
        <ele>33.0</ele>
      </trkpt>
      <trkpt lat="37.56855" lon="126.996624">
        <ele>32.8</ele>
      </trkpt>
      <trkpt lat="37.568605" lon="126.997116">
        <ele>32.5</ele>
      </trkpt>
      <trkpt lat="37.568704" lon="126.997943">
        <ele>32.3</ele>
      </trkpt>
      <trkpt lat="37.568937" lon="126.998978">
        <ele>32.0</ele>
      </trkpt>
      <trkpt lat="37.569043" lon="126.999629">
        <ele>31.8</ele>
      </trkpt>
      <trkpt lat="37.56911" lon="127.000041">
        <ele>31.6</ele>
      </trkpt>
      <trkpt lat="37.569144" lon="127.000239">
        <ele>31.4</ele>
      </trkpt>
      <trkpt lat="37.569358" lon="127.001505">
        <ele>31.2</ele>
      </trkpt>
      <trkpt lat="37.569388" lon="127.001715">
        <ele>31.1</ele>
      </trkpt>
      <trkpt lat="37.56941" lon="127.001873">
        <ele>31.0</ele>
      </trkpt>
      <trkpt lat="37.569393" lon="127.001861">
        <ele>30.9</ele>
      </trkpt>
      <trkpt lat="37.56938715847569" lon="127.0018780231476">
        <ele>30.8</ele>
      </trkpt>
      <trkpt lat="37.569393" lon="127.001861">
        <ele>30.7</ele>
      </trkpt>
      <trkpt lat="37.56941" lon="127.001873">
        <ele>30.6</ele>
      </trkpt>
      <trkpt lat="37.569434" lon="127.002042">
        <ele>30.5</ele>
      </trkpt>
      <trkpt lat="37.569455" lon="127.002271">
        <ele>30.4</ele>
      </trkpt>
      <trkpt lat="37.569472" lon="127.002555">
        <ele>30.4</ele>
      </trkpt>
      <trkpt lat="37.569477" lon="127.002678">
        <ele>30.3</ele>
      </trkpt>
      <trkpt lat="37.569476" lon="127.004538">
        <ele>30.2</ele>
      </trkpt>
      <trkpt lat="37.569506" lon="127.006619">
        <ele>30.2</ele>
      </trkpt>
      <trkpt lat="37.569573" lon="127.008163">
        <ele>30.1</ele>
      </trkpt>
      <trkpt lat="37.569565738944775" lon="127.0081651210785">
        <ele>30.0</ele>
      </trkpt>
      <trkpt lat="37.569573" lon="127.008163">
        <ele>29.9</ele>
      </trkpt>
      <trkpt lat="37.569626" lon="127.009359">
        <ele>29.8</ele>
      </trkpt>
      <trkpt lat="37.569625" lon="127.009638">
        <ele>29.8</ele>
      </trkpt>
      <trkpt lat="37.569618" lon="127.009776">
        <ele>29.6</ele>
      </trkpt>
      <trkpt lat="37.569615" lon="127.009952">
        <ele>29.6</ele>
      </trkpt>
      <trkpt lat="37.569619" lon="127.010081">
        <ele>29.5</ele>
      </trkpt>
      <trkpt lat="37.56958" lon="127.012167">
        <ele>29.4</ele>
      </trkpt>
      <trkpt lat="37.569582" lon="127.012443">
        <ele>29.3</ele>
      </trkpt>
      <trkpt lat="37.569583" lon="127.012474">
        <ele>29.1</ele>
      </trkpt>
      <trkpt lat="37.569598" lon="127.014191">
        <ele>29.1</ele>
      </trkpt>
      <trkpt lat="37.569611" lon="127.015349">
        <ele>28.9</ele>
      </trkpt>
      <trkpt lat="37.569614" lon="127.015677">
        <ele>28.8</ele>
      </trkpt>
      <trkpt lat="37.569591" lon="127.015688">
        <ele>28.7</ele>
      </trkpt>
      <trkpt lat="37.56959125040539" lon="127.01568603515626">
        <ele>28.6</ele>
      </trkpt>
      <trkpt lat="37.569591" lon="127.015688">
        <ele>28.5</ele>
      </trkpt>
      <trkpt lat="37.569522" lon="127.015724">
        <ele>28.4</ele>
      </trkpt>
      <trkpt lat="37.569541" lon="127.015874">
        <ele>28.3</ele>
      </trkpt>
      <trkpt lat="37.569564" lon="127.01609">
        <ele>28.2</ele>
      </trkpt>
      <trkpt lat="37.569601" lon="127.016169">
        <ele>28.1</ele>
      </trkpt>
      <trkpt lat="37.569851" lon="127.017055">
        <ele>27.9</ele>
      </trkpt>
      <trkpt lat="37.570084" lon="127.017646">
        <ele>27.8</ele>
      </trkpt>
      <trkpt lat="37.570113" lon="127.017619">
        <ele>27.7</ele>
      </trkpt>
      <trkpt lat="37.570099" lon="127.017585">
        <ele>27.6</ele>
      </trkpt>
      <trkpt lat="37.57008447026" lon="127.01759576797487">
        <ele>27.4</ele>
      </trkpt>
      <trkpt lat="37.570099" lon="127.017585">
        <ele>27.3</ele>
      </trkpt>
      <trkpt lat="37.570113" lon="127.017619">
        <ele>27.2</ele>
      </trkpt>
      <trkpt lat="37.570084" lon="127.017646">
        <ele>27.1</ele>
      </trkpt>
      <trkpt lat="37.570329" lon="127.018148">
        <ele>26.9</ele>
      </trkpt>
      <trkpt lat="37.570523" lon="127.018526">
        <ele>26.8</ele>
      </trkpt>
      <trkpt lat="37.570535168305696" lon="127.01851844787599">
        <ele>26.7</ele>
      </trkpt>
      <trkpt lat="37.570523" lon="127.018526">
        <ele>26.6</ele>
      </trkpt>
      <trkpt lat="37.570807" lon="127.019076">
        <ele>26.5</ele>
      </trkpt>
      <trkpt lat="37.570859" lon="127.019175">
        <ele>26.5</ele>
      </trkpt>
      <trkpt lat="37.570906" lon="127.019266">
        <ele>26.4</ele>
      </trkpt>
      <trkpt lat="37.571034" lon="127.019517">
        <ele>26.3</ele>
      </trkpt>
      <trkpt lat="37.571011374598285" lon="127.01953768730165">
        <ele>26.3</ele>
      </trkpt>
      <trkpt lat="37.571034" lon="127.019517">
        <ele>26.2</ele>
      </trkpt>
      <trkpt lat="37.570906" lon="127.019266">
        <ele>26.1</ele>
      </trkpt>
      <trkpt lat="37.57093" lon="127.019243">
        <ele>26.1</ele>
      </trkpt>
      <trkpt lat="37.571163" lon="127.019685">
        <ele>26.1</ele>
      </trkpt>
      <trkpt lat="37.571478" lon="127.020404">
        <ele>26.0</ele>
      </trkpt>
      <trkpt lat="37.571604" lon="127.020754">
        <ele>26.0</ele>
      </trkpt>
      <trkpt lat="37.571681" lon="127.021172">
        <ele>25.9</ele>
      </trkpt>
      <trkpt lat="37.571687" lon="127.021241">
        <ele>25.9</ele>
      </trkpt>
      <trkpt lat="37.571674656860374" lon="127.02124357223512">
        <ele>25.9</ele>
      </trkpt>
      <trkpt lat="37.571687" lon="127.021241">
        <ele>25.8</ele>
      </trkpt>
      <trkpt lat="37.571714" lon="127.021523">
        <ele>25.8</ele>
      </trkpt>
      <trkpt lat="37.571714" lon="127.021908">
        <ele>25.8</ele>
      </trkpt>
      <trkpt lat="37.571603" lon="127.022904">
        <ele>25.7</ele>
      </trkpt>
      <trkpt lat="37.571591" lon="127.022945">
        <ele>25.7</ele>
      </trkpt>
      <trkpt lat="37.571505" lon="127.023247">
        <ele>25.7</ele>
      </trkpt>
      <trkpt lat="37.571492" lon="127.023291">
        <ele>25.7</ele>
      </trkpt>
      <trkpt lat="37.57148" lon="127.023332">
        <ele>25.7</ele>
      </trkpt>
      <trkpt lat="37.571464" lon="127.02339">
        <ele>25.7</ele>
      </trkpt>
      <trkpt lat="37.571423" lon="127.023532">
        <ele>25.7</ele>
      </trkpt>
      <trkpt lat="37.571375" lon="127.023685">
        <ele>25.7</ele>
      </trkpt>
      <trkpt lat="37.571309" lon="127.023904">
        <ele>25.7</ele>
      </trkpt>
      <trkpt lat="37.57130900198496" lon="127.0239043235779">
        <ele>25.7</ele>
      </trkpt>
      <trkpt lat="37.571309" lon="127.023904">
        <ele>25.7</ele>
      </trkpt>
      <trkpt lat="37.571028" lon="127.024845">
        <ele>25.7</ele>
      </trkpt>
      <trkpt lat="37.570755" lon="127.025779">
        <ele>25.7</ele>
      </trkpt>
      <trkpt lat="37.57054" lon="127.026527">
        <ele>25.7</ele>
      </trkpt>
      <trkpt lat="37.570093" lon="127.027985">
        <ele>25.7</ele>
      </trkpt>
      <trkpt lat="37.570036" lon="127.028171">
        <ele>25.7</ele>
      </trkpt>
      <trkpt lat="37.57004195143567" lon="127.0281744003296">
        <ele>25.7</ele>
      </trkpt>
      <trkpt lat="37.570036" lon="127.028171">
        <ele>25.7</ele>
      </trkpt>
      <trkpt lat="37.57001" lon="127.028257">
        <ele>25.7</ele>
      </trkpt>
      <trkpt lat="37.569776" lon="127.029137">
        <ele>25.7</ele>
      </trkpt>
      <trkpt lat="37.569571" lon="127.029912">
        <ele>25.7</ele>
      </trkpt>
      <trkpt lat="37.569542" lon="127.030101">
        <ele>25.6</ele>
      </trkpt>
      <trkpt lat="37.569516" lon="127.030275">
        <ele>25.6</ele>
      </trkpt>
      <trkpt lat="37.569502" lon="127.030468">
        <ele>25.6</ele>
      </trkpt>
      <trkpt lat="37.56948" lon="127.030745">
        <ele>25.6</ele>
      </trkpt>
      <trkpt lat="37.569506212169316" lon="127.0307493209839">
        <ele>25.6</ele>
      </trkpt>
      <trkpt lat="37.56948" lon="127.030745">
        <ele>25.5</ele>
      </trkpt>
      <trkpt lat="37.56948" lon="127.030757">
        <ele>25.5</ele>
      </trkpt>
      <trkpt lat="37.569501" lon="127.031167">
        <ele>25.5</ele>
      </trkpt>
      <trkpt lat="37.569572" lon="127.031633">
        <ele>25.5</ele>
      </trkpt>
      <trkpt lat="37.569828" lon="127.032386">
        <ele>25.4</ele>
      </trkpt>
      <trkpt lat="37.570112" lon="127.032991">
        <ele>25.4</ele>
      </trkpt>
      <trkpt lat="37.570391" lon="127.033376">
        <ele>25.3</ele>
      </trkpt>
      <trkpt lat="37.57038210135073" lon="127.03338861465456">
        <ele>25.3</ele>
      </trkpt>
      <trkpt lat="37.570391" lon="127.033376">
        <ele>25.2</ele>
      </trkpt>
      <trkpt lat="37.570637" lon="127.033713">
        <ele>25.1</ele>
      </trkpt>
      <trkpt lat="37.570961" lon="127.034175">
        <ele>25.1</ele>
      </trkpt>
      <trkpt lat="37.571105" lon="127.03438">
        <ele>25.0</ele>
      </trkpt>
      <trkpt lat="37.571492" lon="127.035041">
        <ele>24.9</ele>
      </trkpt>
      <trkpt lat="37.571659" lon="127.035438">
        <ele>24.9</ele>
      </trkpt>
      <trkpt lat="37.571734" lon="127.035697">
        <ele>24.8</ele>
      </trkpt>
      <trkpt lat="37.571883" lon="127.03655">
        <ele>24.7</ele>
      </trkpt>
      <trkpt lat="37.571957" lon="127.037124">
        <ele>24.7</ele>
      </trkpt>
      <trkpt lat="37.57196" lon="127.037187">
        <ele>24.6</ele>
      </trkpt>
      <trkpt lat="37.57198078514282" lon="127.03718662261964">
        <ele>24.5</ele>
      </trkpt>
      <trkpt lat="37.57196" lon="127.037187">
        <ele>24.4</ele>
      </trkpt>
      <trkpt lat="37.571981" lon="127.037586">
        <ele>24.4</ele>
      </trkpt>
      <trkpt lat="37.571998" lon="127.03769">
        <ele>24.4</ele>
      </trkpt>
      <trkpt lat="37.572047" lon="127.037669">
        <ele>24.3</ele>
      </trkpt>
      <trkpt lat="37.57206" lon="127.037689">
        <ele>24.3</ele>
      </trkpt>
      <trkpt lat="37.572088" lon="127.037711">
        <ele>24.2</ele>
      </trkpt>
      <trkpt lat="37.572503" lon="127.037719">
        <ele>24.2</ele>
      </trkpt>
      <trkpt lat="37.572587" lon="127.037718">
        <ele>24.2</ele>
      </trkpt>
      <trkpt lat="37.572612" lon="127.037679">
        <ele>24.1</ele>
      </trkpt>
      <trkpt lat="37.572638" lon="127.037591">
        <ele>24.1</ele>
      </trkpt>
      <trkpt lat="37.57264405877144" lon="127.0375943183899">
        <ele>24.1</ele>
      </trkpt>
      <trkpt lat="37.572638" lon="127.037591">
        <ele>24.1</ele>
      </trkpt>
      <trkpt lat="37.572641" lon="127.037584">
        <ele>24.1</ele>
      </trkpt>
      <trkpt lat="37.572658" lon="127.037413">
        <ele>24.1</ele>
      </trkpt>
      <trkpt lat="37.572616" lon="127.036997">
        <ele>24.1</ele>
      </trkpt>
      <trkpt lat="37.572535" lon="127.036301">
        <ele>24.1</ele>
      </trkpt>
      <trkpt lat="37.572448" lon="127.035982">
        <ele>24.1</ele>
      </trkpt>
      <trkpt lat="37.572284" lon="127.035481">
        <ele>24.1</ele>
      </trkpt>
      <trkpt lat="37.572176" lon="127.03519">
        <ele>24.1</ele>
      </trkpt>
      <trkpt lat="37.572159359393154" lon="127.03520178794862">
        <ele>24.1</ele>
      </trkpt>
      <trkpt lat="37.572176" lon="127.03519">
        <ele>24.1</ele>
      </trkpt>
      <trkpt lat="37.572176" lon="127.035189">
        <ele>24.2</ele>
      </trkpt>
      <trkpt lat="37.572111" lon="127.035033">
        <ele>24.2</ele>
      </trkpt>
      <trkpt lat="37.572088" lon="127.034992">
        <ele>24.2</ele>
      </trkpt>
      <trkpt lat="37.572048" lon="127.034922">
        <ele>24.3</ele>
      </trkpt>
      <trkpt lat="37.571995" lon="127.034797">
        <ele>24.3</ele>
      </trkpt>
      <trkpt lat="37.571903" lon="127.034634">
        <ele>24.3</ele>
      </trkpt>
      <trkpt lat="37.571818" lon="127.034484">
        <ele>24.4</ele>
      </trkpt>
      <trkpt lat="37.57156" lon="127.034062">
        <ele>24.4</ele>
      </trkpt>
      <trkpt lat="37.571022" lon="127.033285">
        <ele>24.5</ele>
      </trkpt>
      <trkpt lat="37.570881" lon="127.033092">
        <ele>24.5</ele>
      </trkpt>
      <trkpt lat="37.570632" lon="127.03274">
        <ele>24.6</ele>
      </trkpt>
      <trkpt lat="37.570437" lon="127.032423">
        <ele>24.6</ele>
      </trkpt>
      <trkpt lat="37.570336" lon="127.032228">
        <ele>24.6</ele>
      </trkpt>
      <trkpt lat="37.570255" lon="127.032018">
        <ele>24.6</ele>
      </trkpt>
      <trkpt lat="37.570119" lon="127.031566">
        <ele>24.7</ele>
      </trkpt>
      <trkpt lat="37.57007" lon="127.031286">
        <ele>24.7</ele>
      </trkpt>
      <trkpt lat="37.570048" lon="127.031091">
        <ele>24.7</ele>
      </trkpt>
      <trkpt lat="37.57004" lon="127.030983">
        <ele>24.7</ele>
      </trkpt>
      <trkpt lat="37.57003344766789" lon="127.03098535537721">
        <ele>24.8</ele>
      </trkpt>
      <trkpt lat="37.57004" lon="127.030983">
        <ele>24.8</ele>
      </trkpt>
      <trkpt lat="37.570036" lon="127.030916">
        <ele>24.8</ele>
      </trkpt>
      <trkpt lat="37.570034" lon="127.030504">
        <ele>24.8</ele>
      </trkpt>
      <trkpt lat="37.570037" lon="127.030326">
        <ele>24.9</ele>
      </trkpt>
      <trkpt lat="37.570062" lon="127.030172">
        <ele>24.9</ele>
      </trkpt>
      <trkpt lat="37.570085" lon="127.03005">
        <ele>24.9</ele>
      </trkpt>
      <trkpt lat="37.570361" lon="127.029026">
        <ele>24.9</ele>
      </trkpt>
      <trkpt lat="37.570653" lon="127.028021">
        <ele>25.0</ele>
      </trkpt>
      <trkpt lat="37.570671" lon="127.027962">
        <ele>25.0</ele>
      </trkpt>
      <trkpt lat="37.570779" lon="127.027566">
        <ele>25.1</ele>
      </trkpt>
      <trkpt lat="37.570819" lon="127.027422">
        <ele>25.1</ele>
      </trkpt>
      <trkpt lat="37.570993" lon="127.026836">
        <ele>25.1</ele>
      </trkpt>
      <trkpt lat="37.571022" lon="127.026737">
        <ele>25.2</ele>
      </trkpt>
      <trkpt lat="37.571063" lon="127.026593">
        <ele>25.2</ele>
      </trkpt>
      <trkpt lat="37.571543" lon="127.024926">
        <ele>25.3</ele>
      </trkpt>
      <trkpt lat="37.571573" lon="127.024817">
        <ele>25.4</ele>
      </trkpt>
      <trkpt lat="37.57154710303795" lon="127.0248055458069">
        <ele>25.4</ele>
      </trkpt>
      <trkpt lat="37.571573" lon="127.024817">
        <ele>25.5</ele>
      </trkpt>
      <trkpt lat="37.57194" lon="127.023526">
        <ele>25.6</ele>
      </trkpt>
      <trkpt lat="37.571982" lon="127.023365">
        <ele>25.6</ele>
      </trkpt>
      <trkpt lat="37.571991" lon="127.023304">
        <ele>25.7</ele>
      </trkpt>
      <trkpt lat="37.572007" lon="127.023213">
        <ele>25.8</ele>
      </trkpt>
      <trkpt lat="37.572061" lon="127.022896">
        <ele>25.9</ele>
      </trkpt>
      <trkpt lat="37.572134" lon="127.022459">
        <ele>25.9</ele>
      </trkpt>
      <trkpt lat="37.57215" lon="127.022326">
        <ele>26.0</ele>
      </trkpt>
      <trkpt lat="37.572168" lon="127.021946">
        <ele>26.1</ele>
      </trkpt>
      <trkpt lat="37.57214" lon="127.021598">
        <ele>26.2</ele>
      </trkpt>
      <trkpt lat="37.57215085586714" lon="127.02159762382509">
        <ele>26.3</ele>
      </trkpt>
      <trkpt lat="37.57214" lon="127.021598">
        <ele>26.4</ele>
      </trkpt>
      <trkpt lat="37.572113" lon="127.021243">
        <ele>26.5</ele>
      </trkpt>
      <trkpt lat="37.571914" lon="127.020282">
        <ele>26.6</ele>
      </trkpt>
      <trkpt lat="37.571745" lon="127.019876">
        <ele>26.7</ele>
      </trkpt>
      <trkpt lat="37.57157" lon="127.019506">
        <ele>26.8</ele>
      </trkpt>
      <trkpt lat="37.571371" lon="127.01913">
        <ele>26.9</ele>
      </trkpt>
      <trkpt lat="37.571360023703264" lon="127.01914072036745">
        <ele>27.0</ele>
      </trkpt>
      <trkpt lat="37.571371" lon="127.01913">
        <ele>27.1</ele>
      </trkpt>
      <trkpt lat="37.571264" lon="127.018929">
        <ele>27.3</ele>
      </trkpt>
      <trkpt lat="37.571226" lon="127.018858">
        <ele>27.4</ele>
      </trkpt>
      <trkpt lat="37.571164" lon="127.018746">
        <ele>27.6</ele>
      </trkpt>
      <trkpt lat="37.570455" lon="127.017427">
        <ele>27.7</ele>
      </trkpt>
      <trkpt lat="37.570258" lon="127.016952">
        <ele>27.9</ele>
      </trkpt>
      <trkpt lat="37.570124" lon="127.016542">
        <ele>28.1</ele>
      </trkpt>
      <trkpt lat="37.570071" lon="127.016316">
        <ele>28.2</ele>
      </trkpt>
      <trkpt lat="37.57006746273319" lon="127.01631903648378">
        <ele>28.4</ele>
      </trkpt>
      <trkpt lat="37.570071" lon="127.016316">
        <ele>28.5</ele>
      </trkpt>
      <trkpt lat="37.570018" lon="127.01609">
        <ele>28.7</ele>
      </trkpt>
      <trkpt lat="37.570018" lon="127.015858">
        <ele>28.8</ele>
      </trkpt>
      <trkpt lat="37.570009" lon="127.015644">
        <ele>28.9</ele>
      </trkpt>
      <trkpt lat="37.569996" lon="127.014094">
        <ele>29.0</ele>
      </trkpt>
      <trkpt lat="37.569969" lon="127.012744">
        <ele>29.1</ele>
      </trkpt>
      <trkpt lat="37.56993990615821" lon="127.01274633407594">
        <ele>29.3</ele>
      </trkpt>
      <trkpt lat="37.569969" lon="127.012744">
        <ele>29.4</ele>
      </trkpt>
      <trkpt lat="37.569967" lon="127.012618">
        <ele>29.5</ele>
      </trkpt>
      <trkpt lat="37.569965" lon="127.012487">
        <ele>29.6</ele>
      </trkpt>
      <trkpt lat="37.569956" lon="127.011345">
        <ele>29.7</ele>
      </trkpt>
      <trkpt lat="37.56995" lon="127.010057">
        <ele>29.9</ele>
      </trkpt>
      <trkpt lat="37.569949" lon="127.009986">
        <ele>30.0</ele>
      </trkpt>
      <trkpt lat="37.569949" lon="127.009898">
        <ele>30.1</ele>
      </trkpt>
      <trkpt lat="37.569962" lon="127.009734">
        <ele>30.2</ele>
      </trkpt>
      <trkpt lat="37.569956" lon="127.009598">
        <ele>30.4</ele>
      </trkpt>
      <trkpt lat="37.569958" lon="127.009541">
        <ele>30.5</ele>
      </trkpt>
      <trkpt lat="37.569949" lon="127.009364">
        <ele>30.6</ele>
      </trkpt>
      <trkpt lat="37.569944" lon="127.009309">
        <ele>30.7</ele>
      </trkpt>
      <trkpt lat="37.569942" lon="127.009243">
        <ele>30.8</ele>
      </trkpt>
      <trkpt lat="37.569889" lon="127.008399">
        <ele>30.9</ele>
      </trkpt>
      <trkpt lat="37.56988888346707" lon="127.00840115547182">
        <ele>31.0</ele>
      </trkpt>
      <trkpt lat="37.569889" lon="127.008399">
        <ele>31.1</ele>
      </trkpt>
      <trkpt lat="37.569851" lon="127.007773">
        <ele>31.1</ele>
      </trkpt>
      <trkpt lat="37.569822" lon="127.00671">
        <ele>31.1</ele>
      </trkpt>
      <trkpt lat="37.56979" lon="127.00505">
        <ele>31.1</ele>
      </trkpt>
      <trkpt lat="37.569788" lon="127.004532">
        <ele>31.1</ele>
      </trkpt>
      <trkpt lat="37.569783" lon="127.003899">
        <ele>31.1</ele>
      </trkpt>
      <trkpt lat="37.569795" lon="127.002794">
        <ele>31.1</ele>
      </trkpt>
      <trkpt lat="37.569793" lon="127.002682">
        <ele>31.1</ele>
      </trkpt>
      <trkpt lat="37.56979534177585" lon="127.00268268585206">
        <ele>31.1</ele>
      </trkpt>
      <trkpt lat="37.569793" lon="127.002682">
        <ele>31.2</ele>
      </trkpt>
      <trkpt lat="37.569787" lon="127.002284">
        <ele>31.2</ele>
      </trkpt>
      <trkpt lat="37.569764" lon="127.002021">
        <ele>31.3</ele>
      </trkpt>
      <trkpt lat="37.569752" lon="127.00191">
        <ele>31.3</ele>
      </trkpt>
      <trkpt lat="37.569749" lon="127.001821">
        <ele>31.4</ele>
      </trkpt>
      <trkpt lat="37.569706" lon="127.001538">
        <ele>31.4</ele>
      </trkpt>
      <trkpt lat="37.569614" lon="127.001051">
        <ele>31.5</ele>
      </trkpt>
      <trkpt lat="37.569483" lon="127.000358">
        <ele>31.6</ele>
      </trkpt>
      <trkpt lat="37.569441" lon="127.000147">
        <ele>31.7</ele>
      </trkpt>
      <trkpt lat="37.569365" lon="126.999749">
        <ele>31.8</ele>
      </trkpt>
      <trkpt lat="37.5693" lon="126.999409">
        <ele>32.0</ele>
      </trkpt>
      <trkpt lat="37.569173" lon="126.998852">
        <ele>32.2</ele>
      </trkpt>
      <trkpt lat="37.569084" lon="126.998465">
        <ele>32.3</ele>
      </trkpt>
      <trkpt lat="37.569009" lon="126.998055">
        <ele>32.5</ele>
      </trkpt>
      <trkpt lat="37.568987" lon="126.997924">
        <ele>32.7</ele>
      </trkpt>
      <trkpt lat="37.568921" lon="126.997548">
        <ele>33.0</ele>
      </trkpt>
      <trkpt lat="37.568842" lon="126.996894">
        <ele>33.2</ele>
      </trkpt>
      <trkpt lat="37.568836" lon="126.996828">
        <ele>33.5</ele>
      </trkpt>
      <trkpt lat="37.568783" lon="126.996367">
        <ele>33.7</ele>
      </trkpt>
      <trkpt lat="37.568772" lon="126.996062">
        <ele>34.0</ele>
      </trkpt>
      <trkpt lat="37.56878338324264" lon="126.99606299400331">
        <ele>34.3</ele>
      </trkpt>
      <trkpt lat="37.568772" lon="126.996062">
        <ele>34.6</ele>
      </trkpt>
      <trkpt lat="37.568754" lon="126.995541">
        <ele>35.0</ele>
      </trkpt>
      <trkpt lat="37.568729" lon="126.995082">
        <ele>35.3</ele>
      </trkpt>
      <trkpt lat="37.568705" lon="126.994699">
        <ele>35.7</ele>
      </trkpt>
      <trkpt lat="37.568687" lon="126.994437">
        <ele>36.1</ele>
      </trkpt>
      <trkpt lat="37.568635" lon="126.993725">
        <ele>36.6</ele>
      </trkpt>
      <trkpt lat="37.568594" lon="126.99308">
        <ele>37.0</ele>
      </trkpt>
      <trkpt lat="37.568554" lon="126.992375">
        <ele>37.5</ele>
      </trkpt>
      <trkpt lat="37.568502" lon="126.991869">
        <ele>38.0</ele>
      </trkpt>
      <trkpt lat="37.568455" lon="126.991337">
        <ele>38.5</ele>
      </trkpt>
      <trkpt lat="37.568414" lon="126.990912">
        <ele>39.0</ele>
      </trkpt>
      <trkpt lat="37.568397" lon="126.990606">
        <ele>39.5</ele>
      </trkpt>
      <trkpt lat="37.568362" lon="126.990232">
        <ele>40.1</ele>
      </trkpt>
      <trkpt lat="37.568355" lon="126.990152">
        <ele>40.7</ele>
      </trkpt>
      <trkpt lat="37.568325" lon="126.989612">
        <ele>41.3</ele>
      </trkpt>
      <trkpt lat="37.568288" lon="126.988874">
        <ele>41.9</ele>
      </trkpt>
      <trkpt lat="37.568306" lon="126.987765">
        <ele>42.5</ele>
      </trkpt>
      <trkpt lat="37.568306" lon="126.987675">
        <ele>43.0</ele>
      </trkpt>
      <trkpt lat="37.568307" lon="126.987625">
        <ele>43.6</ele>
      </trkpt>
      <trkpt lat="37.568307" lon="126.987555">
        <ele>44.2</ele>
      </trkpt>
      <trkpt lat="37.568309" lon="126.98734">
        <ele>44.7</ele>
      </trkpt>
      <trkpt lat="37.568333" lon="126.986985">
        <ele>45.2</ele>
      </trkpt>
      <trkpt lat="37.56834117855856" lon="126.98698639869691">
        <ele>45.7</ele>
      </trkpt>
      <trkpt lat="37.568333" lon="126.986985">
        <ele>46.3</ele>
      </trkpt>
      <trkpt lat="37.568342" lon="126.986862">
        <ele>46.8</ele>
      </trkpt>
      <trkpt lat="37.568374" lon="126.986604">
        <ele>47.3</ele>
      </trkpt>
      <trkpt lat="37.568533" lon="126.985735">
        <ele>47.7</ele>
      </trkpt>
      <trkpt lat="37.568757" lon="126.984629">
        <ele>48.3</ele>
      </trkpt>
      <trkpt lat="37.568767" lon="126.984556">
        <ele>48.8</ele>
      </trkpt>
      <trkpt lat="37.568789" lon="126.984422">
        <ele>49.3</ele>
      </trkpt>
      <trkpt lat="37.568856" lon="126.98399">
        <ele>49.8</ele>
      </trkpt>
      <trkpt lat="37.569014" lon="126.983134">
        <ele>50.3</ele>
      </trkpt>
      <trkpt lat="37.569074" lon="126.982785">
        <ele>50.8</ele>
      </trkpt>
      <trkpt lat="37.569128" lon="126.981891">
        <ele>51.2</ele>
      </trkpt>
      <trkpt lat="37.56918" lon="126.981019">
        <ele>51.6</ele>
      </trkpt>
      <trkpt lat="37.569202" lon="126.980698">
        <ele>52.0</ele>
      </trkpt>
      <trkpt lat="37.569262" lon="126.979903">
        <ele>52.4</ele>
      </trkpt>
      <trkpt lat="37.569286" lon="126.979439">
        <ele>52.7</ele>
      </trkpt>
      <trkpt lat="37.569295" lon="126.979303">
        <ele>53.0</ele>
      </trkpt>
      <trkpt lat="37.569252" lon="126.979303">
        <ele>53.4</ele>
      </trkpt>
      <trkpt lat="37.569242" lon="126.979302">
        <ele>53.6</ele>
      </trkpt>
      <trkpt lat="37.56924259302046" lon="126.97931528091432">
        <ele>53.9</ele>
      </trkpt>
      <trkpt lat="37.569242" lon="126.979302">
        <ele>54.1</ele>
      </trkpt>
      <trkpt lat="37.569252" lon="126.979303">
        <ele>54.3</ele>
      </trkpt>
      <trkpt lat="37.569295" lon="126.979303">
        <ele>54.5</ele>
      </trkpt>
      <trkpt lat="37.569295" lon="126.97917">
        <ele>54.7</ele>
      </trkpt>
      <trkpt lat="37.569256" lon="126.979169">
        <ele>54.8</ele>
      </trkpt>
      <trkpt lat="37.569223" lon="126.979168">
        <ele>55.0</ele>
      </trkpt>
      <trkpt lat="37.569054" lon="126.979149">
        <ele>55.1</ele>
      </trkpt>
      <trkpt lat="37.569028" lon="126.979145">
        <ele>55.2</ele>
      </trkpt>
      <trkpt lat="37.568985" lon="126.979141">
        <ele>55.3</ele>
      </trkpt>
      <trkpt lat="37.568974" lon="126.979282">
        <ele>55.3</ele>
      </trkpt>
      <trkpt lat="37.568962" lon="126.979404">
        <ele>55.3</ele>
      </trkpt>
      <trkpt lat="37.568932" lon="126.979813">
        <ele>55.4</ele>
      </trkpt>
      <trkpt lat="37.568896" lon="126.979813">
        <ele>55.5</ele>
      </trkpt>
      <trkpt lat="37.56831" lon="126.979808">
        <ele>55.5</ele>
      </trkpt>
      <trkpt lat="37.56819" lon="126.979809">
        <ele>55.6</ele>
      </trkpt>
      <trkpt lat="37.567883" lon="126.979812">
        <ele>55.6</ele>
      </trkpt>
      <trkpt lat="37.567564" lon="126.979795">
        <ele>55.6</ele>
      </trkpt>
      <trkpt lat="37.567345" lon="126.979792">
        <ele>55.6</ele>
      </trkpt>
      <trkpt lat="37.566878" lon="126.979786">
        <ele>55.6</ele>
      </trkpt>
      <trkpt lat="37.566534" lon="126.979775">
        <ele>55.6</ele>
      </trkpt>
      <trkpt lat="37.566467" lon="126.979738">
        <ele>55.5</ele>
      </trkpt>
      <trkpt lat="37.566373" lon="126.979613">
        <ele>55.5</ele>
      </trkpt>
      <trkpt lat="37.566011" lon="126.979613">
        <ele>55.4</ele>
      </trkpt>
      <trkpt lat="37.56601" lon="126.978978">
        <ele>55.4</ele>
      </trkpt>
      <trkpt lat="37.566008" lon="126.978976">
        <ele>55.4</ele>
      </trkpt>
      <trkpt lat="37.56601105666902" lon="126.97897195816041">
        <ele>55.3</ele>
      </trkpt>
    </trkseg>
  </trk>
</gpx>