<?xml version="1.0" encoding="UTF-8"?>
<gpx version="1.1" creator="HTML GPX Creator" xmlns="http://www.topografix.com/GPX/1/1">
  <trk>
    <name>seolleim</name>
    <trkseg>
      <trkpt lat="37.55234351023896" lon="127.21356868675404">
        <ele>15.6</ele>
      </trkpt>
      <trkpt lat="37.552346" lon="127.213572">
        <ele>15.6</ele>
      </trkpt>
      <trkpt lat="37.553114" lon="127.212739">
        <ele>15.6</ele>
      </trkpt>
      <trkpt lat="37.553197" lon="127.212648">
        <ele>15.6</ele>
      </trkpt>
      <trkpt lat="37.553918" lon="127.211855">
        <ele>15.6</ele>
      </trkpt>
      <trkpt lat="37.5539085587235" lon="127.21184134414847">
        <ele>15.6</ele>
      </trkpt>
      <trkpt lat="37.553918" lon="127.211855">
        <ele>15.6</ele>
      </trkpt>
      <trkpt lat="37.553979" lon="127.211789">
        <ele>15.6</ele>
      </trkpt>
      <trkpt lat="37.554194" lon="127.21155">
        <ele>15.6</ele>
      </trkpt>
      <trkpt lat="37.555275" lon="127.2104">
        <ele>15.6</ele>
      </trkpt>
      <trkpt lat="37.555524" lon="127.210159">
        <ele>15.6</ele>
      </trkpt>
      <trkpt lat="37.55551610148146" lon="127.21014618805106">
        <ele>15.6</ele>
      </trkpt>
      <trkpt lat="37.555524" lon="127.210159">
        <ele>15.6</ele>
      </trkpt>
      <trkpt lat="37.555604" lon="127.210083">
        <ele>15.6</ele>
      </trkpt>
      <trkpt lat="37.556568" lon="127.208994">
        <ele>15.5</ele>
      </trkpt>
      <trkpt lat="37.556718" lon="127.208832">
        <ele>15.5</ele>
      </trkpt>
      <trkpt lat="37.55671535682681" lon="127.20882654121573">
        <ele>15.5</ele>
      </trkpt>
      <trkpt lat="37.556718" lon="127.208832">
        <ele>15.5</ele>
      </trkpt>
      <trkpt lat="37.556727" lon="127.208823">
        <ele>15.4</ele>
      </trkpt>
      <trkpt lat="37.556866" lon="127.208784">
        <ele>15.4</ele>
      </trkpt>
      <trkpt lat="37.557264" lon="127.208809">
        <ele>15.3</ele>
      </trkpt>
      <trkpt lat="37.557412" lon="127.20878">
        <ele>15.3</ele>
      </trkpt>
      <trkpt lat="37.5574127872297" lon="127.20878362587149">
        <ele>15.2</ele>
      </trkpt>
      <trkpt lat="37.557412" lon="127.20878">
        <ele>15.2</ele>
      </trkpt>
      <trkpt lat="37.557425" lon="127.208778">
        <ele>15.2</ele>
      </trkpt>
      <trkpt lat="37.557725" lon="127.208455">
        <ele>15.1</ele>
      </trkpt>
      <trkpt lat="37.557887" lon="127.208272">
        <ele>15.1</ele>
      </trkpt>
      <trkpt lat="37.558368" lon="127.207767">
        <ele>15.1</ele>
      </trkpt>
      <trkpt lat="37.558826" lon="127.207262">
        <ele>15.1</ele>
      </trkpt>
      <trkpt lat="37.55882463855023" lon="127.20726013115102">
        <ele>15.1</ele>
      </trkpt>
      <trkpt lat="37.558826" lon="127.207262">
        <ele>15.1</ele>
      </trkpt>
      <trkpt lat="37.559046" lon="127.207021">
        <ele>15.1</ele>
      </trkpt>
      <trkpt lat="37.559088" lon="127.206971">
        <ele>15.0</ele>
      </trkpt>
      <trkpt lat="37.55965" lon="127.206361">
        <ele>15.0</ele>
      </trkpt>
      <trkpt lat="37.560232" lon="127.205755">
        <ele>15.0</ele>
      </trkpt>
      <trkpt lat="37.560305" lon="127.20568">
        <ele>15.0</ele>
      </trkpt>
      <trkpt lat="37.560983" lon="127.204973">
        <ele>15.0</ele>
      </trkpt>
      <trkpt lat="37.561095" lon="127.204792">
        <ele>15.1</ele>
      </trkpt>
      <trkpt lat="37.561095451362625" lon="127.20479249919975">
        <ele>15.1</ele>
      </trkpt>
      <trkpt lat="37.561095" lon="127.204792">
        <ele>15.1</ele>
      </trkpt>
      <trkpt lat="37.561108" lon="127.204773">
        <ele>15.2</ele>
      </trkpt>
      <trkpt lat="37.561342" lon="127.204574">
        <ele>15.2</ele>
      </trkpt>
      <trkpt lat="37.562428" lon="127.203446">
        <ele>15.3</ele>
      </trkpt>
      <trkpt lat="37.562857" lon="127.202959">
        <ele>15.3</ele>
      </trkpt>
      <trkpt lat="37.562989" lon="127.202815">
        <ele>15.4</ele>
      </trkpt>
      <trkpt lat="37.562975" lon="127.202796">
        <ele>15.4</ele>
      </trkpt>
      <trkpt lat="37.56296648137161" lon="127.20280766452875">
        <ele>15.5</ele>
      </trkpt>
      <trkpt lat="37.562975" lon="127.202796">
        <ele>15.6</ele>
      </trkpt>
      <trkpt lat="37.562989" lon="127.202815">
        <ele>15.7</ele>
      </trkpt>
      <trkpt lat="37.563038" lon="127.20276">
        <ele>15.8</ele>
      </trkpt>
      <trkpt lat="37.563354" lon="127.202429">
        <ele>15.8</ele>
      </trkpt>
      <trkpt lat="37.563481" lon="127.202296">
        <ele>15.9</ele>
      </trkpt>
      <trkpt lat="37.563709" lon="127.202035">
        <ele>16.1</ele>
      </trkpt>
      <trkpt lat="37.563953" lon="127.20163">
        <ele>16.1</ele>
      </trkpt>
      <trkpt lat="37.563998" lon="127.201549">
        <ele>16.2</ele>
      </trkpt>
      <trkpt lat="37.564034" lon="127.201484">
        <ele>16.3</ele>
      </trkpt>
      <trkpt lat="37.564172" lon="127.201247">
        <ele>16.4</ele>
      </trkpt>
      <trkpt lat="37.564165616805234" lon="127.20124125446404">
        <ele>16.5</ele>
      </trkpt>
      <trkpt lat="37.564172" lon="127.201247">
        <ele>16.6</ele>
      </trkpt>
      <trkpt lat="37.564237" lon="127.201138">
        <ele>16.7</ele>
      </trkpt>
      <trkpt lat="37.564431" lon="127.200776">
        <ele>16.8</ele>
      </trkpt>
      <trkpt lat="37.564647" lon="127.200517">
        <ele>16.8</ele>
      </trkpt>
      <trkpt lat="37.564671" lon="127.200482">
        <ele>16.9</ele>
      </trkpt>
      <trkpt lat="37.56507" lon="127.199979">
        <ele>16.9</ele>
      </trkpt>
      <trkpt lat="37.56506282962987" lon="127.19996988739099">
        <ele>16.9</ele>
      </trkpt>
      <trkpt lat="37.56507" lon="127.199979">
        <ele>17.0</ele>
      </trkpt>
      <trkpt lat="37.565148" lon="127.199882">
        <ele>17.0</ele>
      </trkpt>
      <trkpt lat="37.565426" lon="127.199605">
        <ele>17.0</ele>
      </trkpt>
      <trkpt lat="37.565808" lon="127.199275">
        <ele>17.0</ele>
      </trkpt>
      <trkpt lat="37.566189" lon="127.199006">
        <ele>17.0</ele>
      </trkpt>
      <trkpt lat="37.566612" lon="127.198788">
        <ele>17.0</ele>
      </trkpt>
      <trkpt lat="37.56661060265685" lon="127.1987843510064">
        <ele>16.9</ele>
      </trkpt>
      <trkpt lat="37.566612" lon="127.198788">
        <ele>16.9</ele>
      </trkpt>
      <trkpt lat="37.567873" lon="127.19814">
        <ele>16.8</ele>
      </trkpt>
      <trkpt lat="37.568002" lon="127.198123">
        <ele>16.8</ele>
      </trkpt>
      <trkpt lat="37.568064" lon="127.198133">
        <ele>16.7</ele>
      </trkpt>
      <trkpt lat="37.5680647996598" lon="127.19814062084282">
        <ele>16.6</ele>
      </trkpt>
      <trkpt lat="37.568064" lon="127.198133">
        <ele>16.5</ele>
      </trkpt>
      <trkpt lat="37.568142" lon="127.198146">
        <ele>16.4</ele>
      </trkpt>
      <trkpt lat="37.568252" lon="127.198227">
        <ele>16.3</ele>
      </trkpt>
      <trkpt lat="37.568363" lon="127.198348">
        <ele>16.1</ele>
      </trkpt>
      <trkpt lat="37.568546" lon="127.198629">
        <ele>16.0</ele>
      </trkpt>
      <trkpt lat="37.568581" lon="127.198678">
        <ele>15.9</ele>
      </trkpt>
      <trkpt lat="37.568927" lon="127.199176">
        <ele>15.8</ele>
      </trkpt>
      <trkpt lat="37.568923698003736" lon="127.1991813179406">
        <ele>15.6</ele>
      </trkpt>
      <trkpt lat="37.568927" lon="127.199176">
        <ele>15.5</ele>
      </trkpt>
      <trkpt lat="37.568955" lon="127.199217">
        <ele>15.3</ele>
      </trkpt>
      <trkpt lat="37.568944957376196" lon="127.19922959804536">
        <ele>15.2</ele>
      </trkpt>
      <trkpt lat="37.56851550956482" lon="127.19969630241395">
        <ele>15.0</ele>
      </trkpt>
      <trkpt lat="37.56703580903386" lon="127.20127880573274">
        <ele>14.9</ele>
      </trkpt>
      <trkpt lat="37.56551355769909" lon="127.20292031764986">
        <ele>14.7</ele>
      </trkpt>
      <trkpt lat="37.56400828417088" lon="127.20455110073091">
        <ele>14.6</ele>
      </trkpt>
      <trkpt lat="37.56257101721946" lon="127.20609605312349">
        <ele>14.4</ele>
      </trkpt>
      <trkpt lat="37.561120965362214" lon="127.20765173435213">
        <ele>14.3</ele>
      </trkpt>
      <trkpt lat="37.559207363997025" lon="127.20972776412965">
        <ele>14.1</ele>
      </trkpt>
      <trkpt lat="37.55788482411081" lon="127.21115469932558">
        <ele>13.9</ele>
      </trkpt>
      <trkpt lat="37.556311353798236" lon="127.2128337621689">
        <ele>13.8</ele>
      </trkpt>
      <trkpt lat="37.55457199254653" lon="127.21465766429903">
        <ele>13.6</ele>
      </trkpt>
      <trkpt lat="37.553398219713564" lon="127.21582174301149">
        <ele>13.4</ele>
      </trkpt>
      <trkpt lat="37.553397" lon="127.21582">
        <ele>13.3</ele>
      </trkpt>
      <trkpt lat="37.553389" lon="127.215829">
        <ele>13.2</ele>
      </trkpt>
      <trkpt lat="37.553262" lon="127.215785">
        <ele>13.0</ele>
      </trkpt>
      <trkpt lat="37.553158" lon="127.215641">
        <ele>12.9</ele>
      </trkpt>
      <trkpt lat="37.55315155495595" lon="127.21565008163454">
        <ele>12.8</ele>
      </trkpt>
      <trkpt lat="37.553158" lon="127.215641">
        <ele>12.6</ele>
      </trkpt>
      <trkpt lat="37.552597" lon="127.214856">
        <ele>12.5</ele>
      </trkpt>
      <trkpt lat="37.552592" lon="127.214778">
        <ele>12.4</ele>
      </trkpt>
      <trkpt lat="37.55258167118707" lon="127.21478104591371">
        <ele>12.3</ele>
      </trkpt>
      <trkpt lat="37.552592" lon="127.214778">
        <ele>12.2</ele>
      </trkpt>
      <trkpt lat="37.55259" lon="127.214742">
        <ele>12.1</ele>
      </trkpt>
      <trkpt lat="37.553723" lon="127.21349">
        <ele>12.0</ele>
      </trkpt>
      <trkpt lat="37.553724" lon="127.213488">
        <ele>11.9</ele>
      </trkpt>
      <trkpt lat="37.553712928736296" lon="127.21347212791444">
        <ele>11.8</ele>
      </trkpt>
      <trkpt lat="37.553724" lon="127.213488">
        <ele>11.8</ele>
      </trkpt>
      <trkpt lat="37.554697" lon="127.212466">
        <ele>11.7</ele>
      </trkpt>
      <trkpt lat="37.555739" lon="127.211339">
        <ele>11.6</ele>
      </trkpt>
      <trkpt lat="37.55573724149231" lon="127.21133708953859">
        <ele>11.6</ele>
      </trkpt>
      <trkpt lat="37.555739" lon="127.211339">
        <ele>11.5</ele>
      </trkpt>
      <trkpt lat="37.557735" lon="127.209183">
        <ele>11.5</ele>
      </trkpt>
      <trkpt lat="37.557887" lon="127.209018">
        <ele>11.4</ele>
      </trkpt>
      <trkpt lat="37.557880571533126" lon="127.20900893211366">
        <ele>11.4</ele>
      </trkpt>
      <trkpt lat="37.557887" lon="127.209018">
        <ele>11.4</ele>
      </trkpt>
      <trkpt lat="37.558667" lon="127.208177">
        <ele>11.3</ele>
      </trkpt>
      <trkpt lat="37.559354" lon="127.207434">
        <ele>11.3</ele>
      </trkpt>
      <trkpt lat="37.55936045391489" lon="127.20744252204896">
        <ele>11.3</ele>
      </trkpt>
      <trkpt lat="37.559354" lon="127.207434">
        <ele>11.3</ele>
      </trkpt>
      <trkpt lat="37.559374" lon="127.207413">
        <ele>11.3</ele>
      </trkpt>
      <trkpt lat="37.56043" lon="127.206271">
        <ele>11.3</ele>
      </trkpt>
      <trkpt lat="37.56043207453259" lon="127.20627307891847">
        <ele>11.4</ele>
      </trkpt>
      <trkpt lat="37.56043" lon="127.206271">
        <ele>11.4</ele>
      </trkpt>
      <trkpt lat="37.560585" lon="127.206105">
        <ele>11.4</ele>
      </trkpt>
      <trkpt lat="37.561607" lon="127.204998">
        <ele>11.4</ele>
      </trkpt>
      <trkpt lat="37.561605736572204" lon="127.20499634742738">
        <ele>11.4</ele>
      </trkpt>
      <trkpt lat="37.56326414054234" lon="127.20317244529726">
        <ele>11.5</ele>
      </trkpt>
      <trkpt lat="37.565492296985326" lon="127.20081210136415">
        <ele>11.5</ele>
      </trkpt>
      <trkpt lat="37.566784937351436" lon="127.19944953918458">
        <ele>11.5</ele>
      </trkpt>
      <trkpt lat="37.56738872878386" lon="127.19879508018495">
        <ele>11.6</ele>
      </trkpt>
      <trkpt lat="37.567565188031814" lon="127.19858586788179">
        <ele>11.6</ele>
      </trkpt>
      <trkpt lat="37.56754605391671" lon="127.19854563474658">
        <ele>11.7</ele>
      </trkpt>
      <trkpt lat="37.56729730997294" lon="127.19881385564805">
        <ele>11.7</ele>
      </trkpt>
      <trkpt lat="37.56673816457145" lon="127.1993771195412">
        <ele>11.8</ele>
      </trkpt>
      <trkpt lat="37.566374611507406" lon="127.1997740864754">
        <ele>11.8</ele>
      </trkpt>
      <trkpt lat="37.56586861072223" lon="127.20029711723329">
        <ele>11.9</ele>
      </trkpt>
      <trkpt lat="37.56538174117589" lon="127.20084160566331">
        <ele>11.9</ele>
      </trkpt>
      <trkpt lat="37.56463761126683" lon="127.20165163278581">
        <ele>12.0</ele>
      </trkpt>
      <trkpt lat="37.563742519442556" lon="127.20258772373201">
        <ele>12.1</ele>
      </trkpt>
      <trkpt lat="37.563155707564555" lon="127.20322072505952">
        <ele>12.1</ele>
      </trkpt>
      <trkpt lat="37.56257526952945" lon="127.20384031534196">
        <ele>12.2</ele>
      </trkpt>
      <trkpt lat="37.56195655587529" lon="127.20452159643176">
        <ele>12.3</ele>
      </trkpt>
      <trkpt lat="37.56112947014747" lon="127.20538794994356">
        <ele>12.4</ele>
      </trkpt>
      <trkpt lat="37.560419317234945" lon="127.20618724823">
        <ele>12.5</ele>
      </trkpt>
      <trkpt lat="37.5597559347468" lon="127.20688462257387">
        <ele>12.6</ele>
      </trkpt>
      <trkpt lat="37.55907128380598" lon="127.20763295888904">
        <ele>12.8</ele>
      </trkpt>
      <trkpt lat="37.558239913491605" lon="127.20852345228197">
        <ele>12.9</ele>
      </trkpt>
      <trkpt lat="37.557568006408545" lon="127.20927178859712">
        <ele>13.0</ele>
      </trkpt>
      <trkpt lat="37.55679402998098" lon="127.21010595560075">
        <ele>13.2</ele>
      </trkpt>
      <trkpt lat="37.555890338539704" lon="127.21107691526416">
        <ele>13.3</ele>
      </trkpt>
      <trkpt lat="37.55517163022856" lon="127.21185207366945">
        <ele>13.4</ele>
      </trkpt>
      <trkpt lat="37.55435722752236" lon="127.21271842718126">
        <ele>13.6</ele>
      </trkpt>
      <trkpt lat="37.553419483878585" lon="127.2137349843979">
        <ele>13.7</ele>
      </trkpt>
      <trkpt lat="37.55260931490327" lon="127.21456915140153">
        <ele>13.9</ele>
      </trkpt>
      <trkpt lat="37.55241368222954" lon="127.21481055021287">
        <ele>14.1</ele>
      </trkpt>
      <trkpt lat="37.5532089683776" lon="127.21604168415071">
        <ele>14.2</ele>
      </trkpt>
      <trkpt lat="37.55267523449288" lon="127.21754372119905">
        <ele>14.4</ele>
      </trkpt>
      <trkpt lat="37.55237753265753" lon="127.21714138984682">
        <ele>14.6</ele>
      </trkpt>
      <trkpt lat="37.552383" lon="127.217133">
        <ele>14.8</ele>
      </trkpt>
      <trkpt lat="37.552266" lon="127.216962">
        <ele>15.0</ele>
      </trkpt>
      <trkpt lat="37.551881" lon="127.216383">
        <ele>15.2</ele>
      </trkpt>
      <trkpt lat="37.551735" lon="127.216168">
        <ele>15.3</ele>
      </trkpt>
      <trkpt lat="37.551725" lon="127.216155">
        <ele>15.4</ele>
      </trkpt>
      <trkpt lat="37.55171833150454" lon="127.2161650657654">
        <ele>15.6</ele>
      </trkpt>
      <trkpt lat="37.551725" lon="127.216155">
        <ele>15.7</ele>
      </trkpt>
      <trkpt lat="37.551693" lon="127.216108">
        <ele>15.8</ele>
      </trkpt>
      <trkpt lat="37.551738" lon="127.215031">
        <ele>15.9</ele>
      </trkpt>
      <trkpt lat="37.551748" lon="127.214885">
        <ele>16.0</ele>
      </trkpt>
      <trkpt lat="37.55173109029188" lon="127.21488296985628">
        <ele>16.1</ele>
      </trkpt>
      <trkpt lat="37.551748" lon="127.214885">
        <ele>16.2</ele>
      </trkpt>
      <trkpt lat="37.551803" lon="127.214138">
        <ele>16.3</ele>
      </trkpt>
      <trkpt lat="37.551809" lon="127.214131">
        <ele>16.4</ele>
      </trkpt>
      <trkpt lat="37.55180339004548" lon="127.21412122249605">
        <ele>16.6</ele>
      </trkpt>
      <trkpt lat="37.551809" lon="127.214131">
        <ele>16.7</ele>
      </trkpt>
      <trkpt lat="37.552329" lon="127.213592">
        <ele>16.8</ele>
      </trkpt>
      <trkpt lat="37.552438" lon="127.213473">
        <ele>16.9</ele>
      </trkpt>
      <trkpt lat="37.552441326008065" lon="127.21347749233247">
        <ele>17.0</ele>
      </trkpt>
    </trkseg>
  </trk>
</gpx>