<?xml version="1.0" encoding="UTF-8"?>
 <gpx creator="Garmin Connect" version="1.1"
	 xsi:schemaLocation="http://www.topografix.com/GPX/1/1 http://www.topografix.com/GPX/11.xsd"
	 xmlns:ns3="http://www.garmin.com/xmlschemas/TrackPointExtension/v1"
	 xmlns="http://www.topografix.com/GPX/1/1"
	 xmlns:xsi="http://www.w3.org/2001/XMLSchema-instance" xmlns:ns2="http://www.garmin.com/xmlschemas/GpxExtensions/v3">
	 <metadata>
		<name>Taipei Marathon 2024 - 42.195 km</name>
		 <link href="https://www.goandrace.com">
		 <text>Garmin Connect</text>
		 </link>
	 <time>2026-07-08T13:25:40</time>
	 </metadata>
	 <trk>
		 <name>Taipei Marathon 2024 - 42.195 km</name>
		 <trkseg>
			 <trkpt lat="25.03753" lon="121.56372">
				 <ele>19.3</ele>
			 </trkpt>
			 <trkpt lat="25.037533" lon="121.563329">
				 <ele>18.4</ele>
			 </trkpt>
			 <trkpt lat="25.037547" lon="121.562833">
				 <ele>17.4</ele>
			 </trkpt>
			 <trkpt lat="25.03756" lon="121.562337">
				 <ele>17.1</ele>
			 </trkpt>
			 <trkpt lat="25.037574" lon="121.561841">
				 <ele>17</ele>
			 </trkpt>
			 <trkpt lat="25.037588" lon="121.561345">
				 <ele>16.6</ele>
			 </trkpt>
			 <trkpt lat="25.037601" lon="121.560849">
				 <ele>15</ele>
			 </trkpt>
			 <trkpt lat="25.037615" lon="121.560353">
				 <ele>14.1</ele>
			 </trkpt>
			 <trkpt lat="25.037629" lon="121.559857">
				 <ele>13.5</ele>
			 </trkpt>
			 <trkpt lat="25.037643" lon="121.559361">
				 <ele>12.8</ele>
			 </trkpt>
			 <trkpt lat="25.037656" lon="121.558865">
				 <ele>13</ele>
			 </trkpt>
			 <trkpt lat="25.03767" lon="121.558369">
				 <ele>13.7</ele>
			 </trkpt>
			 <trkpt lat="25.037684" lon="121.557873">
				 <ele>15.2</ele>
			 </trkpt>
			 <trkpt lat="25.037698" lon="121.557377">
				 <ele>17.1</ele>
			 </trkpt>
			 <trkpt lat="25.037711" lon="121.556881">
				 <ele>18.4</ele>
			 </trkpt>
			 <trkpt lat="25.037725" lon="121.556384">
				 <ele>18.5</ele>
			 </trkpt>
			 <trkpt lat="25.037739" lon="121.555888">
				 <ele>18.2</ele>
			 </trkpt>
			 <trkpt lat="25.037753" lon="121.555392">
				 <ele>18.8</ele>
			 </trkpt>
			 <trkpt lat="25.037766" lon="121.554896">
				 <ele>20.8</ele>
			 </trkpt>
			 <trkpt lat="25.037774" lon="121.554633">
				 <ele>24.7</ele>
			 </trkpt>
			 <trkpt lat="25.037784" lon="121.554137">
				 <ele>27.9</ele>
			 </trkpt>
			 <trkpt lat="25.037794" lon="121.553641">
				 <ele>28.5</ele>
			 </trkpt>
			 <trkpt lat="25.037804" lon="121.553145">
				 <ele>27.6</ele>
			 </trkpt>
			 <trkpt lat="25.037814" lon="121.552648">
				 <ele>26.7</ele>
			 </trkpt>
			 <trkpt lat="25.037824" lon="121.552152">
				 <ele>25.6</ele>
			 </trkpt>
			 <trkpt lat="25.037835" lon="121.551656">
				 <ele>24.6</ele>
			 </trkpt>
			 <trkpt lat="25.037845" lon="121.55116">
				 <ele>24.8</ele>
			 </trkpt>
			 <trkpt lat="25.037855" lon="121.550664">
				 <ele>25.5</ele>
			 </trkpt>
			 <trkpt lat="25.037857" lon="121.550566">
				 <ele>25.8</ele>
			 </trkpt>
			 <trkpt lat="25.038015" lon="121.550101">
				 <ele>25</ele>
			 </trkpt>
			 <trkpt lat="25.0381" lon="121.54985">
				 <ele>22</ele>
			 </trkpt>
			 <trkpt lat="25.03847" lon="121.54954">
				 <ele>19.3</ele>
			 </trkpt>
			 <trkpt lat="25.03872" lon="121.54918">
				 <ele>18.1</ele>
			 </trkpt>
			 <trkpt lat="25.03874" lon="121.54853">
				 <ele>17</ele>
			 </trkpt>
			 <trkpt lat="25.03841" lon="121.54806">
				 <ele>16.1</ele>
			 </trkpt>
			 <trkpt lat="25.03815" lon="121.54785">
				 <ele>15.6</ele>
			 </trkpt>
			 <trkpt lat="25.03826" lon="121.54204">
				 <ele>15.2</ele>
			 </trkpt>
			 <trkpt lat="25.03846" lon="121.54127">
				 <ele>14.5</ele>
			 </trkpt>
			 <trkpt lat="25.03854" lon="121.53844">
				 <ele>14.5</ele>
			 </trkpt>
			 <trkpt lat="25.03829" lon="121.53818">
				 <ele>13.9</ele>
			 </trkpt>
			 <trkpt lat="25.03832" lon="121.53754">
				 <ele>13.4</ele>
			 </trkpt>
			 <trkpt lat="25.03853" lon="121.53739">
				 <ele>12.9</ele>
			 </trkpt>
			 <trkpt lat="25.03856" lon="121.53449">
				 <ele>12</ele>
			 </trkpt>
			 <trkpt lat="25.03839" lon="121.53379">
				 <ele>12.1</ele>
			 </trkpt>
			 <trkpt lat="25.03844" lon="121.53297">
				 <ele>13</ele>
			 </trkpt>
			 <trkpt lat="25.03835" lon="121.53255">
				 <ele>13.1</ele>
			 </trkpt>
			 <trkpt lat="25.03834" lon="121.53185">
				 <ele>12.7</ele>
			 </trkpt>
			 <trkpt lat="25.0384" lon="121.52857">
				 <ele>13.9</ele>
			 </trkpt>
			 <trkpt lat="25.03848" lon="121.52514">
				 <ele>16.3</ele>
			 </trkpt>
			 <trkpt lat="25.03938" lon="121.51834">
				 <ele>16.5</ele>
			 </trkpt>
			 <trkpt lat="25.039094" lon="121.518072">
				 <ele>16.6</ele>
			 </trkpt>
			 <trkpt lat="25.03865" lon="121.517999">
				 <ele>16.6</ele>
			 </trkpt>
			 <trkpt lat="25.038439" lon="121.518438">
				 <ele>16.6</ele>
			 </trkpt>
			 <trkpt lat="25.03823" lon="121.518877">
				 <ele>17.8</ele>
			 </trkpt>
			 <trkpt lat="25.038022" lon="121.519317">
				 <ele>18.1</ele>
			 </trkpt>
			 <trkpt lat="25.037813" lon="121.519757">
				 <ele>18.5</ele>
			 </trkpt>
			 <trkpt lat="25.037604" lon="121.520196">
				 <ele>19.8</ele>
			 </trkpt>
			 <trkpt lat="25.037396" lon="121.520636">
				 <ele>21.2</ele>
			 </trkpt>
			 <trkpt lat="25.037187" lon="121.521076">
				 <ele>21.3</ele>
			 </trkpt>
			 <trkpt lat="25.036978" lon="121.521515">
				 <ele>20.9</ele>
			 </trkpt>
			 <trkpt lat="25.03677" lon="121.521955">
				 <ele>22</ele>
			 </trkpt>
			 <trkpt lat="25.036561" lon="121.522395">
				 <ele>22.9</ele>
			 </trkpt>
			 <trkpt lat="25.036353" lon="121.522834">
				 <ele>22.9</ele>
			 </trkpt>
			 <trkpt lat="25.036144" lon="121.523274">
				 <ele>22.9</ele>
			 </trkpt>
			 <trkpt lat="25.035935" lon="121.523713">
				 <ele>22.6</ele>
			 </trkpt>
			 <trkpt lat="25.035727" lon="121.524153">
				 <ele>22.5</ele>
			 </trkpt>
			 <trkpt lat="25.0356" lon="121.52442">
				 <ele>22.1</ele>
			 </trkpt>
			 <trkpt lat="25.035199" lon="121.524196">
				 <ele>21.2</ele>
			 </trkpt>
			 <trkpt lat="25.035117" lon="121.524151">
				 <ele>20.1</ele>
			 </trkpt>
			 <trkpt lat="25.034726" lon="121.523905">
				 <ele>18.6</ele>
			 </trkpt>
			 <trkpt lat="25.034336" lon="121.523658">
				 <ele>16.5</ele>
			 </trkpt>
			 <trkpt lat="25.033945" lon="121.523412">
				 <ele>14.8</ele>
			 </trkpt>
			 <trkpt lat="25.033555" lon="121.523166">
				 <ele>14</ele>
			 </trkpt>
			 <trkpt lat="25.033164" lon="121.52292">
				 <ele>14</ele>
			 </trkpt>
			 <trkpt lat="25.032774" lon="121.522674">
				 <ele>14</ele>
			 </trkpt>
			 <trkpt lat="25.032476" lon="121.522486">
				 <ele>13.6</ele>
			 </trkpt>
			 <trkpt lat="25.032566" lon="121.522164">
				 <ele>13.3</ele>
			 </trkpt>
			 <trkpt lat="25.032767" lon="121.52172">
				 <ele>13.5</ele>
			 </trkpt>
			 <trkpt lat="25.032967" lon="121.521276">
				 <ele>13.6</ele>
			 </trkpt>
			 <trkpt lat="25.033168" lon="121.520832">
				 <ele>13.6</ele>
			 </trkpt>
			 <trkpt lat="25.033369" lon="121.520388">
				 <ele>13.8</ele>
			 </trkpt>
			 <trkpt lat="25.033569" lon="121.519943">
				 <ele>13.6</ele>
			 </trkpt>
			 <trkpt lat="25.03377" lon="121.519499">
				 <ele>12.6</ele>
			 </trkpt>
			 <trkpt lat="25.033971" lon="121.519055">
				 <ele>11.6</ele>
			 </trkpt>
			 <trkpt lat="25.034171" lon="121.518611">
				 <ele>11.5</ele>
			 </trkpt>
			 <trkpt lat="25.034372" lon="121.518167">
				 <ele>11.3</ele>
			 </trkpt>
			 <trkpt lat="25.034573" lon="121.517723">
				 <ele>11.2</ele>
			 </trkpt>
			 <trkpt lat="25.034773" lon="121.517279">
				 <ele>11</ele>
			 </trkpt>
			 <trkpt lat="25.034974" lon="121.516835">
				 <ele>10.5</ele>
			 </trkpt>
			 <trkpt lat="25.035037" lon="121.516341">
				 <ele>10.2</ele>
			 </trkpt>
			 <trkpt lat="25.0351" lon="121.51585">
				 <ele>10.5</ele>
			 </trkpt>
			 <trkpt lat="25.035163" lon="121.515358">
				 <ele>10.8</ele>
			 </trkpt>
			 <trkpt lat="25.035226" lon="121.514867">
				 <ele>11.5</ele>
			 </trkpt>
			 <trkpt lat="25.035288" lon="121.514375">
				 <ele>12.5</ele>
			 </trkpt>
			 <trkpt lat="25.035351" lon="121.513884">
				 <ele>12.9</ele>
			 </trkpt>
			 <trkpt lat="25.035414" lon="121.513393">
				 <ele>12.7</ele>
			 </trkpt>
			 <trkpt lat="25.035476" lon="121.512901">
				 <ele>12.8</ele>
			 </trkpt>
			 <trkpt lat="25.03553" lon="121.512482">
				 <ele>13.3</ele>
			 </trkpt>
			 <trkpt lat="25.035651" lon="121.512004">
				 <ele>13.2</ele>
			 </trkpt>
			 <trkpt lat="25.035772" lon="121.511526">
				 <ele>12.9</ele>
			 </trkpt>
			 <trkpt lat="25.035893" lon="121.511048">
				 <ele>12.8</ele>
			 </trkpt>
			 <trkpt lat="25.03591" lon="121.51098">
				 <ele>13.3</ele>
			 </trkpt>
			 <trkpt lat="25.036086" lon="121.510524">
				 <ele>13.4</ele>
			 </trkpt>
			 <trkpt lat="25.036263" lon="121.510067">
				 <ele>13.4</ele>
			 </trkpt>
			 <trkpt lat="25.036439" lon="121.509611">
				 <ele>13.3</ele>
			 </trkpt>
			 <trkpt lat="25.036616" lon="121.509154">
				 <ele>13.5</ele>
			 </trkpt>
			 <trkpt lat="25.036792" lon="121.508698">
				 <ele>13.5</ele>
			 </trkpt>
			 <trkpt lat="25.036969" lon="121.508241">
				 <ele>13.5</ele>
			 </trkpt>
			 <trkpt lat="25.037145" lon="121.507785">
				 <ele>13.3</ele>
			 </trkpt>
			 <trkpt lat="25.037322" lon="121.507328">
				 <ele>13.3</ele>
			 </trkpt>
			 <trkpt lat="25.037362" lon="121.507225">
				 <ele>13.3</ele>
			 </trkpt>
			 <trkpt lat="25.03744" lon="121.50704">
				 <ele>12.9</ele>
			 </trkpt>
			 <trkpt lat="25.037876" lon="121.507162">
				 <ele>11.5</ele>
			 </trkpt>
			 <trkpt lat="25.038312" lon="121.507284">
				 <ele>10.7</ele>
			 </trkpt>
			 <trkpt lat="25.038748" lon="121.507406">
				 <ele>10.5</ele>
			 </trkpt>
			 <trkpt lat="25.039183" lon="121.507528">
				 <ele>10.3</ele>
			 </trkpt>
			 <trkpt lat="25.039619" lon="121.50765">
				 <ele>10.4</ele>
			 </trkpt>
			 <trkpt lat="25.040055" lon="121.507772">
				 <ele>10.6</ele>
			 </trkpt>
			 <trkpt lat="25.040491" lon="121.507894">
				 <ele>10.5</ele>
			 </trkpt>
			 <trkpt lat="25.040927" lon="121.508016">
				 <ele>10.1</ele>
			 </trkpt>
			 <trkpt lat="25.041363" lon="121.508138">
				 <ele>9.6</ele>
			 </trkpt>
			 <trkpt lat="25.041799" lon="121.50826">
				 <ele>9.4</ele>
			 </trkpt>
			 <trkpt lat="25.042235" lon="121.508382">
				 <ele>9.2</ele>
			 </trkpt>
			 <trkpt lat="25.04267" lon="121.508503">
				 <ele>9.8</ele>
			 </trkpt>
			 <trkpt lat="25.042833" lon="121.508549">
				 <ele>10.7</ele>
			 </trkpt>
			 <trkpt lat="25.043266" lon="121.508681">
				 <ele>11.2</ele>
			 </trkpt>
			 <trkpt lat="25.0437" lon="121.508813">
				 <ele>11.5</ele>
			 </trkpt>
			 <trkpt lat="25.044133" lon="121.508946">
				 <ele>11.6</ele>
			 </trkpt>
			 <trkpt lat="25.044567" lon="121.509078">
				 <ele>11.5</ele>
			 </trkpt>
			 <trkpt lat="25.045" lon="121.50921">
				 <ele>11.4</ele>
			 </trkpt>
			 <trkpt lat="25.045433" lon="121.509342">
				 <ele>11.2</ele>
			 </trkpt>
			 <trkpt lat="25.045867" lon="121.509475">
				 <ele>11.3</ele>
			 </trkpt>
			 <trkpt lat="25.0463" lon="121.509607">
				 <ele>11.4</ele>
			 </trkpt>
			 <trkpt lat="25.046734" lon="121.509739">
				 <ele>11.5</ele>
			 </trkpt>
			 <trkpt lat="25.047167" lon="121.509871">
				 <ele>11.1</ele>
			 </trkpt>
			 <trkpt lat="25.0476" lon="121.510004">
				 <ele>10.2</ele>
			 </trkpt>
			 <trkpt lat="25.048034" lon="121.510136">
				 <ele>9.8</ele>
			 </trkpt>
			 <trkpt lat="25.04808" lon="121.51015">
				 <ele>9.8</ele>
			 </trkpt>
			 <trkpt lat="25.048061" lon="121.510646">
				 <ele>9.7</ele>
			 </trkpt>
			 <trkpt lat="25.048047" lon="121.511035">
				 <ele>9.8</ele>
			 </trkpt>
			 <trkpt lat="25.047936" lon="121.51148">
				 <ele>10.1</ele>
			 </trkpt>
			 <trkpt lat="25.047679" lon="121.511887">
				 <ele>12.2</ele>
			 </trkpt>
			 <trkpt lat="25.047471" lon="121.512215">
				 <ele>14.5</ele>
			 </trkpt>
			 <trkpt lat="25.047343" lon="121.512691">
				 <ele>16.1</ele>
			 </trkpt>
			 <trkpt lat="25.047215" lon="121.513166">
				 <ele>17.3</ele>
			 </trkpt>
			 <trkpt lat="25.047187" lon="121.513272">
				 <ele>18.7</ele>
			 </trkpt>
			 <trkpt lat="25.046737" lon="121.513278">
				 <ele>20.5</ele>
			 </trkpt>
			 <trkpt lat="25.046645" lon="121.513279">
				 <ele>21.5</ele>
			 </trkpt>
			 <trkpt lat="25.046196" lon="121.513274">
				 <ele>22.2</ele>
			 </trkpt>
			 <trkpt lat="25.045746" lon="121.513268">
				 <ele>23</ele>
			 </trkpt>
			 <trkpt lat="25.045296" lon="121.513262">
				 <ele>24.4</ele>
			 </trkpt>
			 <trkpt lat="25.044847" lon="121.513256">
				 <ele>25.4</ele>
			 </trkpt>
			 <trkpt lat="25.044397" lon="121.51325">
				 <ele>24.6</ele>
			 </trkpt>
			 <trkpt lat="25.043948" lon="121.513244">
				 <ele>23.6</ele>
			 </trkpt>
			 <trkpt lat="25.043498" lon="121.513238">
				 <ele>22.8</ele>
			 </trkpt>
			 <trkpt lat="25.043048" lon="121.513233">
				 <ele>21.6</ele>
			 </trkpt>
			 <trkpt lat="25.042599" lon="121.513227">
				 <ele>19.9</ele>
			 </trkpt>
			 <trkpt lat="25.042354" lon="121.513223">
				 <ele>17.7</ele>
			 </trkpt>
			 <trkpt lat="25.041907" lon="121.513167">
				 <ele>15.8</ele>
			 </trkpt>
			 <trkpt lat="25.04146" lon="121.513111">
				 <ele>14.4</ele>
			 </trkpt>
			 <trkpt lat="25.041014" lon="121.513055">
				 <ele>13</ele>
			 </trkpt>
			 <trkpt lat="25.040765" lon="121.513024">
				 <ele>11.6</ele>
			 </trkpt>
			 <trkpt lat="25.040317" lon="121.512982">
				 <ele>10.9</ele>
			 </trkpt>
			 <trkpt lat="25.040036" lon="121.512955">
				 <ele>10.2</ele>
			 </trkpt>
			 <trkpt lat="25.03981" lon="121.513">
				 <ele>9.5</ele>
			 </trkpt>
			 <trkpt lat="25.039755" lon="121.513493">
				 <ele>9.2</ele>
			 </trkpt>
			 <trkpt lat="25.039699" lon="121.513985">
				 <ele>9.3</ele>
			 </trkpt>
			 <trkpt lat="25.039644" lon="121.514478">
				 <ele>9.5</ele>
			 </trkpt>
			 <trkpt lat="25.039588" lon="121.51497">
				 <ele>10.1</ele>
			 </trkpt>
			 <trkpt lat="25.039533" lon="121.515463">
				 <ele>10.7</ele>
			 </trkpt>
			 <trkpt lat="25.039525" lon="121.515528">
				 <ele>11.5</ele>
			 </trkpt>
			 <trkpt lat="25.03939" lon="121.516002">
				 <ele>12.3</ele>
			 </trkpt>
			 <trkpt lat="25.039254" lon="121.516475">
				 <ele>12.6</ele>
			 </trkpt>
			 <trkpt lat="25.039118" lon="121.516948">
				 <ele>12.6</ele>
			 </trkpt>
			 <trkpt lat="25.039053" lon="121.517176">
				 <ele>12.5</ele>
			 </trkpt>
			 <trkpt lat="25.039219" lon="121.517337">
				 <ele>12.9</ele>
			 </trkpt>
			 <trkpt lat="25.039377" lon="121.517511">
				 <ele>14.1</ele>
			 </trkpt>
			 <trkpt lat="25.039523" lon="121.517752">
				 <ele>14.4</ele>
			 </trkpt>
			 <trkpt lat="25.039958" lon="121.517879">
				 <ele>15.1</ele>
			 </trkpt>
			 <trkpt lat="25.040393" lon="121.518006">
				 <ele>15.5</ele>
			 </trkpt>
			 <trkpt lat="25.040827" lon="121.518133">
				 <ele>15.4</ele>
			 </trkpt>
			 <trkpt lat="25.041262" lon="121.51826">
				 <ele>15.1</ele>
			 </trkpt>
			 <trkpt lat="25.041697" lon="121.518387">
				 <ele>14.7</ele>
			 </trkpt>
			 <trkpt lat="25.042132" lon="121.518514">
				 <ele>14.3</ele>
			 </trkpt>
			 <trkpt lat="25.042566" lon="121.518641">
				 <ele>13.5</ele>
			 </trkpt>
			 <trkpt lat="25.043001" lon="121.518767">
				 <ele>13</ele>
			 </trkpt>
			 <trkpt lat="25.043436" lon="121.518894">
				 <ele>12.3</ele>
			 </trkpt>
			 <trkpt lat="25.04387" lon="121.519021">
				 <ele>11.6</ele>
			 </trkpt>
			 <trkpt lat="25.044305" lon="121.519148">
				 <ele>12.1</ele>
			 </trkpt>
			 <trkpt lat="25.04474" lon="121.519275">
				 <ele>11.7</ele>
			 </trkpt>
			 <trkpt lat="25.044971" lon="121.519343">
				 <ele>11.5</ele>
			 </trkpt>
			 <trkpt lat="25.045386" lon="121.519533">
				 <ele>11.5</ele>
			 </trkpt>
			 <trkpt lat="25.045802" lon="121.519723">
				 <ele>12.5</ele>
			 </trkpt>
			 <trkpt lat="25.046217" lon="121.519914">
				 <ele>13.6</ele>
			 </trkpt>
			 <trkpt lat="25.046632" lon="121.520104">
				 <ele>13.6</ele>
			 </trkpt>
			 <trkpt lat="25.047047" lon="121.520294">
				 <ele>13.5</ele>
			 </trkpt>
			 <trkpt lat="25.047463" lon="121.520485">
				 <ele>13.6</ele>
			 </trkpt>
			 <trkpt lat="25.047878" lon="121.520675">
				 <ele>13.9</ele>
			 </trkpt>
			 <trkpt lat="25.048293" lon="121.520865">
				 <ele>13.5</ele>
			 </trkpt>
			 <trkpt lat="25.048709" lon="121.521056">
				 <ele>13.3</ele>
			 </trkpt>
			 <trkpt lat="25.049124" lon="121.521246">
				 <ele>13.6</ele>
			 </trkpt>
			 <trkpt lat="25.049539" lon="121.521437">
				 <ele>14.5</ele>
			 </trkpt>
			 <trkpt lat="25.049954" lon="121.521627">
				 <ele>15.4</ele>
			 </trkpt>
			 <trkpt lat="25.05037" lon="121.521817">
				 <ele>15.8</ele>
			 </trkpt>
			 <trkpt lat="25.050785" lon="121.522008">
				 <ele>16.3</ele>
			 </trkpt>
			 <trkpt lat="25.0512" lon="121.522198">
				 <ele>17.4</ele>
			 </trkpt>
			 <trkpt lat="25.051615" lon="121.522388">
				 <ele>18.9</ele>
			 </trkpt>
			 <trkpt lat="25.051701" lon="121.522428">
				 <ele>19.8</ele>
			 </trkpt>
			 <trkpt lat="25.052145" lon="121.522507">
				 <ele>20</ele>
			 </trkpt>
			 <trkpt lat="25.052335" lon="121.522541">
				 <ele>19.9</ele>
			 </trkpt>
			 <trkpt lat="25.052783" lon="121.522572">
				 <ele>19.8</ele>
			 </trkpt>
			 <trkpt lat="25.053232" lon="121.522602">
				 <ele>19.6</ele>
			 </trkpt>
			 <trkpt lat="25.053681" lon="121.522633">
				 <ele>19</ele>
			 </trkpt>
			 <trkpt lat="25.05413" lon="121.522664">
				 <ele>18.9</ele>
			 </trkpt>
			 <trkpt lat="25.054579" lon="121.522694">
				 <ele>18</ele>
			 </trkpt>
			 <trkpt lat="25.054859" lon="121.522714">
				 <ele>16.5</ele>
			 </trkpt>
			 <trkpt lat="25.055308" lon="121.52274">
				 <ele>15.5</ele>
			 </trkpt>
			 <trkpt lat="25.055757" lon="121.522766">
				 <ele>14.9</ele>
			 </trkpt>
			 <trkpt lat="25.056206" lon="121.522792">
				 <ele>14.7</ele>
			 </trkpt>
			 <trkpt lat="25.056655" lon="121.522819">
				 <ele>14.6</ele>
			 </trkpt>
			 <trkpt lat="25.057104" lon="121.522845">
				 <ele>14.7</ele>
			 </trkpt>
			 <trkpt lat="25.057553" lon="121.522871">
				 <ele>15.4</ele>
			 </trkpt>
			 <trkpt lat="25.058002" lon="121.522898">
				 <ele>16.5</ele>
			 </trkpt>
			 <trkpt lat="25.058289" lon="121.522914">
				 <ele>17.6</ele>
			 </trkpt>
			 <trkpt lat="25.058739" lon="121.522926">
				 <ele>17.5</ele>
			 </trkpt>
			 <trkpt lat="25.059189" lon="121.522937">
				 <ele>17.7</ele>
			 </trkpt>
			 <trkpt lat="25.059638" lon="121.522948">
				 <ele>18.6</ele>
			 </trkpt>
			 <trkpt lat="25.060088" lon="121.52296">
				 <ele>19.3</ele>
			 </trkpt>
			 <trkpt lat="25.060537" lon="121.522971">
				 <ele>19.1</ele>
			 </trkpt>
			 <trkpt lat="25.060902" lon="121.52298">
				 <ele>18.8</ele>
			 </trkpt>
			 <trkpt lat="25.061344" lon="121.52289">
				 <ele>18.9</ele>
			 </trkpt>
			 <trkpt lat="25.061786" lon="121.5228">
				 <ele>18.8</ele>
			 </trkpt>
			 <trkpt lat="25.062228" lon="121.522709">
				 <ele>18.2</ele>
			 </trkpt>
			 <trkpt lat="25.062671" lon="121.522619">
				 <ele>17.3</ele>
			 </trkpt>
			 <trkpt lat="25.063113" lon="121.522529">
				 <ele>16.6</ele>
			 </trkpt>
			 <trkpt lat="25.063555" lon="121.522438">
				 <ele>16.5</ele>
			 </trkpt>
			 <trkpt lat="25.063997" lon="121.522348">
				 <ele>16.1</ele>
			 </trkpt>
			 <trkpt lat="25.064141" lon="121.522319">
				 <ele>15.2</ele>
			 </trkpt>
			 <trkpt lat="25.06459" lon="121.522302">
				 <ele>14.3</ele>
			 </trkpt>
			 <trkpt lat="25.06504" lon="121.522286">
				 <ele>13.8</ele>
			 </trkpt>
			 <trkpt lat="25.065489" lon="121.52227">
				 <ele>13.4</ele>
			 </trkpt>
			 <trkpt lat="25.065757" lon="121.52226">
				 <ele>13</ele>
			 </trkpt>
			 <trkpt lat="25.066201" lon="121.522341">
				 <ele>12.7</ele>
			 </trkpt>
			 <trkpt lat="25.066644" lon="121.522422">
				 <ele>12.4</ele>
			 </trkpt>
			 <trkpt lat="25.067088" lon="121.522503">
				 <ele>11.5</ele>
			 </trkpt>
			 <trkpt lat="25.067298" lon="121.522542">
				 <ele>10.2</ele>
			 </trkpt>
			 <trkpt lat="25.06773" lon="121.52268">
				 <ele>9.2</ele>
			 </trkpt>
			 <trkpt lat="25.068162" lon="121.522818">
				 <ele>8.3</ele>
			 </trkpt>
			 <trkpt lat="25.068289" lon="121.522859">
				 <ele>7.6</ele>
			 </trkpt>
			 <trkpt lat="25.068725" lon="121.522982">
				 <ele>7.3</ele>
			 </trkpt>
			 <trkpt lat="25.06916" lon="121.523105">
				 <ele>7</ele>
			 </trkpt>
			 <trkpt lat="25.069596" lon="121.523228">
				 <ele>6.9</ele>
			 </trkpt>
			 <trkpt lat="25.070032" lon="121.523351">
				 <ele>6.4</ele>
			 </trkpt>
			 <trkpt lat="25.070467" lon="121.523474">
				 <ele>6</ele>
			 </trkpt>
			 <trkpt lat="25.070903" lon="121.523597">
				 <ele>5.9</ele>
			 </trkpt>
			 <trkpt lat="25.071339" lon="121.52372">
				 <ele>6</ele>
			 </trkpt>
			 <trkpt lat="25.071774" lon="121.523844">
				 <ele>6.1</ele>
			 </trkpt>
			 <trkpt lat="25.07221" lon="121.523967">
				 <ele>6.3</ele>
			 </trkpt>
			 <trkpt lat="25.072645" lon="121.52409">
				 <ele>6.8</ele>
			 </trkpt>
			 <trkpt lat="25.073081" lon="121.524213">
				 <ele>7.3</ele>
			 </trkpt>
			 <trkpt lat="25.073517" lon="121.524336">
				 <ele>7.7</ele>
			 </trkpt>
			 <trkpt lat="25.07373" lon="121.52452">
				 <ele>8</ele>
			 </trkpt>
			 <trkpt lat="25.07434" lon="121.52553">
				 <ele>8.1</ele>
			 </trkpt>
			 <trkpt lat="25.07435" lon="121.52609">
				 <ele>8.5</ele>
			 </trkpt>
			 <trkpt lat="25.07482" lon="121.52677">
				 <ele>8.5</ele>
			 </trkpt>
			 <trkpt lat="25.075267" lon="121.526821">
				 <ele>8.5</ele>
			 </trkpt>
			 <trkpt lat="25.075714" lon="121.526873">
				 <ele>8.4</ele>
			 </trkpt>
			 <trkpt lat="25.076162" lon="121.526924">
				 <ele>8.6</ele>
			 </trkpt>
			 <trkpt lat="25.076269" lon="121.526937">
				 <ele>8.8</ele>
			 </trkpt>
			 <trkpt lat="25.076622" lon="121.527244">
				 <ele>8.5</ele>
			 </trkpt>
			 <trkpt lat="25.076859" lon="121.527449">
				 <ele>8.3</ele>
			 </trkpt>
			 <trkpt lat="25.077128" lon="121.527846">
				 <ele>7.9</ele>
			 </trkpt>
			 <trkpt lat="25.077398" lon="121.528243">
				 <ele>7.8</ele>
			 </trkpt>
			 <trkpt lat="25.077555" lon="121.528474">
				 <ele>7.8</ele>
			 </trkpt>
			 <trkpt lat="25.077713" lon="121.528939">
				 <ele>7.5</ele>
			 </trkpt>
			 <trkpt lat="25.077872" lon="121.529403">
				 <ele>7.5</ele>
			 </trkpt>
			 <trkpt lat="25.077924" lon="121.529554">
				 <ele>7.5</ele>
			 </trkpt>
			 <trkpt lat="25.077991" lon="121.530045">
				 <ele>7.3</ele>
			 </trkpt>
			 <trkpt lat="25.078058" lon="121.530536">
				 <ele>6.9</ele>
			 </trkpt>
			 <trkpt lat="25.078125" lon="121.531027">
				 <ele>6.5</ele>
			 </trkpt>
			 <trkpt lat="25.078156" lon="121.531252">
				 <ele>6.4</ele>
			 </trkpt>
			 <trkpt lat="25.07809" lon="121.531743">
				 <ele>6.4</ele>
			 </trkpt>
			 <trkpt lat="25.078023" lon="121.532234">
				 <ele>6.5</ele>
			 </trkpt>
			 <trkpt lat="25.077957" lon="121.532725">
				 <ele>6</ele>
			 </trkpt>
			 <trkpt lat="25.077953" lon="121.532757">
				 <ele>5.5</ele>
			 </trkpt>
			 <trkpt lat="25.077847" lon="121.533152">
				 <ele>5.4</ele>
			 </trkpt>
			 <trkpt lat="25.07792" lon="121.533642">
				 <ele>4.9</ele>
			 </trkpt>
			 <trkpt lat="25.077934" lon="121.533728">
				 <ele>4.4</ele>
			 </trkpt>
			 <trkpt lat="25.077908" lon="121.534224">
				 <ele>4.4</ele>
			 </trkpt>
			 <trkpt lat="25.077882" lon="121.53472">
				 <ele>4.5</ele>
			 </trkpt>
			 <trkpt lat="25.077857" lon="121.535215">
				 <ele>4.4</ele>
			 </trkpt>
			 <trkpt lat="25.077831" lon="121.535711">
				 <ele>4.3</ele>
			 </trkpt>
			 <trkpt lat="25.077805" lon="121.536207">
				 <ele>4</ele>
			 </trkpt>
			 <trkpt lat="25.077779" lon="121.536702">
				 <ele>3.5</ele>
			 </trkpt>
			 <trkpt lat="25.077754" lon="121.537198">
				 <ele>3.6</ele>
			 </trkpt>
			 <trkpt lat="25.077728" lon="121.537694">
				 <ele>3.9</ele>
			 </trkpt>
			 <trkpt lat="25.077702" lon="121.538189">
				 <ele>4.1</ele>
			 </trkpt>
			 <trkpt lat="25.077677" lon="121.538685">
				 <ele>4.3</ele>
			 </trkpt>
			 <trkpt lat="25.077651" lon="121.539181">
				 <ele>4.6</ele>
			 </trkpt>
			 <trkpt lat="25.077625" lon="121.539676">
				 <ele>4.8</ele>
			 </trkpt>
			 <trkpt lat="25.0776" lon="121.540172">
				 <ele>4.9</ele>
			 </trkpt>
			 <trkpt lat="25.077574" lon="121.540668">
				 <ele>5</ele>
			 </trkpt>
			 <trkpt lat="25.077548" lon="121.541163">
				 <ele>4.8</ele>
			 </trkpt>
			 <trkpt lat="25.077523" lon="121.541659">
				 <ele>4.8</ele>
			 </trkpt>
			 <trkpt lat="25.07752" lon="121.541718">
				 <ele>5</ele>
			 </trkpt>
			 <trkpt lat="25.077504" lon="121.542214">
				 <ele>5.5</ele>
			 </trkpt>
			 <trkpt lat="25.077489" lon="121.542711">
				 <ele>5.9</ele>
			 </trkpt>
			 <trkpt lat="25.077474" lon="121.543207">
				 <ele>7</ele>
			 </trkpt>
			 <trkpt lat="25.077458" lon="121.543703">
				 <ele>8</ele>
			 </trkpt>
			 <trkpt lat="25.077443" lon="121.544199">
				 <ele>8.5</ele>
			 </trkpt>
			 <trkpt lat="25.077428" lon="121.544695">
				 <ele>8.5</ele>
			 </trkpt>
			 <trkpt lat="25.077412" lon="121.545191">
				 <ele>8.7</ele>
			 </trkpt>
			 <trkpt lat="25.077397" lon="121.545688">
				 <ele>9.6</ele>
			 </trkpt>
			 <trkpt lat="25.077382" lon="121.546184">
				 <ele>11.4</ele>
			 </trkpt>
			 <trkpt lat="25.077366" lon="121.54668">
				 <ele>12.8</ele>
			 </trkpt>
			 <trkpt lat="25.077351" lon="121.547176">
				 <ele>13.7</ele>
			 </trkpt>
			 <trkpt lat="25.077336" lon="121.547672">
				 <ele>14.2</ele>
			 </trkpt>
			 <trkpt lat="25.077321" lon="121.548168">
				 <ele>14.4</ele>
			 </trkpt>
			 <trkpt lat="25.077305" lon="121.548665">
				 <ele>13.7</ele>
			 </trkpt>
			 <trkpt lat="25.07729" lon="121.549161">
				 <ele>13</ele>
			 </trkpt>
			 <trkpt lat="25.077275" lon="121.549657">
				 <ele>12.5</ele>
			 </trkpt>
			 <trkpt lat="25.077259" lon="121.550153">
				 <ele>12.2</ele>
			 </trkpt>
			 <trkpt lat="25.077258" lon="121.550191">
				 <ele>11.8</ele>
			 </trkpt>
			 <trkpt lat="25.077245" lon="121.550687">
				 <ele>10.8</ele>
			 </trkpt>
			 <trkpt lat="25.077232" lon="121.551184">
				 <ele>9.3</ele>
			 </trkpt>
			 <trkpt lat="25.077218" lon="121.55168">
				 <ele>8.1</ele>
			 </trkpt>
			 <trkpt lat="25.077205" lon="121.552176">
				 <ele>7.4</ele>
			 </trkpt>
			 <trkpt lat="25.077192" lon="121.552672">
				 <ele>6.5</ele>
			 </trkpt>
			 <trkpt lat="25.077179" lon="121.553169">
				 <ele>5.5</ele>
			 </trkpt>
			 <trkpt lat="25.077166" lon="121.553665">
				 <ele>4.9</ele>
			 </trkpt>
			 <trkpt lat="25.077152" lon="121.554161">
				 <ele>4.7</ele>
			 </trkpt>
			 <trkpt lat="25.077139" lon="121.554657">
				 <ele>5</ele>
			 </trkpt>
			 <trkpt lat="25.077126" lon="121.555153">
				 <ele>5.5</ele>
			 </trkpt>
			 <trkpt lat="25.077113" lon="121.555635">
				 <ele>6</ele>
			 </trkpt>
			 <trkpt lat="25.077105" lon="121.556132">
				 <ele>6.7</ele>
			 </trkpt>
			 <trkpt lat="25.077096" lon="121.556628">
				 <ele>7.7</ele>
			 </trkpt>
			 <trkpt lat="25.077088" lon="121.557125">
				 <ele>8.3</ele>
			 </trkpt>
			 <trkpt lat="25.077084" lon="121.557365">
				 <ele>8.5</ele>
			 </trkpt>
			 <trkpt lat="25.076987" lon="121.55785">
				 <ele>8.9</ele>
			 </trkpt>
			 <trkpt lat="25.07689" lon="121.558334">
				 <ele>9.2</ele>
			 </trkpt>
			 <trkpt lat="25.076793" lon="121.558819">
				 <ele>9.8</ele>
			 </trkpt>
			 <trkpt lat="25.076696" lon="121.559304">
				 <ele>9.9</ele>
			 </trkpt>
			 <trkpt lat="25.076599" lon="121.559789">
				 <ele>9.5</ele>
			 </trkpt>
			 <trkpt lat="25.076502" lon="121.560273">
				 <ele>9.1</ele>
			 </trkpt>
			 <trkpt lat="25.076405" lon="121.560758">
				 <ele>8.8</ele>
			 </trkpt>
			 <trkpt lat="25.076308" lon="121.561243">
				 <ele>8.7</ele>
			 </trkpt>
			 <trkpt lat="25.076211" lon="121.561728">
				 <ele>8.1</ele>
			 </trkpt>
			 <trkpt lat="25.076114" lon="121.562212">
				 <ele>6.5</ele>
			 </trkpt>
			 <trkpt lat="25.07609" lon="121.56233">
				 <ele>5.5</ele>
			 </trkpt>
			 <trkpt lat="25.076088" lon="121.562826">
				 <ele>5.7</ele>
			 </trkpt>
			 <trkpt lat="25.076085" lon="121.563323">
				 <ele>5.8</ele>
			 </trkpt>
			 <trkpt lat="25.076083" lon="121.563819">
				 <ele>5.3</ele>
			 </trkpt>
			 <trkpt lat="25.076081" lon="121.564316">
				 <ele>5.3</ele>
			 </trkpt>
			 <trkpt lat="25.076079" lon="121.564812">
				 <ele>5.5</ele>
			 </trkpt>
			 <trkpt lat="25.076232" lon="121.565294">
				 <ele>5.8</ele>
			 </trkpt>
			 <trkpt lat="25.076385" lon="121.56576">
				 <ele>5.9</ele>
			 </trkpt>
			 <trkpt lat="25.076539" lon="121.566227">
				 <ele>5.7</ele>
			 </trkpt>
			 <trkpt lat="25.076692" lon="121.566694">
				 <ele>5.9</ele>
			 </trkpt>
			 <trkpt lat="25.076845" lon="121.56716">
				 <ele>7.4</ele>
			 </trkpt>
			 <trkpt lat="25.076999" lon="121.567627">
				 <ele>8.2</ele>
			 </trkpt>
			 <trkpt lat="25.077152" lon="121.568094">
				 <ele>8</ele>
			 </trkpt>
			 <trkpt lat="25.07719" lon="121.568211">
				 <ele>8</ele>
			 </trkpt>
			 <trkpt lat="25.077149" lon="121.568705">
				 <ele>8.3</ele>
			 </trkpt>
			 <trkpt lat="25.077108" lon="121.5692">
				 <ele>8.3</ele>
			 </trkpt>
			 <trkpt lat="25.077066" lon="121.569694">
				 <ele>8.7</ele>
			 </trkpt>
			 <trkpt lat="25.077025" lon="121.570188">
				 <ele>8.7</ele>
			 </trkpt>
			 <trkpt lat="25.07701" lon="121.57037">
				 <ele>8.5</ele>
			 </trkpt>
			 <trkpt lat="25.07684" lon="121.57069">
				 <ele>8.4</ele>
			 </trkpt>
			 <trkpt lat="25.07624" lon="121.57134">
				 <ele>8.2</ele>
			 </trkpt>
			 <trkpt lat="25.07509" lon="121.57212">
				 <ele>7.7</ele>
			 </trkpt>
			 <trkpt lat="25.0746" lon="121.57243">
				 <ele>7.6</ele>
			 </trkpt>
			 <trkpt lat="25.07375" lon="121.57287">
				 <ele>7.3</ele>
			 </trkpt>
			 <trkpt lat="25.07271" lon="121.57319">
				 <ele>7</ele>
			 </trkpt>
			 <trkpt lat="25.07226" lon="121.573181">
				 <ele>6.7</ele>
			 </trkpt>
			 <trkpt lat="25.071811" lon="121.573171">
				 <ele>6.5</ele>
			 </trkpt>
			 <trkpt lat="25.071361" lon="121.573162">
				 <ele>5.8</ele>
			 </trkpt>
			 <trkpt lat="25.070912" lon="121.573152">
				 <ele>5.7</ele>
			 </trkpt>
			 <trkpt lat="25.070462" lon="121.573143">
				 <ele>5.6</ele>
			 </trkpt>
			 <trkpt lat="25.070013" lon="121.573134">
				 <ele>5.5</ele>
			 </trkpt>
			 <trkpt lat="25.069563" lon="121.573124">
				 <ele>5</ele>
			 </trkpt>
			 <trkpt lat="25.06939" lon="121.573121">
				 <ele>5</ele>
			 </trkpt>
			 <trkpt lat="25.068957" lon="121.572988">
				 <ele>5</ele>
			 </trkpt>
			 <trkpt lat="25.068523" lon="121.572856">
				 <ele>5.3</ele>
			 </trkpt>
			 <trkpt lat="25.06809" lon="121.572724">
				 <ele>5.5</ele>
			 </trkpt>
			 <trkpt lat="25.067656" lon="121.572592">
				 <ele>5.7</ele>
			 </trkpt>
			 <trkpt lat="25.067223" lon="121.572459">
				 <ele>6</ele>
			 </trkpt>
			 <trkpt lat="25.067158" lon="121.572439">
				 <ele>6.4</ele>
			 </trkpt>
			 <trkpt lat="25.06671" lon="121.572394">
				 <ele>6.5</ele>
			 </trkpt>
			 <trkpt lat="25.066262" lon="121.57235">
				 <ele>6.5</ele>
			 </trkpt>
			 <trkpt lat="25.065814" lon="121.572305">
				 <ele>6.5</ele>
			 </trkpt>
			 <trkpt lat="25.06556" lon="121.572279">
				 <ele>6.6</ele>
			 </trkpt>
			 <trkpt lat="25.065115" lon="121.57235">
				 <ele>6.8</ele>
			 </trkpt>
			 <trkpt lat="25.06467" lon="121.572421">
				 <ele>7.2</ele>
			 </trkpt>
			 <trkpt lat="25.064225" lon="121.572492">
				 <ele>7.3</ele>
			 </trkpt>
			 <trkpt lat="25.06378" lon="121.572563">
				 <ele>7.3</ele>
			 </trkpt>
			 <trkpt lat="25.063335" lon="121.572633">
				 <ele>7.1</ele>
			 </trkpt>
			 <trkpt lat="25.06289" lon="121.572704">
				 <ele>7</ele>
			 </trkpt>
			 <trkpt lat="25.062445" lon="121.572775">
				 <ele>6.9</ele>
			 </trkpt>
			 <trkpt lat="25.062" lon="121.572846">
				 <ele>7.3</ele>
			 </trkpt>
			 <trkpt lat="25.061555" lon="121.572917">
				 <ele>7.9</ele>
			 </trkpt>
			 <trkpt lat="25.06111" lon="121.572988">
				 <ele>8.5</ele>
			 </trkpt>
			 <trkpt lat="25.060665" lon="121.573059">
				 <ele>9.1</ele>
			 </trkpt>
			 <trkpt lat="25.06022" lon="121.57313">
				 <ele>9.5</ele>
			 </trkpt>
			 <trkpt lat="25.059775" lon="121.5732">
				 <ele>9.6</ele>
			 </trkpt>
			 <trkpt lat="25.059329" lon="121.573271">
				 <ele>9.9</ele>
			 </trkpt>
			 <trkpt lat="25.058884" lon="121.573342">
				 <ele>10.2</ele>
			 </trkpt>
			 <trkpt lat="25.058439" lon="121.573413">
				 <ele>10.8</ele>
			 </trkpt>
			 <trkpt lat="25.057994" lon="121.573484">
				 <ele>11.6</ele>
			 </trkpt>
			 <trkpt lat="25.057549" lon="121.573555">
				 <ele>12</ele>
			 </trkpt>
			 <trkpt lat="25.05714" lon="121.57362">
				 <ele>12.2</ele>
			 </trkpt>
			 <trkpt lat="25.05624" lon="121.57401">
				 <ele>12.4</ele>
			 </trkpt>
			 <trkpt lat="25.05557" lon="121.57465">
				 <ele>12.5</ele>
			 </trkpt>
			 <trkpt lat="25.055129" lon="121.57545">
				 <ele>12.4</ele>
			 </trkpt>
			 <trkpt lat="25.05498" lon="121.57603">
				 <ele>12.3</ele>
			 </trkpt>
			 <trkpt lat="25.05499" lon="121.576526">
				 <ele>12.3</ele>
			 </trkpt>
			 <trkpt lat="25.055001" lon="121.577022">
				 <ele>12</ele>
			 </trkpt>
			 <trkpt lat="25.055186" lon="121.577501">
				 <ele>11.9</ele>
			 </trkpt>
			 <trkpt lat="25.05537" lon="121.577954">
				 <ele>11.8</ele>
			 </trkpt>
			 <trkpt lat="25.055481" lon="121.578226">
				 <ele>11.5</ele>
			 </trkpt>
			 <trkpt lat="25.055707" lon="121.578655">
				 <ele>11.5</ele>
			 </trkpt>
			 <trkpt lat="25.055933" lon="121.579084">
				 <ele>11.3</ele>
			 </trkpt>
			 <trkpt lat="25.05616" lon="121.579513">
				 <ele>11.1</ele>
			 </trkpt>
			 <trkpt lat="25.056386" lon="121.579942">
				 <ele>11.1</ele>
			 </trkpt>
			 <trkpt lat="25.056612" lon="121.580371">
				 <ele>11.2</ele>
			 </trkpt>
			 <trkpt lat="25.056838" lon="121.5808">
				 <ele>11.2</ele>
			 </trkpt>
			 <trkpt lat="25.057064" lon="121.581229">
				 <ele>11</ele>
			 </trkpt>
			 <trkpt lat="25.057291" lon="121.581658">
				 <ele>11.9</ele>
			 </trkpt>
			 <trkpt lat="25.057517" lon="121.582087">
				 <ele>12.4</ele>
			 </trkpt>
			 <trkpt lat="25.057743" lon="121.582516">
				 <ele>12.5</ele>
			 </trkpt>
			 <trkpt lat="25.057969" lon="121.582945">
				 <ele>12.5</ele>
			 </trkpt>
			 <trkpt lat="25.058196" lon="121.583374">
				 <ele>12.5</ele>
			 </trkpt>
			 <trkpt lat="25.058422" lon="121.583803">
				 <ele>12.5</ele>
			 </trkpt>
			 <trkpt lat="25.058648" lon="121.584232">
				 <ele>12.2</ele>
			 </trkpt>
			 <trkpt lat="25.058874" lon="121.584661">
				 <ele>12</ele>
			 </trkpt>
			 <trkpt lat="25.059101" lon="121.58509">
				 <ele>11.8</ele>
			 </trkpt>
			 <trkpt lat="25.059327" lon="121.585519">
				 <ele>11.8</ele>
			 </trkpt>
			 <trkpt lat="25.059404" lon="121.585666">
				 <ele>12.3</ele>
			 </trkpt>
			 <trkpt lat="25.059626" lon="121.586098">
				 <ele>11.8</ele>
			 </trkpt>
			 <trkpt lat="25.059848" lon="121.586529">
				 <ele>11.6</ele>
			 </trkpt>
			 <trkpt lat="25.06007" lon="121.586961">
				 <ele>11.7</ele>
			 </trkpt>
			 <trkpt lat="25.060292" lon="121.587393">
				 <ele>11.7</ele>
			 </trkpt>
			 <trkpt lat="25.060514" lon="121.587824">
				 <ele>11.7</ele>
			 </trkpt>
			 <trkpt lat="25.060736" lon="121.588256">
				 <ele>11.8</ele>
			 </trkpt>
			 <trkpt lat="25.060958" lon="121.588688">
				 <ele>12.3</ele>
			 </trkpt>
			 <trkpt lat="25.06118" lon="121.58912">
				 <ele>12.1</ele>
			 </trkpt>
			 <trkpt lat="25.061402" lon="121.589551">
				 <ele>11.5</ele>
			 </trkpt>
			 <trkpt lat="25.06153" lon="121.5898">
				 <ele>11.6</ele>
			 </trkpt>
			 <trkpt lat="25.06152" lon="121.59028">
				 <ele>11</ele>
			 </trkpt>
			 <trkpt lat="25.06128" lon="121.59093">
				 <ele>10.6</ele>
			 </trkpt>
			 <trkpt lat="25.06034" lon="121.59173">
				 <ele>10.5</ele>
			 </trkpt>
			 <trkpt lat="25.060199" lon="121.59191">
				 <ele>10.5</ele>
			 </trkpt>
			 <trkpt lat="25.05924" lon="121.59387">
				 <ele>9.9</ele>
			 </trkpt>
			 <trkpt lat="25.05913" lon="121.5944">
				 <ele>10.1</ele>
			 </trkpt>
			 <trkpt lat="25.05906" lon="121.59577">
				 <ele>9.8</ele>
			 </trkpt>
			 <trkpt lat="25.05856" lon="121.59736">
				 <ele>9.7</ele>
			 </trkpt>
			 <trkpt lat="25.05838" lon="121.59827">
				 <ele>10.1</ele>
			 </trkpt>
			 <trkpt lat="25.05836" lon="121.59937">
				 <ele>10.5</ele>
			 </trkpt>
			 <trkpt lat="25.05849" lon="121.60198">
				 <ele>10.5</ele>
			 </trkpt>
			 <trkpt lat="25.0588" lon="121.6048">
				 <ele>10.6</ele>
			 </trkpt>
			 <trkpt lat="25.05912" lon="121.60673">
				 <ele>10.8</ele>
			 </trkpt>
			 <trkpt lat="25.05987" lon="121.60921">
				 <ele>11</ele>
			 </trkpt>
			 <trkpt lat="25.06019" lon="121.60986">
				 <ele>10.7</ele>
			 </trkpt>
			 <trkpt lat="25.06094" lon="121.61098">
				 <ele>11.2</ele>
			 </trkpt>
			 <trkpt lat="25.062901" lon="121.612822">
				 <ele>11.5</ele>
			 </trkpt>
			 <trkpt lat="25.063406" lon="121.613552">
				 <ele>11.8</ele>
			 </trkpt>
			 <trkpt lat="25.063561" lon="121.614421">
				 <ele>11.8</ele>
			 </trkpt>
			 <trkpt lat="25.063163" lon="121.615966">
				 <ele>11.9</ele>
			 </trkpt>
			 <trkpt lat="25.062881" lon="121.616652">
				 <ele>12.4</ele>
			 </trkpt>
			 <trkpt lat="25.062104" lon="121.617307">
				 <ele>12.8</ele>
			 </trkpt>
			 <trkpt lat="25.059723" lon="121.618938">
				 <ele>13.2</ele>
			 </trkpt>
			 <trkpt lat="25.05919" lon="121.61944">
				 <ele>13.1</ele>
			 </trkpt>
			 <trkpt lat="25.05927" lon="121.61957">
				 <ele>12.8</ele>
			 </trkpt>
			 <trkpt lat="25.05828" lon="121.62045">
				 <ele>13</ele>
			 </trkpt>
			 <trkpt lat="25.05786" lon="121.6206">
				 <ele>13.3</ele>
			 </trkpt>
			 <trkpt lat="25.05746" lon="121.62058">
				 <ele>13.2</ele>
			 </trkpt>
			 <trkpt lat="25.05698" lon="121.62037">
				 <ele>13.4</ele>
			 </trkpt>
			 <trkpt lat="25.05678" lon="121.62018">
				 <ele>13.3</ele>
			 </trkpt>
			 <trkpt lat="25.05698" lon="121.62037">
				 <ele>13.9</ele>
			 </trkpt>
			 <trkpt lat="25.05746" lon="121.62058">
				 <ele>14.4</ele>
			 </trkpt>
			 <trkpt lat="25.05786" lon="121.6206">
				 <ele>14.2</ele>
			 </trkpt>
			 <trkpt lat="25.05828" lon="121.62045">
				 <ele>14.1</ele>
			 </trkpt>
			 <trkpt lat="25.05964" lon="121.6192">
				 <ele>14.3</ele>
			 </trkpt>
			 <trkpt lat="25.061699" lon="121.61778">
				 <ele>15</ele>
			 </trkpt>
			 <trkpt lat="25.06166" lon="121.61772">
				 <ele>15.9</ele>
			 </trkpt>
			 <trkpt lat="25.06236" lon="121.61722">
				 <ele>15.5</ele>
			 </trkpt>
			 <trkpt lat="25.06246" lon="121.61727">
				 <ele>15.2</ele>
			 </trkpt>
			 <trkpt lat="25.06249" lon="121.61738">
				 <ele>14.9</ele>
			 </trkpt>
			 <trkpt lat="25.06212" lon="121.61807">
				 <ele>14.5</ele>
			 </trkpt>
			 <trkpt lat="25.06127" lon="121.61925">
				 <ele>14.1</ele>
			 </trkpt>
			 <trkpt lat="25.06023" lon="121.62032">
				 <ele>14.1</ele>
			 </trkpt>
			 <trkpt lat="25.05906" lon="121.62133">
				 <ele>14.1</ele>
			 </trkpt>
			 <trkpt lat="25.05922" lon="121.62157">
				 <ele>13.9</ele>
			 </trkpt>
			 <trkpt lat="25.06021" lon="121.62085">
				 <ele>14.1</ele>
			 </trkpt>
			 <trkpt lat="25.06114" lon="121.61998">
				 <ele>13.3</ele>
			 </trkpt>
			 <trkpt lat="25.06201" lon="121.61891">
				 <ele>12.3</ele>
			 </trkpt>
			 <trkpt lat="25.0626" lon="121.6179">
				 <ele>12.3</ele>
			 </trkpt>
			 <trkpt lat="25.06307" lon="121.61701">
				 <ele>12.2</ele>
			 </trkpt>
			 <trkpt lat="25.06368" lon="121.61473">
				 <ele>12</ele>
			 </trkpt>
			 <trkpt lat="25.0638" lon="121.61403">
				 <ele>12.4</ele>
			 </trkpt>
			 <trkpt lat="25.06379" lon="121.61369">
				 <ele>12.2</ele>
			 </trkpt>
			 <trkpt lat="25.06353" lon="121.61308">
				 <ele>11.1</ele>
			 </trkpt>
			 <trkpt lat="25.06097" lon="121.61086">
				 <ele>11</ele>
			 </trkpt>
			 <trkpt lat="25.06011" lon="121.6096">
				 <ele>10.9</ele>
			 </trkpt>
			 <trkpt lat="25.05981" lon="121.60884">
				 <ele>10.6</ele>
			 </trkpt>
			 <trkpt lat="25.05915" lon="121.60656">
				 <ele>10.5</ele>
			 </trkpt>
			 <trkpt lat="25.05889" lon="121.60503">
				 <ele>10.1</ele>
			 </trkpt>
			 <trkpt lat="25.05849" lon="121.60128">
				 <ele>10.3</ele>
			 </trkpt>
			 <trkpt lat="25.05842" lon="121.59857">
				 <ele>10.5</ele>
			 </trkpt>
			 <trkpt lat="25.05861" lon="121.5975">
				 <ele>10.6</ele>
			 </trkpt>
			 <trkpt lat="25.05915" lon="121.59572">
				 <ele>10.3</ele>
			 </trkpt>
			 <trkpt lat="25.05919" lon="121.59466">
				 <ele>9.8</ele>
			 </trkpt>
			 <trkpt lat="25.05906" lon="121.59391">
				 <ele>10</ele>
			 </trkpt>
			 <trkpt lat="25.058867" lon="121.593462">
				 <ele>10</ele>
			 </trkpt>
			 <trkpt lat="25.058674" lon="121.593013">
				 <ele>10.1</ele>
			 </trkpt>
			 <trkpt lat="25.058481" lon="121.592565">
				 <ele>9.9</ele>
			 </trkpt>
			 <trkpt lat="25.058288" lon="121.592117">
				 <ele>10.2</ele>
			 </trkpt>
			 <trkpt lat="25.058241" lon="121.592007">
				 <ele>11.1</ele>
			 </trkpt>
			 <trkpt lat="25.057862" lon="121.591739">
				 <ele>11.1</ele>
			 </trkpt>
			 <trkpt lat="25.057484" lon="121.591472">
				 <ele>10.8</ele>
			 </trkpt>
			 <trkpt lat="25.057299" lon="121.591341">
				 <ele>10.7</ele>
			 </trkpt>
			 <trkpt lat="25.056981" lon="121.59099">
				 <ele>10.9</ele>
			 </trkpt>
			 <trkpt lat="25.056663" lon="121.590639">
				 <ele>11.3</ele>
			 </trkpt>
			 <trkpt lat="25.056345" lon="121.590288">
				 <ele>11.3</ele>
			 </trkpt>
			 <trkpt lat="25.056027" lon="121.589937">
				 <ele>11.5</ele>
			 </trkpt>
			 <trkpt lat="25.055709" lon="121.589586">
				 <ele>12</ele>
			 </trkpt>
			 <trkpt lat="25.055392" lon="121.589235">
				 <ele>12.5</ele>
			 </trkpt>
			 <trkpt lat="25.055121" lon="121.588937">
				 <ele>12.7</ele>
			 </trkpt>
			 <trkpt lat="25.0549" lon="121.588505">
				 <ele>12.5</ele>
			 </trkpt>
			 <trkpt lat="25.054679" lon="121.588073">
				 <ele>12.3</ele>
			 </trkpt>
			 <trkpt lat="25.054457" lon="121.587641">
				 <ele>12.3</ele>
			 </trkpt>
			 <trkpt lat="25.054236" lon="121.587209">
				 <ele>12.3</ele>
			 </trkpt>
			 <trkpt lat="25.054015" lon="121.586777">
				 <ele>12</ele>
			 </trkpt>
			 <trkpt lat="25.053915" lon="121.586581">
				 <ele>11.9</ele>
			 </trkpt>
			 <trkpt lat="25.053785" lon="121.586106">
				 <ele>12.4</ele>
			 </trkpt>
			 <trkpt lat="25.053655" lon="121.585631">
				 <ele>12</ele>
			 </trkpt>
			 <trkpt lat="25.053526" lon="121.585156">
				 <ele>11.4</ele>
			 </trkpt>
			 <trkpt lat="25.053396" lon="121.58468">
				 <ele>10.5</ele>
			 </trkpt>
			 <trkpt lat="25.053266" lon="121.584205">
				 <ele>9.5</ele>
			 </trkpt>
			 <trkpt lat="25.053136" lon="121.58373">
				 <ele>8.8</ele>
			 </trkpt>
			 <trkpt lat="25.053007" lon="121.583255">
				 <ele>8.9</ele>
			 </trkpt>
			 <trkpt lat="25.052877" lon="121.582779">
				 <ele>9.2</ele>
			 </trkpt>
			 <trkpt lat="25.052747" lon="121.582304">
				 <ele>9.4</ele>
			 </trkpt>
			 <trkpt lat="25.052618" lon="121.581829">
				 <ele>9.6</ele>
			 </trkpt>
			 <trkpt lat="25.052488" lon="121.581354">
				 <ele>9.9</ele>
			 </trkpt>
			 <trkpt lat="25.052367" lon="121.580911">
				 <ele>9.7</ele>
			 </trkpt>
			 <trkpt lat="25.052267" lon="121.580427">
				 <ele>9.7</ele>
			 </trkpt>
			 <trkpt lat="25.052166" lon="121.579943">
				 <ele>9.9</ele>
			 </trkpt>
			 <trkpt lat="25.052066" lon="121.579459">
				 <ele>10</ele>
			 </trkpt>
			 <trkpt lat="25.051966" lon="121.578975">
				 <ele>10.3</ele>
			 </trkpt>
			 <trkpt lat="25.051865" lon="121.578492">
				 <ele>10.5</ele>
			 </trkpt>
			 <trkpt lat="25.051765" lon="121.578008">
				 <ele>10.5</ele>
			 </trkpt>
			 <trkpt lat="25.051665" lon="121.577524">
				 <ele>9.7</ele>
			 </trkpt>
			 <trkpt lat="25.051565" lon="121.57704">
				 <ele>9.7</ele>
			 </trkpt>
			 <trkpt lat="25.051464" lon="121.576556">
				 <ele>10.1</ele>
			 </trkpt>
			 <trkpt lat="25.051364" lon="121.576072">
				 <ele>10.1</ele>
			 </trkpt>
			 <trkpt lat="25.051264" lon="121.575588">
				 <ele>10.1</ele>
			 </trkpt>
			 <trkpt lat="25.051163" lon="121.575105">
				 <ele>10</ele>
			 </trkpt>
			 <trkpt lat="25.051063" lon="121.574621">
				 <ele>9.9</ele>
			 </trkpt>
			 <trkpt lat="25.050963" lon="121.574137">
				 <ele>10.2</ele>
			 </trkpt>
			 <trkpt lat="25.050895" lon="121.573812">
				 <ele>10.3</ele>
			 </trkpt>
			 <trkpt lat="25.050952" lon="121.57332">
				 <ele>9.9</ele>
			 </trkpt>
			 <trkpt lat="25.051009" lon="121.572827">
				 <ele>9.5</ele>
			 </trkpt>
			 <trkpt lat="25.051066" lon="121.572335">
				 <ele>9.4</ele>
			 </trkpt>
			 <trkpt lat="25.05109" lon="121.57213">
				 <ele>8.7</ele>
			 </trkpt>
			 <trkpt lat="25.05138" lon="121.57202">
				 <ele>8</ele>
			 </trkpt>
			 <trkpt lat="25.05149" lon="121.57172">
				 <ele>7.4</ele>
			 </trkpt>
			 <trkpt lat="25.05211" lon="121.57135">
				 <ele>6.9</ele>
			 </trkpt>
			 <trkpt lat="25.05229" lon="121.57108">
				 <ele>6.2</ele>
			 </trkpt>
			 <trkpt lat="25.05306" lon="121.57074">
				 <ele>6</ele>
			 </trkpt>
			 <trkpt lat="25.054939" lon="121.57069">
				 <ele>6</ele>
			 </trkpt>
			 <trkpt lat="25.05523" lon="121.57057">
				 <ele>6.1</ele>
			 </trkpt>
			 <trkpt lat="25.05543" lon="121.57078">
				 <ele>6.5</ele>
			 </trkpt>
			 <trkpt lat="25.05585" lon="121.57074">
				 <ele>6.8</ele>
			 </trkpt>
			 <trkpt lat="25.05791" lon="121.57034">
				 <ele>7.2</ele>
			 </trkpt>
			 <trkpt lat="25.05807" lon="121.57038">
				 <ele>8.2</ele>
			 </trkpt>
			 <trkpt lat="25.05865" lon="121.57029">
				 <ele>8.1</ele>
			 </trkpt>
			 <trkpt lat="25.05887" lon="121.57009">
				 <ele>8.3</ele>
			 </trkpt>
			 <trkpt lat="25.059539" lon="121.57011">
				 <ele>8.1</ele>
			 </trkpt>
			 <trkpt lat="25.05961" lon="121.57001">
				 <ele>8.3</ele>
			 </trkpt>
			 <trkpt lat="25.06002" lon="121.56989">
				 <ele>7.9</ele>
			 </trkpt>
			 <trkpt lat="25.0607" lon="121.56979">
				 <ele>7.9</ele>
			 </trkpt>
			 <trkpt lat="25.06103" lon="121.56944">
				 <ele>8.3</ele>
			 </trkpt>
			 <trkpt lat="25.06137" lon="121.56929">
				 <ele>8.3</ele>
			 </trkpt>
			 <trkpt lat="25.06161" lon="121.56932">
				 <ele>8.3</ele>
			 </trkpt>
			 <trkpt lat="25.06167" lon="121.56915">
				 <ele>8.5</ele>
			 </trkpt>
			 <trkpt lat="25.062169" lon="121.56917">
				 <ele>6.5</ele>
			 </trkpt>
			 <trkpt lat="25.06338" lon="121.56856">
				 <ele>6.1</ele>
			 </trkpt>
			 <trkpt lat="25.06434" lon="121.56847">
				 <ele>6.5</ele>
			 </trkpt>
			 <trkpt lat="25.065" lon="121.56867">
				 <ele>7.3</ele>
			 </trkpt>
			 <trkpt lat="25.06729" lon="121.56998">
				 <ele>8.2</ele>
			 </trkpt>
			 <trkpt lat="25.069489" lon="121.57092">
				 <ele>8.5</ele>
			 </trkpt>
			 <trkpt lat="25.0702" lon="121.57106">
				 <ele>7.4</ele>
			 </trkpt>
			 <trkpt lat="25.07115" lon="121.57099">
				 <ele>5.2</ele>
			 </trkpt>
			 <trkpt lat="25.07132" lon="121.57105">
				 <ele>4.5</ele>
			 </trkpt>
			 <trkpt lat="25.07142" lon="121.57092">
				 <ele>4.2</ele>
			 </trkpt>
			 <trkpt lat="25.07184" lon="121.57098">
				 <ele>3.3</ele>
			 </trkpt>
			 <trkpt lat="25.07257" lon="121.57083">
				 <ele>4</ele>
			 </trkpt>
			 <trkpt lat="25.0733" lon="121.57048">
				 <ele>4</ele>
			 </trkpt>
			 <trkpt lat="25.07372" lon="121.57039">
				 <ele>3.2</ele>
			 </trkpt>
			 <trkpt lat="25.07458" lon="121.56985">
				 <ele>2.5</ele>
			 </trkpt>
			 <trkpt lat="25.07482" lon="121.56939">
				 <ele>1.4</ele>
			 </trkpt>
			 <trkpt lat="25.07483" lon="121.56917">
				 <ele>1</ele>
			 </trkpt>
			 <trkpt lat="25.07471" lon="121.56872">
				 <ele>1.8</ele>
			 </trkpt>
			 <trkpt lat="25.07403" lon="121.5676">
				 <ele>3.5</ele>
			 </trkpt>
			 <trkpt lat="25.07358" lon="121.567">
				 <ele>4.1</ele>
			 </trkpt>
			 <trkpt lat="25.07222" lon="121.5647">
				 <ele>4.5</ele>
			 </trkpt>
			 <trkpt lat="25.07186" lon="121.56395">
				 <ele>4.9</ele>
			 </trkpt>
			 <trkpt lat="25.071549" lon="121.56269">
				 <ele>5.5</ele>
			 </trkpt>
			 <trkpt lat="25.07147" lon="121.56471">
				 <ele>6.1</ele>
			 </trkpt>
			 <trkpt lat="25.07153" lon="121.56879">
				 <ele>6.4</ele>
			 </trkpt>
			 <trkpt lat="25.071459" lon="121.56887">
				 <ele>6.5</ele>
			 </trkpt>
			 <trkpt lat="25.06997" lon="121.56884">
				 <ele>6.9</ele>
			 </trkpt>
			 <trkpt lat="25.067049" lon="121.56842">
				 <ele>7.3</ele>
			 </trkpt>
			 <trkpt lat="25.06703" lon="121.56851">
				 <ele>7.3</ele>
			 </trkpt>
			 <trkpt lat="25.06682" lon="121.56847">
				 <ele>7.3</ele>
			 </trkpt>
			 <trkpt lat="25.06674" lon="121.56836">
				 <ele>7.4</ele>
			 </trkpt>
			 <trkpt lat="25.06528" lon="121.56805">
				 <ele>7.4</ele>
			 </trkpt>
			 <trkpt lat="25.064836" lon="121.568126">
				 <ele>7.3</ele>
			 </trkpt>
			 <trkpt lat="25.064391" lon="121.568202">
				 <ele>7.3</ele>
			 </trkpt>
			 <trkpt lat="25.063947" lon="121.568277">
				 <ele>7.3</ele>
			 </trkpt>
			 <trkpt lat="25.063502" lon="121.568353">
				 <ele>7.3</ele>
			 </trkpt>
			 <trkpt lat="25.063058" lon="121.568429">
				 <ele>7.5</ele>
			 </trkpt>
			 <trkpt lat="25.062614" lon="121.568505">
				 <ele>7.3</ele>
			 </trkpt>
			 <trkpt lat="25.062169" lon="121.568581">
				 <ele>7</ele>
			 </trkpt>
			 <trkpt lat="25.061725" lon="121.568657">
				 <ele>7.2</ele>
			 </trkpt>
			 <trkpt lat="25.061281" lon="121.568732">
				 <ele>7.7</ele>
			 </trkpt>
			 <trkpt lat="25.060836" lon="121.568808">
				 <ele>7.8</ele>
			 </trkpt>
			 <trkpt lat="25.060392" lon="121.568884">
				 <ele>7.7</ele>
			 </trkpt>
			 <trkpt lat="25.060148" lon="121.568926">
				 <ele>7.8</ele>
			 </trkpt>
			 <trkpt lat="25.059702" lon="121.568988">
				 <ele>8.1</ele>
			 </trkpt>
			 <trkpt lat="25.059256" lon="121.56905">
				 <ele>8.5</ele>
			 </trkpt>
			 <trkpt lat="25.05881" lon="121.569112">
				 <ele>8.8</ele>
			 </trkpt>
			 <trkpt lat="25.058364" lon="121.569173">
				 <ele>8.7</ele>
			 </trkpt>
			 <trkpt lat="25.057917" lon="121.569235">
				 <ele>9.1</ele>
			 </trkpt>
			 <trkpt lat="25.057471" lon="121.569297">
				 <ele>9.3</ele>
			 </trkpt>
			 <trkpt lat="25.057245" lon="121.569329">
				 <ele>9</ele>
			 </trkpt>
			 <trkpt lat="25.056801" lon="121.569407">
				 <ele>8.4</ele>
			 </trkpt>
			 <trkpt lat="25.056357" lon="121.569485">
				 <ele>8.3</ele>
			 </trkpt>
			 <trkpt lat="25.055913" lon="121.569563">
				 <ele>8.5</ele>
			 </trkpt>
			 <trkpt lat="25.055469" lon="121.569641">
				 <ele>8.6</ele>
			 </trkpt>
			 <trkpt lat="25.055025" lon="121.569719">
				 <ele>8.5</ele>
			 </trkpt>
			 <trkpt lat="25.054581" lon="121.569797">
				 <ele>8.2</ele>
			 </trkpt>
			 <trkpt lat="25.054137" lon="121.569875">
				 <ele>8.1</ele>
			 </trkpt>
			 <trkpt lat="25.053693" lon="121.569953">
				 <ele>8</ele>
			 </trkpt>
			 <trkpt lat="25.053249" lon="121.570031">
				 <ele>7.9</ele>
			 </trkpt>
			 <trkpt lat="25.052805" lon="121.570109">
				 <ele>8.7</ele>
			 </trkpt>
			 <trkpt lat="25.05236" lon="121.570187">
				 <ele>10.2</ele>
			 </trkpt>
			 <trkpt lat="25.051916" lon="121.570265">
				 <ele>11.1</ele>
			 </trkpt>
			 <trkpt lat="25.051472" lon="121.570343">
				 <ele>11.4</ele>
			 </trkpt>
			 <trkpt lat="25.051385" lon="121.570358">
				 <ele>11.8</ele>
			 </trkpt>
			 <trkpt lat="25.051391" lon="121.569862">
				 <ele>12.5</ele>
			 </trkpt>
			 <trkpt lat="25.051396" lon="121.569365">
				 <ele>13</ele>
			 </trkpt>
			 <trkpt lat="25.051402" lon="121.568869">
				 <ele>13.5</ele>
			 </trkpt>
			 <trkpt lat="25.051407" lon="121.568373">
				 <ele>13.7</ele>
			 </trkpt>
			 <trkpt lat="25.051413" lon="121.567876">
				 <ele>14.1</ele>
			 </trkpt>
			 <trkpt lat="25.051418" lon="121.56738">
				 <ele>14.8</ele>
			 </trkpt>
			 <trkpt lat="25.051424" lon="121.566884">
				 <ele>15.1</ele>
			 </trkpt>
			 <trkpt lat="25.051429" lon="121.566387">
				 <ele>15.5</ele>
			 </trkpt>
			 <trkpt lat="25.051435" lon="121.565891">
				 <ele>16.5</ele>
			 </trkpt>
			 <trkpt lat="25.05144" lon="121.565395">
				 <ele>17.4</ele>
			 </trkpt>
			 <trkpt lat="25.051446" lon="121.564898">
				 <ele>17.8</ele>
			 </trkpt>
			 <trkpt lat="25.051451" lon="121.564402">
				 <ele>18</ele>
			 </trkpt>
			 <trkpt lat="25.051457" lon="121.563906">
				 <ele>18.2</ele>
			 </trkpt>
			 <trkpt lat="25.051462" lon="121.56341">
				 <ele>18.6</ele>
			 </trkpt>
			 <trkpt lat="25.051468" lon="121.562913">
				 <ele>19.5</ele>
			 </trkpt>
			 <trkpt lat="25.051473" lon="121.562417">
				 <ele>20.5</ele>
			 </trkpt>
			 <trkpt lat="25.051479" lon="121.561921">
				 <ele>21.2</ele>
			 </trkpt>
			 <trkpt lat="25.051484" lon="121.561424">
				 <ele>21.2</ele>
			 </trkpt>
			 <trkpt lat="25.05149" lon="121.560928">
				 <ele>20.4</ele>
			 </trkpt>
			 <trkpt lat="25.051495" lon="121.560432">
				 <ele>19.6</ele>
			 </trkpt>
			 <trkpt lat="25.051501" lon="121.559935">
				 <ele>19.2</ele>
			 </trkpt>
			 <trkpt lat="25.051506" lon="121.559439">
				 <ele>19.2</ele>
			 </trkpt>
			 <trkpt lat="25.051512" lon="121.558943">
				 <ele>19.5</ele>
			 </trkpt>
			 <trkpt lat="25.051517" lon="121.558446">
				 <ele>20.2</ele>
			 </trkpt>
			 <trkpt lat="25.051523" lon="121.55795">
				 <ele>19.9</ele>
			 </trkpt>
			 <trkpt lat="25.051528" lon="121.557454">
				 <ele>19.2</ele>
			 </trkpt>
			 <trkpt lat="25.051534" lon="121.556957">
				 <ele>18.7</ele>
			 </trkpt>
			 <trkpt lat="25.051539" lon="121.556461">
				 <ele>18.6</ele>
			 </trkpt>
			 <trkpt lat="25.051545" lon="121.555965">
				 <ele>18.8</ele>
			 </trkpt>
			 <trkpt lat="25.05155" lon="121.555468">
				 <ele>18.6</ele>
			 </trkpt>
			 <trkpt lat="25.051556" lon="121.554972">
				 <ele>18.6</ele>
			 </trkpt>
			 <trkpt lat="25.051561" lon="121.554476">
				 <ele>18.9</ele>
			 </trkpt>
			 <trkpt lat="25.051567" lon="121.55398">
				 <ele>18.5</ele>
			 </trkpt>
			 <trkpt lat="25.051572" lon="121.553483">
				 <ele>17.5</ele>
			 </trkpt>
			 <trkpt lat="25.051578" lon="121.552987">
				 <ele>16.4</ele>
			 </trkpt>
			 <trkpt lat="25.051583" lon="121.552491">
				 <ele>16.4</ele>
			 </trkpt>
			 <trkpt lat="25.051589" lon="121.551994">
				 <ele>16.8</ele>
			 </trkpt>
			 <trkpt lat="25.051594" lon="121.551498">
				 <ele>16.6</ele>
			 </trkpt>
			 <trkpt lat="25.0516" lon="121.551002">
				 <ele>15.9</ele>
			 </trkpt>
			 <trkpt lat="25.0516" lon="121.55099">
				 <ele>15</ele>
			 </trkpt>
		 </trkseg>
	 </trk>
</gpx>