<?xml version="1.0" encoding="UTF-8"?>
<gpx xmlns="http://www.topografix.com/GPX/1/1" xmlns:gpxdata="http://www.cluetrust.com/XML/GPXDATA/1/0" xmlns:xsi="http://www.w3.org/2001/XMLSchema-instance" xsi:schemaLocation="http://www.topografix.com/GPX/1/1 https://www.topografix.com/GPX/1/1/gpx.xsd http://www.cluetrust.com/XML/GPXDATA/1/0 https://www.cluetrust.com/Schemas/gpxdata10.xsd" creator="COROS Wearables" version="1.1">
 <metadata>
  <link href="https://www.coros.com">
   <text>COROS</text>
  </link>
  <time>2026-08-24T21:50:53Z</time>
  <coros_edit>1</coros_edit>
 </metadata>
 <trk>
  <name>yangyang_marathon_half</name>
  <type>running</type>
  <trkseg>
   <trkpt lat="38.0734340" lon="128.6236350">
    <ele>13</ele>
   </trkpt>
   <trkpt lat="38.0736730" lon="128.6240270">
    <ele>12</ele>
   </trkpt>
   <trkpt lat="38.0740410" lon="128.6245710">
    <ele>10</ele>
   </trkpt>
   <trkpt lat="38.0743830" lon="128.6250220">
    <ele>8</ele>
   </trkpt>
   <trkpt lat="38.0745960" lon="128.6253230">
    <ele>8</ele>
   </trkpt>
   <trkpt lat="38.0746820" lon="128.6254280">
    <ele>9</ele>
   </trkpt>
   <trkpt lat="38.0748920" lon="128.6256810">
    <ele>9</ele>
   </trkpt>
   <trkpt lat="38.0751450" lon="128.6259730">
    <ele>10</ele>
   </trkpt>
   <trkpt lat="38.0754230" lon="128.6262830">
    <ele>10</ele>
   </trkpt>
   <trkpt lat="38.0756450" lon="128.6264920">
    <ele>9</ele>
   </trkpt>
   <trkpt lat="38.0758220" lon="128.6266610">
    <ele>9</ele>
   </trkpt>
   <trkpt lat="38.0759410" lon="128.6267780">
    <ele>9</ele>
   </trkpt>
   <trkpt lat="38.0761770" lon="128.6269710">
    <ele>9</ele>
   </trkpt>
   <trkpt lat="38.0763520" lon="128.6271510">
    <ele>9</ele>
   </trkpt>
   <trkpt lat="38.0766150" lon="128.6273620">
    <ele>9</ele>
   </trkpt>
   <trkpt lat="38.0768790" lon="128.6275760">
    <ele>9</ele>
   </trkpt>
   <trkpt lat="38.0770420" lon="128.6277090">
    <ele>9</ele>
   </trkpt>
   <trkpt lat="38.0773620" lon="128.6279880">
    <ele>10</ele>
   </trkpt>
   <trkpt lat="38.0774010" lon="128.6281080">
    <ele>10</ele>
   </trkpt>
   <trkpt lat="38.0775620" lon="128.6282990">
    <ele>10</ele>
   </trkpt>
   <trkpt lat="38.0778350" lon="128.6286200">
    <ele>12</ele>
   </trkpt>
   <trkpt lat="38.0781310" lon="128.6288360">
    <ele>13</ele>
   </trkpt>
   <trkpt lat="38.0782390" lon="128.6289020">
    <ele>12</ele>
   </trkpt>
   <trkpt lat="38.0784710" lon="128.6289750">
    <ele>12</ele>
   </trkpt>
   <trkpt lat="38.0788670" lon="128.6291350">
    <ele>11</ele>
   </trkpt>
   <trkpt lat="38.0789800" lon="128.6291740">
    <ele>11</ele>
   </trkpt>
   <trkpt lat="38.0791180" lon="128.6292220">
    <ele>11</ele>
   </trkpt>
   <trkpt lat="38.0792430" lon="128.6292670">
    <ele>11</ele>
   </trkpt>
   <trkpt lat="38.0794060" lon="128.6293840">
    <ele>10</ele>
   </trkpt>
   <trkpt lat="38.0800320" lon="128.6298320">
    <ele>7</ele>
   </trkpt>
   <trkpt lat="38.0802100" lon="128.6299590">
    <ele>7</ele>
   </trkpt>
   <trkpt lat="38.0810450" lon="128.6305690">
    <ele>9</ele>
   </trkpt>
   <trkpt lat="38.0814360" lon="128.6308420">
    <ele>9</ele>
   </trkpt>
   <trkpt lat="38.0815810" lon="128.6309080">
    <ele>9</ele>
   </trkpt>
   <trkpt lat="38.0819230" lon="128.6311700">
    <ele>8</ele>
   </trkpt>
   <trkpt lat="38.0822920" lon="128.6314510">
    <ele>9</ele>
   </trkpt>
   <trkpt lat="38.0829780" lon="128.6319230">
    <ele>5</ele>
   </trkpt>
   <trkpt lat="38.0834700" lon="128.6322910">
    <ele>8</ele>
   </trkpt>
   <trkpt lat="38.0841880" lon="128.6327840">
    <ele>9</ele>
   </trkpt>
   <trkpt lat="38.0847550" lon="128.6331630">
    <ele>9</ele>
   </trkpt>
   <trkpt lat="38.0852940" lon="128.6335440">
    <ele>6</ele>
   </trkpt>
   <trkpt lat="38.0857970" lon="128.6339080">
    <ele>6</ele>
   </trkpt>
   <trkpt lat="38.0861910" lon="128.6341690">
    <ele>7</ele>
   </trkpt>
   <trkpt lat="38.0863630" lon="128.6342960">
    <ele>5</ele>
   </trkpt>
   <trkpt lat="38.0866640" lon="128.6345190">
    <ele>4</ele>
   </trkpt>
   <trkpt lat="38.0868340" lon="128.6346300">
    <ele>4</ele>
   </trkpt>
   <trkpt lat="38.0869860" lon="128.6347300">
    <ele>4</ele>
   </trkpt>
   <trkpt lat="38.0876760" lon="128.6352230">
    <ele>6</ele>
   </trkpt>
   <trkpt lat="38.0884810" lon="128.6357760">
    <ele>5</ele>
   </trkpt>
   <trkpt lat="38.0887370" lon="128.6359450">
    <ele>6</ele>
   </trkpt>
   <trkpt lat="38.0888910" lon="128.6360510">
    <ele>7</ele>
   </trkpt>
   <trkpt lat="38.0890040" lon="128.6361330">
    <ele>8</ele>
   </trkpt>
   <trkpt lat="38.0891170" lon="128.6361960">
    <ele>8</ele>
   </trkpt>
   <trkpt lat="38.0892940" lon="128.6362760">
    <ele>8</ele>
   </trkpt>
   <trkpt lat="38.0894560" lon="128.6363350">
    <ele>7</ele>
   </trkpt>
   <trkpt lat="38.0896570" lon="128.6364030">
    <ele>7</ele>
   </trkpt>
   <trkpt lat="38.0902150" lon="128.6366220">
    <ele>7</ele>
   </trkpt>
   <trkpt lat="38.0916740" lon="128.6370580">
    <ele>6</ele>
   </trkpt>
   <trkpt lat="38.0922410" lon="128.6372420">
    <ele>5</ele>
   </trkpt>
   <trkpt lat="38.0926050" lon="128.6373520">
    <ele>4</ele>
   </trkpt>
   <trkpt lat="38.0935130" lon="128.6376450">
    <ele>5</ele>
   </trkpt>
   <trkpt lat="38.0942890" lon="128.6378860">
    <ele>6</ele>
   </trkpt>
   <trkpt lat="38.0943430" lon="128.6379010">
    <ele>5</ele>
   </trkpt>
   <trkpt lat="38.0945830" lon="128.6379860">
    <ele>5</ele>
   </trkpt>
   <trkpt lat="38.0949620" lon="128.6381060">
    <ele>5</ele>
   </trkpt>
   <trkpt lat="38.0953350" lon="128.6382140">
    <ele>5</ele>
   </trkpt>
   <trkpt lat="38.0955920" lon="128.6382630">
    <ele>6</ele>
   </trkpt>
   <trkpt lat="38.0960880" lon="128.6383830">
    <ele>3</ele>
   </trkpt>
   <trkpt lat="38.0971770" lon="128.6386320">
    <ele>3</ele>
   </trkpt>
   <trkpt lat="38.0974600" lon="128.6386910">
    <ele>3</ele>
   </trkpt>
   <trkpt lat="38.0977150" lon="128.6387210">
    <ele>3</ele>
   </trkpt>
   <trkpt lat="38.0982080" lon="128.6388320">
    <ele>3</ele>
   </trkpt>
   <trkpt lat="38.0990500" lon="128.6390470">
    <ele>3</ele>
   </trkpt>
   <trkpt lat="38.0991290" lon="128.6390670">
    <ele>3</ele>
   </trkpt>
   <trkpt lat="38.0996530" lon="128.6391730">
    <ele>3</ele>
   </trkpt>
   <trkpt lat="38.0998940" lon="128.6392260">
    <ele>3</ele>
   </trkpt>
   <trkpt lat="38.1003000" lon="128.6393130">
    <ele>3</ele>
   </trkpt>
   <trkpt lat="38.1003750" lon="128.6393290">
    <ele>3</ele>
   </trkpt>
   <trkpt lat="38.1007570" lon="128.6394290">
    <ele>4</ele>
   </trkpt>
   <trkpt lat="38.1010130" lon="128.6394950">
    <ele>6</ele>
   </trkpt>
   <trkpt lat="38.1012230" lon="128.6395440">
    <ele>6</ele>
   </trkpt>
   <trkpt lat="38.1013170" lon="128.6395770">
    <ele>6</ele>
   </trkpt>
   <trkpt lat="38.1018020" lon="128.6397240">
    <ele>6</ele>
   </trkpt>
   <trkpt lat="38.1021870" lon="128.6398190">
    <ele>7</ele>
   </trkpt>
   <trkpt lat="38.1028270" lon="128.6399760">
    <ele>7</ele>
   </trkpt>
   <trkpt lat="38.1028090" lon="128.6400580">
    <ele>7</ele>
   </trkpt>
   <trkpt lat="38.1027930" lon="128.6401340">
    <ele>7</ele>
   </trkpt>
   <trkpt lat="38.1027520" lon="128.6403220">
    <ele>6</ele>
   </trkpt>
   <trkpt lat="38.1016930" lon="128.6455610">
    <ele>3</ele>
   </trkpt>
   <trkpt lat="38.1013900" lon="128.6472080">
    <ele>3</ele>
   </trkpt>
   <trkpt lat="38.1013290" lon="128.6475380">
    <ele>4</ele>
   </trkpt>
   <trkpt lat="38.1012640" lon="128.6480250">
    <ele>5</ele>
   </trkpt>
   <trkpt lat="38.1011340" lon="128.6486700">
    <ele>6</ele>
   </trkpt>
   <trkpt lat="38.1010120" lon="128.6491170">
    <ele>5</ele>
   </trkpt>
   <trkpt lat="38.1009190" lon="128.6494140">
    <ele>4</ele>
   </trkpt>
   <trkpt lat="38.1008420" lon="128.6496430">
    <ele>5</ele>
   </trkpt>
   <trkpt lat="38.1007440" lon="128.6498980">
    <ele>4</ele>
   </trkpt>
   <trkpt lat="38.1006480" lon="128.6501340">
    <ele>4</ele>
   </trkpt>
   <trkpt lat="38.1005370" lon="128.6503730">
    <ele>4</ele>
   </trkpt>
   <trkpt lat="38.1003010" lon="128.6508020">
    <ele>9</ele>
   </trkpt>
   <trkpt lat="38.1000700" lon="128.6511560">
    <ele>9</ele>
   </trkpt>
   <trkpt lat="38.0997970" lon="128.6515380">
    <ele>7</ele>
   </trkpt>
   <trkpt lat="38.0995670" lon="128.6518210">
    <ele>5</ele>
   </trkpt>
   <trkpt lat="38.0995160" lon="128.6518730">
    <ele>5</ele>
   </trkpt>
   <trkpt lat="38.0992570" lon="128.6521360">
    <ele>4</ele>
   </trkpt>
   <trkpt lat="38.0989470" lon="128.6524300">
    <ele>3</ele>
   </trkpt>
   <trkpt lat="38.0989010" lon="128.6524730">
    <ele>3</ele>
   </trkpt>
   <trkpt lat="38.0984310" lon="128.6528090">
    <ele>5</ele>
   </trkpt>
   <trkpt lat="38.0980770" lon="128.6532000">
    <ele>7</ele>
   </trkpt>
   <trkpt lat="38.0972140" lon="128.6539720">
    <ele>8</ele>
   </trkpt>
   <trkpt lat="38.0963710" lon="128.6546820">
    <ele>5</ele>
   </trkpt>
   <trkpt lat="38.0956410" lon="128.6553210">
    <ele>7</ele>
   </trkpt>
   <trkpt lat="38.0948180" lon="128.6560380">
    <ele>7</ele>
   </trkpt>
   <trkpt lat="38.0942510" lon="128.6565340">
    <ele>5</ele>
   </trkpt>
   <trkpt lat="38.0938540" lon="128.6568820">
    <ele>5</ele>
   </trkpt>
   <trkpt lat="38.0934250" lon="128.6573470">
    <ele>5</ele>
   </trkpt>
   <trkpt lat="38.0932030" lon="128.6576080">
    <ele>5</ele>
   </trkpt>
   <trkpt lat="38.0929740" lon="128.6579210">
    <ele>5</ele>
   </trkpt>
   <trkpt lat="38.0926620" lon="128.6583510">
    <ele>6</ele>
   </trkpt>
   <trkpt lat="38.0924470" lon="128.6586470">
    <ele>6</ele>
   </trkpt>
   <trkpt lat="38.0922110" lon="128.6589370">
    <ele>6</ele>
   </trkpt>
   <trkpt lat="38.0921560" lon="128.6589990">
    <ele>6</ele>
   </trkpt>
   <trkpt lat="38.0919580" lon="128.6592230">
    <ele>4</ele>
   </trkpt>
   <trkpt lat="38.0917710" lon="128.6594310">
    <ele>4</ele>
   </trkpt>
   <trkpt lat="38.0915220" lon="128.6597110">
    <ele>5</ele>
   </trkpt>
   <trkpt lat="38.0911560" lon="128.6600300">
    <ele>6</ele>
   </trkpt>
   <trkpt lat="38.0911130" lon="128.6600680">
    <ele>6</ele>
   </trkpt>
   <trkpt lat="38.0909480" lon="128.6602050">
    <ele>7</ele>
   </trkpt>
   <trkpt lat="38.0906310" lon="128.6604650">
    <ele>8</ele>
   </trkpt>
   <trkpt lat="38.0898610" lon="128.6610920">
    <ele>7</ele>
   </trkpt>
   <trkpt lat="38.0893580" lon="128.6614860">
    <ele>7</ele>
   </trkpt>
   <trkpt lat="38.0891810" lon="128.6616250">
    <ele>7</ele>
   </trkpt>
   <trkpt lat="38.0890770" lon="128.6617080">
    <ele>7</ele>
   </trkpt>
   <trkpt lat="38.0887880" lon="128.6620960">
    <ele>5</ele>
   </trkpt>
   <trkpt lat="38.0887120" lon="128.6621950">
    <ele>5</ele>
   </trkpt>
   <trkpt lat="38.0884590" lon="128.6625240">
    <ele>7</ele>
   </trkpt>
   <trkpt lat="38.0884180" lon="128.6625830">
    <ele>7</ele>
   </trkpt>
   <trkpt lat="38.0883140" lon="128.6627140">
    <ele>10</ele>
   </trkpt>
   <trkpt lat="38.0881290" lon="128.6629500">
    <ele>13</ele>
   </trkpt>
   <trkpt lat="38.0878010" lon="128.6633190">
    <ele>14</ele>
   </trkpt>
   <trkpt lat="38.0874660" lon="128.6636500">
    <ele>12</ele>
   </trkpt>
   <trkpt lat="38.0871780" lon="128.6638710">
    <ele>12</ele>
   </trkpt>
   <trkpt lat="38.0869740" lon="128.6639880">
    <ele>12</ele>
   </trkpt>
   <trkpt lat="38.0867600" lon="128.6640990">
    <ele>11</ele>
   </trkpt>
   <trkpt lat="38.0863670" lon="128.6642980">
    <ele>10</ele>
   </trkpt>
   <trkpt lat="38.0856410" lon="128.6645960">
    <ele>6</ele>
   </trkpt>
   <trkpt lat="38.0850130" lon="128.6648970">
    <ele>5</ele>
   </trkpt>
   <trkpt lat="38.0840690" lon="128.6653980">
    <ele>9</ele>
   </trkpt>
   <trkpt lat="38.0836650" lon="128.6656210">
    <ele>14</ele>
   </trkpt>
   <trkpt lat="38.0831730" lon="128.6659400">
    <ele>16</ele>
   </trkpt>
   <trkpt lat="38.0826710" lon="128.6662830">
    <ele>11</ele>
   </trkpt>
   <trkpt lat="38.0825500" lon="128.6663930">
    <ele>10</ele>
   </trkpt>
   <trkpt lat="38.0820080" lon="128.6668860">
    <ele>8</ele>
   </trkpt>
   <trkpt lat="38.0817320" lon="128.6671480">
    <ele>9</ele>
   </trkpt>
   <trkpt lat="38.0809300" lon="128.6679330">
    <ele>12</ele>
   </trkpt>
   <trkpt lat="38.0805430" lon="128.6683020">
    <ele>11</ele>
   </trkpt>
   <trkpt lat="38.0798150" lon="128.6690150">
    <ele>10</ele>
   </trkpt>
   <trkpt lat="38.0792990" lon="128.6694910">
    <ele>11</ele>
   </trkpt>
   <trkpt lat="38.0789530" lon="128.6697860">
    <ele>12</ele>
   </trkpt>
   <trkpt lat="38.0788010" lon="128.6698930">
    <ele>13</ele>
   </trkpt>
   <trkpt lat="38.0779170" lon="128.6704230">
    <ele>12</ele>
   </trkpt>
   <trkpt lat="38.0771820" lon="128.6708590">
    <ele>17</ele>
   </trkpt>
   <trkpt lat="38.0766260" lon="128.6712020">
    <ele>16</ele>
   </trkpt>
   <trkpt lat="38.0758950" lon="128.6716020">
    <ele>21</ele>
   </trkpt>
   <trkpt lat="38.0755680" lon="128.6717520">
    <ele>22</ele>
   </trkpt>
   <trkpt lat="38.0751970" lon="128.6718890">
    <ele>23</ele>
   </trkpt>
   <trkpt lat="38.0747040" lon="128.6720590">
    <ele>25</ele>
   </trkpt>
   <trkpt lat="38.0739720" lon="128.6722330">
    <ele>27</ele>
   </trkpt>
   <trkpt lat="38.0734590" lon="128.6724080">
    <ele>39</ele>
   </trkpt>
   <trkpt lat="38.0732080" lon="128.6724930">
    <ele>42</ele>
   </trkpt>
   <trkpt lat="38.0727790" lon="128.6727010">
    <ele>45</ele>
   </trkpt>
   <trkpt lat="38.0725860" lon="128.6727940">
    <ele>47</ele>
   </trkpt>
   <trkpt lat="38.0721760" lon="128.6729770">
    <ele>47</ele>
   </trkpt>
   <trkpt lat="38.0711880" lon="128.6734850">
    <ele>39</ele>
   </trkpt>
   <trkpt lat="38.0702730" lon="128.6739260">
    <ele>28</ele>
   </trkpt>
   <trkpt lat="38.0696370" lon="128.6742920">
    <ele>21</ele>
   </trkpt>
   <trkpt lat="38.0693540" lon="128.6744670">
    <ele>20</ele>
   </trkpt>
   <trkpt lat="38.0691450" lon="128.6746030">
    <ele>16</ele>
   </trkpt>
   <trkpt lat="38.0689420" lon="128.6747650">
    <ele>13</ele>
   </trkpt>
   <trkpt lat="38.0685180" lon="128.6750640">
    <ele>16</ele>
   </trkpt>
   <trkpt lat="38.0681240" lon="128.6752840">
    <ele>22</ele>
   </trkpt>
   <trkpt lat="38.0677910" lon="128.6754120">
    <ele>21</ele>
   </trkpt>
   <trkpt lat="38.0674070" lon="128.6755370">
    <ele>14</ele>
   </trkpt>
   <trkpt lat="38.0668630" lon="128.6756510">
    <ele>9</ele>
   </trkpt>
   <trkpt lat="38.0665590" lon="128.6756960">
    <ele>7</ele>
   </trkpt>
   <trkpt lat="38.0662650" lon="128.6757570">
    <ele>7</ele>
   </trkpt>
   <trkpt lat="38.0658030" lon="128.6758940">
    <ele>6</ele>
   </trkpt>
   <trkpt lat="38.0653170" lon="128.6761190">
    <ele>5</ele>
   </trkpt>
   <trkpt lat="38.0650540" lon="128.6762590">
    <ele>5</ele>
   </trkpt>
   <trkpt lat="38.0640180" lon="128.6772900">
    <ele>14</ele>
   </trkpt>
   <trkpt lat="38.0631410" lon="128.6782640">
    <ele>23</ele>
   </trkpt>
   <trkpt lat="38.0628980" lon="128.6785340">
    <ele>28</ele>
   </trkpt>
   <trkpt lat="38.0625930" lon="128.6788550">
    <ele>33</ele>
   </trkpt>
   <trkpt lat="38.0620550" lon="128.6794220">
    <ele>27</ele>
   </trkpt>
   <trkpt lat="38.0616810" lon="128.6798670">
    <ele>17</ele>
   </trkpt>
   <trkpt lat="38.0614650" lon="128.6800920">
    <ele>18</ele>
   </trkpt>
   <trkpt lat="38.0612400" lon="128.6802850">
    <ele>16</ele>
   </trkpt>
   <trkpt lat="38.0609960" lon="128.6804860">
    <ele>10</ele>
   </trkpt>
   <trkpt lat="38.0606840" lon="128.6806560">
    <ele>7</ele>
   </trkpt>
   <trkpt lat="38.0603710" lon="128.6808710">
    <ele>7</ele>
   </trkpt>
   <trkpt lat="38.0600580" lon="128.6811030">
    <ele>8</ele>
   </trkpt>
   <trkpt lat="38.0596530" lon="128.6815300">
    <ele>7</ele>
   </trkpt>
   <trkpt lat="38.0592840" lon="128.6819520">
    <ele>8</ele>
   </trkpt>
   <trkpt lat="38.0591110" lon="128.6821220">
    <ele>7</ele>
   </trkpt>
   <trkpt lat="38.0588980" lon="128.6822570">
    <ele>6</ele>
   </trkpt>
   <trkpt lat="38.0587490" lon="128.6822970">
    <ele>6</ele>
   </trkpt>
   <trkpt lat="38.0585670" lon="128.6825220">
    <ele>4</ele>
   </trkpt>
   <trkpt lat="38.0584420" lon="128.6826670">
    <ele>4</ele>
   </trkpt>
   <trkpt lat="38.0582090" lon="128.6829350">
    <ele>5</ele>
   </trkpt>
   <trkpt lat="38.0580210" lon="128.6831130">
    <ele>5</ele>
   </trkpt>
   <trkpt lat="38.0582090" lon="128.6829350">
    <ele>5</ele>
   </trkpt>
   <trkpt lat="38.0584420" lon="128.6826670">
    <ele>4</ele>
   </trkpt>
   <trkpt lat="38.0585610" lon="128.6825300">
    <ele>4</ele>
   </trkpt>
   <trkpt lat="38.0587490" lon="128.6822970">
    <ele>6</ele>
   </trkpt>
   <trkpt lat="38.0588980" lon="128.6822570">
    <ele>6</ele>
   </trkpt>
   <trkpt lat="38.0591110" lon="128.6821220">
    <ele>7</ele>
   </trkpt>
   <trkpt lat="38.0592840" lon="128.6819520">
    <ele>8</ele>
   </trkpt>
   <trkpt lat="38.0596530" lon="128.6815300">
    <ele>7</ele>
   </trkpt>
   <trkpt lat="38.0600580" lon="128.6811030">
    <ele>8</ele>
   </trkpt>
   <trkpt lat="38.0603710" lon="128.6808710">
    <ele>7</ele>
   </trkpt>
   <trkpt lat="38.0606840" lon="128.6806560">
    <ele>7</ele>
   </trkpt>
   <trkpt lat="38.0609960" lon="128.6804860">
    <ele>10</ele>
   </trkpt>
   <trkpt lat="38.0612400" lon="128.6802850">
    <ele>16</ele>
   </trkpt>
   <trkpt lat="38.0614650" lon="128.6800920">
    <ele>18</ele>
   </trkpt>
   <trkpt lat="38.0616810" lon="128.6798670">
    <ele>17</ele>
   </trkpt>
   <trkpt lat="38.0620550" lon="128.6794220">
    <ele>27</ele>
   </trkpt>
   <trkpt lat="38.0628980" lon="128.6785340">
    <ele>28</ele>
   </trkpt>
   <trkpt lat="38.0631060" lon="128.6783030">
    <ele>23</ele>
   </trkpt>
   <trkpt lat="38.0636470" lon="128.6777020">
    <ele>18</ele>
   </trkpt>
   <trkpt lat="38.0640180" lon="128.6772900">
    <ele>14</ele>
   </trkpt>
   <trkpt lat="38.0650540" lon="128.6762590">
    <ele>5</ele>
   </trkpt>
   <trkpt lat="38.0653170" lon="128.6761190">
    <ele>5</ele>
   </trkpt>
   <trkpt lat="38.0658030" lon="128.6758940">
    <ele>6</ele>
   </trkpt>
   <trkpt lat="38.0662650" lon="128.6757570">
    <ele>7</ele>
   </trkpt>
   <trkpt lat="38.0665590" lon="128.6756960">
    <ele>7</ele>
   </trkpt>
   <trkpt lat="38.0668630" lon="128.6756510">
    <ele>9</ele>
   </trkpt>
   <trkpt lat="38.0674070" lon="128.6755370">
    <ele>14</ele>
   </trkpt>
   <trkpt lat="38.0677910" lon="128.6754120">
    <ele>21</ele>
   </trkpt>
   <trkpt lat="38.0681240" lon="128.6752840">
    <ele>22</ele>
   </trkpt>
   <trkpt lat="38.0685180" lon="128.6750640">
    <ele>16</ele>
   </trkpt>
   <trkpt lat="38.0689420" lon="128.6747650">
    <ele>13</ele>
   </trkpt>
   <trkpt lat="38.0691450" lon="128.6746030">
    <ele>16</ele>
   </trkpt>
   <trkpt lat="38.0693540" lon="128.6744670">
    <ele>20</ele>
   </trkpt>
   <trkpt lat="38.0696370" lon="128.6742920">
    <ele>21</ele>
   </trkpt>
   <trkpt lat="38.0702730" lon="128.6739260">
    <ele>28</ele>
   </trkpt>
   <trkpt lat="38.0706520" lon="128.6737430">
    <ele>30</ele>
   </trkpt>
   <trkpt lat="38.0711880" lon="128.6734850">
    <ele>39</ele>
   </trkpt>
   <trkpt lat="38.0713220" lon="128.6734160">
    <ele>42</ele>
   </trkpt>
   <trkpt lat="38.0721760" lon="128.6729770">
    <ele>47</ele>
   </trkpt>
   <trkpt lat="38.0725860" lon="128.6727940">
    <ele>47</ele>
   </trkpt>
   <trkpt lat="38.0732080" lon="128.6724930">
    <ele>42</ele>
   </trkpt>
   <trkpt lat="38.0739720" lon="128.6722330">
    <ele>27</ele>
   </trkpt>
   <trkpt lat="38.0747040" lon="128.6720590">
    <ele>25</ele>
   </trkpt>
   <trkpt lat="38.0751970" lon="128.6718890">
    <ele>23</ele>
   </trkpt>
   <trkpt lat="38.0755680" lon="128.6717520">
    <ele>22</ele>
   </trkpt>
   <trkpt lat="38.0758950" lon="128.6716020">
    <ele>21</ele>
   </trkpt>
   <trkpt lat="38.0766260" lon="128.6712020">
    <ele>16</ele>
   </trkpt>
   <trkpt lat="38.0771820" lon="128.6708590">
    <ele>17</ele>
   </trkpt>
   <trkpt lat="38.0779170" lon="128.6704230">
    <ele>12</ele>
   </trkpt>
   <trkpt lat="38.0788010" lon="128.6698930">
    <ele>13</ele>
   </trkpt>
   <trkpt lat="38.0789530" lon="128.6697860">
    <ele>12</ele>
   </trkpt>
   <trkpt lat="38.0792990" lon="128.6694910">
    <ele>11</ele>
   </trkpt>
   <trkpt lat="38.0798150" lon="128.6690150">
    <ele>10</ele>
   </trkpt>
   <trkpt lat="38.0805430" lon="128.6683020">
    <ele>11</ele>
   </trkpt>
   <trkpt lat="38.0806810" lon="128.6681700">
    <ele>12</ele>
   </trkpt>
   <trkpt lat="38.0809300" lon="128.6679330">
    <ele>12</ele>
   </trkpt>
   <trkpt lat="38.0812530" lon="128.6676170">
    <ele>11</ele>
   </trkpt>
   <trkpt lat="38.0817320" lon="128.6671480">
    <ele>9</ele>
   </trkpt>
   <trkpt lat="38.0820080" lon="128.6668860">
    <ele>8</ele>
   </trkpt>
   <trkpt lat="38.0826710" lon="128.6662830">
    <ele>11</ele>
   </trkpt>
   <trkpt lat="38.0831670" lon="128.6659440">
    <ele>16</ele>
   </trkpt>
   <trkpt lat="38.0836650" lon="128.6656210">
    <ele>14</ele>
   </trkpt>
   <trkpt lat="38.0840690" lon="128.6653980">
    <ele>9</ele>
   </trkpt>
   <trkpt lat="38.0850130" lon="128.6648970">
    <ele>5</ele>
   </trkpt>
   <trkpt lat="38.0856410" lon="128.6645960">
    <ele>6</ele>
   </trkpt>
   <trkpt lat="38.0863670" lon="128.6642980">
    <ele>10</ele>
   </trkpt>
   <trkpt lat="38.0867600" lon="128.6640990">
    <ele>11</ele>
   </trkpt>
   <trkpt lat="38.0869740" lon="128.6639880">
    <ele>12</ele>
   </trkpt>
   <trkpt lat="38.0871780" lon="128.6638710">
    <ele>12</ele>
   </trkpt>
   <trkpt lat="38.0874660" lon="128.6636500">
    <ele>12</ele>
   </trkpt>
   <trkpt lat="38.0878010" lon="128.6633190">
    <ele>14</ele>
   </trkpt>
   <trkpt lat="38.0881290" lon="128.6629500">
    <ele>13</ele>
   </trkpt>
   <trkpt lat="38.0883140" lon="128.6627140">
    <ele>10</ele>
   </trkpt>
   <trkpt lat="38.0884180" lon="128.6625830">
    <ele>7</ele>
   </trkpt>
   <trkpt lat="38.0884590" lon="128.6625240">
    <ele>7</ele>
   </trkpt>
   <trkpt lat="38.0887120" lon="128.6621950">
    <ele>5</ele>
   </trkpt>
   <trkpt lat="38.0887880" lon="128.6620960">
    <ele>5</ele>
   </trkpt>
   <trkpt lat="38.0890770" lon="128.6617080">
    <ele>7</ele>
   </trkpt>
   <trkpt lat="38.0891810" lon="128.6616250">
    <ele>7</ele>
   </trkpt>
   <trkpt lat="38.0893580" lon="128.6614860">
    <ele>7</ele>
   </trkpt>
   <trkpt lat="38.0898610" lon="128.6610920">
    <ele>7</ele>
   </trkpt>
   <trkpt lat="38.0906310" lon="128.6604650">
    <ele>8</ele>
   </trkpt>
   <trkpt lat="38.0909480" lon="128.6602050">
    <ele>7</ele>
   </trkpt>
   <trkpt lat="38.0911130" lon="128.6600680">
    <ele>6</ele>
   </trkpt>
   <trkpt lat="38.0911560" lon="128.6600300">
    <ele>6</ele>
   </trkpt>
   <trkpt lat="38.0915220" lon="128.6597110">
    <ele>5</ele>
   </trkpt>
   <trkpt lat="38.0917710" lon="128.6594310">
    <ele>4</ele>
   </trkpt>
   <trkpt lat="38.0919580" lon="128.6592230">
    <ele>4</ele>
   </trkpt>
   <trkpt lat="38.0922110" lon="128.6589370">
    <ele>6</ele>
   </trkpt>
   <trkpt lat="38.0924470" lon="128.6586470">
    <ele>6</ele>
   </trkpt>
   <trkpt lat="38.0929740" lon="128.6579210">
    <ele>5</ele>
   </trkpt>
   <trkpt lat="38.0932030" lon="128.6576080">
    <ele>5</ele>
   </trkpt>
   <trkpt lat="38.0934250" lon="128.6573470">
    <ele>5</ele>
   </trkpt>
   <trkpt lat="38.0938540" lon="128.6568820">
    <ele>5</ele>
   </trkpt>
   <trkpt lat="38.0942510" lon="128.6565340">
    <ele>5</ele>
   </trkpt>
   <trkpt lat="38.0948180" lon="128.6560380">
    <ele>7</ele>
   </trkpt>
   <trkpt lat="38.0956410" lon="128.6553210">
    <ele>7</ele>
   </trkpt>
   <trkpt lat="38.0963710" lon="128.6546820">
    <ele>5</ele>
   </trkpt>
   <trkpt lat="38.0972140" lon="128.6539720">
    <ele>8</ele>
   </trkpt>
   <trkpt lat="38.0980770" lon="128.6532000">
    <ele>7</ele>
   </trkpt>
   <trkpt lat="38.0984310" lon="128.6528090">
    <ele>5</ele>
   </trkpt>
   <trkpt lat="38.0989010" lon="128.6524730">
    <ele>3</ele>
   </trkpt>
   <trkpt lat="38.0992570" lon="128.6521360">
    <ele>4</ele>
   </trkpt>
   <trkpt lat="38.0995670" lon="128.6518210">
    <ele>5</ele>
   </trkpt>
   <trkpt lat="38.0997970" lon="128.6515380">
    <ele>7</ele>
   </trkpt>
   <trkpt lat="38.1000700" lon="128.6511560">
    <ele>9</ele>
   </trkpt>
   <trkpt lat="38.1003010" lon="128.6508020">
    <ele>9</ele>
   </trkpt>
   <trkpt lat="38.1005370" lon="128.6503730">
    <ele>4</ele>
   </trkpt>
   <trkpt lat="38.1006480" lon="128.6501340">
    <ele>4</ele>
   </trkpt>
   <trkpt lat="38.1007440" lon="128.6498980">
    <ele>4</ele>
   </trkpt>
   <trkpt lat="38.1008420" lon="128.6496430">
    <ele>5</ele>
   </trkpt>
   <trkpt lat="38.1009190" lon="128.6494140">
    <ele>4</ele>
   </trkpt>
   <trkpt lat="38.1010120" lon="128.6491170">
    <ele>5</ele>
   </trkpt>
   <trkpt lat="38.1011340" lon="128.6486700">
    <ele>6</ele>
   </trkpt>
   <trkpt lat="38.1012640" lon="128.6480250">
    <ele>5</ele>
   </trkpt>
   <trkpt lat="38.1013290" lon="128.6475380">
    <ele>4</ele>
   </trkpt>
   <trkpt lat="38.1009620" lon="128.6472290">
    <ele>4</ele>
   </trkpt>
   <trkpt lat="38.1010260" lon="128.6471350">
    <ele>4</ele>
   </trkpt>
   <trkpt lat="38.1012400" lon="128.6468560">
    <ele>4</ele>
   </trkpt>
   <trkpt lat="38.1013140" lon="128.6466280">
    <ele>3</ele>
   </trkpt>
   <trkpt lat="38.1014670" lon="128.6458600">
    <ele>3</ele>
   </trkpt>
   <trkpt lat="38.1015040" lon="128.6456380">
    <ele>4</ele>
   </trkpt>
   <trkpt lat="38.1015000" lon="128.6456200">
    <ele>4</ele>
   </trkpt>
   <trkpt lat="38.1014500" lon="128.6454180">
    <ele>3</ele>
   </trkpt>
   <trkpt lat="38.1013610" lon="128.6452770">
    <ele>3</ele>
   </trkpt>
   <trkpt lat="38.1011910" lon="128.6451960">
    <ele>4</ele>
   </trkpt>
   <trkpt lat="38.1009710" lon="128.6451180">
    <ele>4</ele>
   </trkpt>
   <trkpt lat="38.0996700" lon="128.6446570">
    <ele>4</ele>
   </trkpt>
   <trkpt lat="38.0971300" lon="128.6437360">
    <ele>12</ele>
   </trkpt>
   <trkpt lat="38.0966550" lon="128.6435610">
    <ele>17</ele>
   </trkpt>
   <trkpt lat="38.0962400" lon="128.6434540">
    <ele>14</ele>
   </trkpt>
   <trkpt lat="38.0958440" lon="128.6434390">
    <ele>16</ele>
   </trkpt>
   <trkpt lat="38.0947930" lon="128.6435200">
    <ele>10</ele>
   </trkpt>
   <trkpt lat="38.0946400" lon="128.6435920">
    <ele>10</ele>
   </trkpt>
   <trkpt lat="38.0944780" lon="128.6437740">
    <ele>10</ele>
   </trkpt>
   <trkpt lat="38.0943450" lon="128.6440270">
    <ele>10</ele>
   </trkpt>
   <trkpt lat="38.0941790" lon="128.6441400">
    <ele>9</ele>
   </trkpt>
   <trkpt lat="38.0936540" lon="128.6441780">
    <ele>3</ele>
   </trkpt>
   <trkpt lat="38.0932930" lon="128.6441350">
    <ele>2</ele>
   </trkpt>
   <trkpt lat="38.0926730" lon="128.6439260">
    <ele>6</ele>
   </trkpt>
   <trkpt lat="38.0924080" lon="128.6438100">
    <ele>6</ele>
   </trkpt>
   <trkpt lat="38.0923260" lon="128.6437770">
    <ele>6</ele>
   </trkpt>
   <trkpt lat="38.0921690" lon="128.6438840">
    <ele>6</ele>
   </trkpt>
   <trkpt lat="38.0920040" lon="128.6440200">
    <ele>10</ele>
   </trkpt>
   <trkpt lat="38.0917810" lon="128.6441580">
    <ele>11</ele>
   </trkpt>
   <trkpt lat="38.0915830" lon="128.6441670">
    <ele>10</ele>
   </trkpt>
   <trkpt lat="38.0907730" lon="128.6439200">
    <ele>7</ele>
   </trkpt>
   <trkpt lat="38.0904700" lon="128.6438230">
    <ele>7</ele>
   </trkpt>
   <trkpt lat="38.0898430" lon="128.6433050">
    <ele>8</ele>
   </trkpt>
   <trkpt lat="38.0896170" lon="128.6431710">
    <ele>6</ele>
   </trkpt>
   <trkpt lat="38.0892010" lon="128.6429850">
    <ele>3</ele>
   </trkpt>
   <trkpt lat="38.0889590" lon="128.6429900">
    <ele>5</ele>
   </trkpt>
   <trkpt lat="38.0886800" lon="128.6429610">
    <ele>11</ele>
   </trkpt>
   <trkpt lat="38.0882640" lon="128.6429940">
    <ele>12</ele>
   </trkpt>
   <trkpt lat="38.0880580" lon="128.6429810">
    <ele>10</ele>
   </trkpt>
   <trkpt lat="38.0878950" lon="128.6428050">
    <ele>6</ele>
   </trkpt>
   <trkpt lat="38.0878050" lon="128.6427420">
    <ele>6</ele>
   </trkpt>
   <trkpt lat="38.0876720" lon="128.6427160">
    <ele>6</ele>
   </trkpt>
   <trkpt lat="38.0875740" lon="128.6427700">
    <ele>6</ele>
   </trkpt>
   <trkpt lat="38.0874100" lon="128.6428890">
    <ele>14</ele>
   </trkpt>
   <trkpt lat="38.0872560" lon="128.6429420">
    <ele>15</ele>
   </trkpt>
   <trkpt lat="38.0869450" lon="128.6429270">
    <ele>17</ele>
   </trkpt>
   <trkpt lat="38.0866860" lon="128.6427980">
    <ele>13</ele>
   </trkpt>
   <trkpt lat="38.0862350" lon="128.6425730">
    <ele>12</ele>
   </trkpt>
   <trkpt lat="38.0858990" lon="128.6422740">
    <ele>9</ele>
   </trkpt>
   <trkpt lat="38.0857590" lon="128.6421220">
    <ele>7</ele>
   </trkpt>
   <trkpt lat="38.0855300" lon="128.6418660">
    <ele>8</ele>
   </trkpt>
   <trkpt lat="38.0851610" lon="128.6414200">
    <ele>11</ele>
   </trkpt>
   <trkpt lat="38.0850580" lon="128.6413070">
    <ele>9</ele>
   </trkpt>
   <trkpt lat="38.0849210" lon="128.6412470">
    <ele>9</ele>
   </trkpt>
   <trkpt lat="38.0846160" lon="128.6412790">
    <ele>11</ele>
   </trkpt>
   <trkpt lat="38.0845690" lon="128.6412930">
    <ele>11</ele>
   </trkpt>
   <trkpt lat="38.0844490" lon="128.6410060">
    <ele>9</ele>
   </trkpt>
   <trkpt lat="38.0841410" lon="128.6406360">
    <ele>7</ele>
   </trkpt>
   <trkpt lat="38.0826390" lon="128.6393250">
    <ele>6</ele>
   </trkpt>
   <trkpt lat="38.0824330" lon="128.6391450">
    <ele>5</ele>
   </trkpt>
   <trkpt lat="38.0820530" lon="128.6387970">
    <ele>6</ele>
   </trkpt>
   <trkpt lat="38.0814900" lon="128.6382830">
    <ele>7</ele>
   </trkpt>
   <trkpt lat="38.0806490" lon="128.6375570">
    <ele>8</ele>
   </trkpt>
   <trkpt lat="38.0799160" lon="128.6369000">
    <ele>5</ele>
   </trkpt>
   <trkpt lat="38.0793920" lon="128.6364310">
    <ele>7</ele>
   </trkpt>
   <trkpt lat="38.0781940" lon="128.6352900">
    <ele>9</ele>
   </trkpt>
   <trkpt lat="38.0780500" lon="128.6350470">
    <ele>11</ele>
   </trkpt>
   <trkpt lat="38.0779720" lon="128.6348310">
    <ele>10</ele>
   </trkpt>
   <trkpt lat="38.0779020" lon="128.6346610">
    <ele>11</ele>
   </trkpt>
   <trkpt lat="38.0775050" lon="128.6343780">
    <ele>12</ele>
   </trkpt>
   <trkpt lat="38.0772950" lon="128.6342700">
    <ele>11</ele>
   </trkpt>
   <trkpt lat="38.0771260" lon="128.6342840">
    <ele>18</ele>
   </trkpt>
   <trkpt lat="38.0768590" lon="128.6342420">
    <ele>17</ele>
   </trkpt>
   <trkpt lat="38.0766900" lon="128.6341840">
    <ele>19</ele>
   </trkpt>
   <trkpt lat="38.0762580" lon="128.6340120">
    <ele>17</ele>
   </trkpt>
   <trkpt lat="38.0759480" lon="128.6339150">
    <ele>12</ele>
   </trkpt>
   <trkpt lat="38.0753850" lon="128.6330960">
    <ele>12</ele>
   </trkpt>
   <trkpt lat="38.0752060" lon="128.6328180">
    <ele>12</ele>
   </trkpt>
   <trkpt lat="38.0749560" lon="128.6325230">
    <ele>14</ele>
   </trkpt>
   <trkpt lat="38.0749170" lon="128.6324780">
    <ele>14</ele>
   </trkpt>
   <trkpt lat="38.0748480" lon="128.6324190">
    <ele>15</ele>
   </trkpt>
   <trkpt lat="38.0747830" lon="128.6324450">
    <ele>15</ele>
   </trkpt>
   <trkpt lat="38.0746360" lon="128.6326000">
    <ele>15</ele>
   </trkpt>
   <trkpt lat="38.0745520" lon="128.6326920">
    <ele>15</ele>
   </trkpt>
   <trkpt lat="38.0744600" lon="128.6325620">
    <ele>15</ele>
   </trkpt>
   <trkpt lat="38.0745170" lon="128.6324990">
    <ele>15</ele>
   </trkpt>
   <trkpt lat="38.0748200" lon="128.6321630">
    <ele>13</ele>
   </trkpt>
   <trkpt lat="38.0781670" lon="128.6285310">
    <ele>14</ele>
   </trkpt>
   <trkpt lat="38.0781270" lon="128.6284250">
    <ele>14</ele>
   </trkpt>
   <trkpt lat="38.0781060" lon="128.6283760">
    <ele>14</ele>
   </trkpt>
   <trkpt lat="38.0780670" lon="128.6282970">
    <ele>13</ele>
   </trkpt>
   <trkpt lat="38.0778920" lon="128.6282490">
    <ele>12</ele>
   </trkpt>
   <trkpt lat="38.0777290" lon="128.6281750">
    <ele>11</ele>
   </trkpt>
   <trkpt lat="38.0777220" lon="128.6281710">
    <ele>11</ele>
   </trkpt>
   <trkpt lat="38.0775880" lon="128.6280870">
    <ele>11</ele>
   </trkpt>
   <trkpt lat="38.0774620" lon="128.6280040">
    <ele>11</ele>
   </trkpt>
   <trkpt lat="38.0773620" lon="128.6279880">
    <ele>10</ele>
   </trkpt>
   <trkpt lat="38.0770930" lon="128.6277530">
    <ele>9</ele>
   </trkpt>
   <trkpt lat="38.0770420" lon="128.6277090">
    <ele>9</ele>
   </trkpt>
   <trkpt lat="38.0768790" lon="128.6275760">
    <ele>9</ele>
   </trkpt>
   <trkpt lat="38.0766150" lon="128.6273620">
    <ele>9</ele>
   </trkpt>
   <trkpt lat="38.0763520" lon="128.6271510">
    <ele>9</ele>
   </trkpt>
   <trkpt lat="38.0761770" lon="128.6269710">
    <ele>9</ele>
   </trkpt>
   <trkpt lat="38.0759410" lon="128.6267780">
    <ele>9</ele>
   </trkpt>
   <trkpt lat="38.0758220" lon="128.6266610">
    <ele>9</ele>
   </trkpt>
   <trkpt lat="38.0756450" lon="128.6264920">
    <ele>9</ele>
   </trkpt>
   <trkpt lat="38.0754230" lon="128.6262830">
    <ele>10</ele>
   </trkpt>
   <trkpt lat="38.0751450" lon="128.6259730">
    <ele>10</ele>
   </trkpt>
   <trkpt lat="38.0748920" lon="128.6256810">
    <ele>9</ele>
   </trkpt>
   <trkpt lat="38.0746820" lon="128.6254280">
    <ele>9</ele>
   </trkpt>
   <trkpt lat="38.0745960" lon="128.6253230">
    <ele>8</ele>
   </trkpt>
   <trkpt lat="38.0743830" lon="128.6250220">
    <ele>8</ele>
   </trkpt>
   <trkpt lat="38.0740410" lon="128.6245710">
    <ele>10</ele>
   </trkpt>
   <trkpt lat="38.0736730" lon="128.6240270">
    <ele>12</ele>
   </trkpt>
   <trkpt lat="38.0734150" lon="128.6236050">
    <ele>13</ele>
   </trkpt>
   <trkpt lat="38.0733920" lon="128.6235700">
    <ele>13</ele>
   </trkpt>
   <trkpt lat="38.0732920" lon="128.6234120">
    <ele>12</ele>
   </trkpt>
   <trkpt lat="38.0731960" lon="128.6232360">
    <ele>11</ele>
   </trkpt>
   <trkpt lat="38.0731080" lon="128.6230910">
    <ele>11</ele>
   </trkpt>
  </trkseg>
 </trk>
</gpx>
